[{"postalCode":"6028368","prefectureKana":"ｷｮｳﾄﾌ","cityKana":"ｷｮｳﾄｼｶﾐｷﾞｮｳｸ","townAreaKana":"ｷﾀﾏﾁ","prefecture":"京都府","city":"京都市上京区","townArea":"北町天神道仁和寺街道下る"},{"postalCode":"3004504","prefectureKana":"ｲﾊﾞﾗｷｹﾝ","cityKana":"ﾁｸｾｲｼ","townAreaKana":"ﾐﾔﾔﾏ","prefecture":"茨城県","city":"筑西市","townArea":"宮山"},{"postalCode":"9650835","prefectureKana":"ﾌｸｼﾏｹﾝ","cityKana":"ｱｲﾂﾞﾜｶﾏﾂｼ","townAreaKana":"ﾀﾃｳﾏﾏﾁ","prefecture":"福島県","city":"会津若松市","townArea":"館馬町"},{"postalCode":"2700155","prefectureKana":"ﾁﾊﾞｹﾝ","cityKana":"ﾅｶﾞﾚﾔﾏｼ","townAreaKana":"ﾐﾔｿﾞﾉ","prefecture":"千葉県","city":"流山市","townArea":"宮園"},{"postalCode":"6240933","prefectureKana":"ｷｮｳﾄﾌ","cityKana":"ﾏｲﾂﾞﾙｼ","townAreaKana":"ｼﾝ","prefecture":"京都府","city":"舞鶴市","townArea":"新"},{"postalCode":"0611102","prefectureKana":"ﾎｯｶｲﾄﾞｳ","cityKana":"ｷﾀﾋﾛｼﾏｼ","townAreaKana":"ﾆｼﾉｻﾄ","prefecture":"北海道","city":"北広島市","townArea":"西の里"},{"postalCode":"4850007","prefectureKana":"ｱｲﾁｹﾝ","cityKana":"ｺﾏｷｼ","townAreaKana":"ｸﾎﾞｲｼｷﾐﾅﾐ","prefecture":"愛知県","city":"小牧市","townArea":"久保一色南"},{"postalCode":"6480035","prefectureKana":"ﾜｶﾔﾏｹﾝ","cityKana":"ﾊｼﾓﾄｼ","townAreaKana":"ﾋｺﾀﾆ","prefecture":"和歌山県","city":"橋本市","townArea":"彦谷"},{"postalCode":"0287611","prefectureKana":"ｲﾜﾃｹﾝ","cityKana":"ﾊﾁﾏﾝﾀｲｼ","townAreaKana":"ｵｷﾀｵﾓﾃ","prefecture":"岩手県","city":"八幡平市","townArea":"沖田表"},{"postalCode":"3400028","prefectureKana":"ｻｲﾀﾏｹﾝ","cityKana":"ｿｳｶｼ","townAreaKana":"ﾔﾂｶ","prefecture":"埼玉県","city":"草加市","townArea":"谷塚"},{"postalCode":"9330138","prefectureKana":"ﾄﾔﾏｹﾝ","cityKana":"ﾀｶｵｶｼ","townAreaKana":"ｵｵﾀﾔﾏｷﾞｼ","prefecture":"富山県","city":"高岡市","townArea":"太田山岸"},{"postalCode":"6200982","prefectureKana":"ｷｮｳﾄﾌ","cityKana":"ﾌｸﾁﾔﾏｼ","townAreaKana":"ｼﾓｵﾀﾞ","prefecture":"京都府","city":"福知山市","townArea":"下小田"},{"postalCode":"4928346","prefectureKana":"ｱｲﾁｹﾝ","cityKana":"ｲﾅｻﾞﾜｼ","townAreaKana":"ﾔﾏｸﾞﾁﾎﾝﾏﾁ","prefecture":"愛知県","city":"稲沢市","townArea":"山口本町"},{"postalCode":"8691110","prefectureKana":"ｸﾏﾓﾄｹﾝ","cityKana":"ｷｸﾁｸﾞﾝｷｸﾖｳﾏﾁ","townAreaKana":"ｽｷﾞﾅﾐﾀﾞｲ","prefecture":"熊本県","city":"菊池郡菊陽町","townArea":"杉並台"},{"postalCode":"5008154","prefectureKana":"ｷﾞﾌｹﾝ","cityKana":"ｷﾞﾌｼ","townAreaKana":"ｷﾉｼﾀﾁｮｳ","prefecture":"岐阜県","city":"岐阜市","townArea":"木ノ下町"},{"postalCode":"9870113","prefectureKana":"ﾐﾔｷﾞｹﾝ","cityKana":"ﾄｵﾀﾞｸﾞﾝﾜｸﾔﾁｮｳ","townAreaKana":"ﾌﾙﾐﾁｼﾀﾆﾎﾝｽｷﾞ","prefecture":"宮城県","city":"遠田郡涌谷町","townArea":"古道下二本杉"},{"postalCode":"1300000","prefectureKana":"ﾄｳｷｮｳﾄ","cityKana":"ｽﾐﾀﾞｸ","townAreaKana":"","prefecture":"東京都","city":"墨田区","townArea":""},{"postalCode":"0160143","prefectureKana":"ｱｷﾀｹﾝ","cityKana":"ﾉｼﾛｼ","townAreaKana":"ｳｴﾉﾔﾏ","prefecture":"秋田県","city":"能代市","townArea":"上ノ山"},{"postalCode":"0891724","prefectureKana":"ﾎｯｶｲﾄﾞｳ","cityKana":"ﾅｶｶﾞﾜｸﾞﾝﾏｸﾍﾞﾂﾁｮｳ","townAreaKana":"ﾁｭｳﾙｲﾒｲﾜ","prefecture":"北海道","city":"中川郡幕別町","townArea":"忠類明和"},{"postalCode":"9997604","prefectureKana":"ﾔﾏｶﾞﾀｹﾝ","cityKana":"ﾂﾙｵｶｼ","townAreaKana":"ﾌｼﾞﾅﾐ","prefecture":"山形県","city":"鶴岡市","townArea":"藤浪"},{"postalCode":"6308301","prefectureKana":"ﾅﾗｹﾝ","cityKana":"ﾅﾗｼ","townAreaKana":"ﾀｶﾊﾞﾀｹﾁｮｳ","prefecture":"奈良県","city":"奈良市","townArea":"高畑町"},{"postalCode":"7950013","prefectureKana":"ｴﾋﾒｹﾝ","cityKana":"ｵｵｽﾞｼ","townAreaKana":"ﾆｼｵｵｽﾞ","prefecture":"愛媛県","city":"大洲市","townArea":"西大洲"},{"postalCode":"3110102","prefectureKana":"ｲﾊﾞﾗｷｹﾝ","cityKana":"ﾅｶｼ","townAreaKana":"ﾑｺｳﾔﾏ","prefecture":"茨城県","city":"那珂市","townArea":"向山"},{"postalCode":"8612221","prefectureKana":"ｸﾏﾓﾄｹﾝ","cityKana":"ｶﾐﾏｼｷｸﾞﾝﾏｼｷﾏﾁ","townAreaKana":"ｱｶｲ","prefecture":"熊本県","city":"上益城郡益城町","townArea":"赤井"},{"postalCode":"8790464","prefectureKana":"ｵｵｲﾀｹﾝ","cityKana":"ｳｻｼ","townAreaKana":"ｵｵﾂｶ","prefecture":"大分県","city":"宇佐市","townArea":"大塚"},{"postalCode":"2891703","prefectureKana":"ﾁﾊﾞｹﾝ","cityKana":"ｻﾝﾌﾞｸﾞﾝﾖｺｼﾊﾞﾋｶﾘﾏﾁ","townAreaKana":"ﾎｳｼﾞﾄﾞ","prefecture":"千葉県","city":"山武郡横芝光町","townArea":"傍示戸"},{"postalCode":"3080123","prefectureKana":"ｲﾊﾞﾗｷｹﾝ","cityKana":"ﾁｸｾｲｼ","townAreaKana":"ｾｷﾓﾄｶﾐﾅｶ","prefecture":"茨城県","city":"筑西市","townArea":"関本上中"},{"postalCode":"2700134","prefectureKana":"ﾁﾊﾞｹﾝ","cityKana":"ﾅｶﾞﾚﾔﾏｼ","townAreaKana":"ﾅｶﾞｻｷ","prefecture":"千葉県","city":"流山市","townArea":"長崎"},{"postalCode":"6048073","prefectureKana":"ｷｮｳﾄﾌ","cityKana":"ｷｮｳﾄｼﾅｶｷﾞｮｳｸ","townAreaKana":"ﾀﾞｲｺｸﾁｮｳ","prefecture":"京都府","city":"京都市中京区","townArea":"大黒町六角通富小路東入"},{"postalCode":"0670003","prefectureKana":"ﾎｯｶｲﾄﾞｳ","cityKana":"ｴﾍﾞﾂｼ","townAreaKana":"ﾐﾄﾞﾘﾏﾁﾋｶﾞｼ","prefecture":"北海道","city":"江別市","townArea":"緑町東"},{"postalCode":"3730074","prefectureKana":"ｸﾞﾝﾏｹﾝ","cityKana":"ｵｵﾀｼ","townAreaKana":"ｶﾐｺﾞｳﾄﾞﾁｮｳ","prefecture":"群馬県","city":"太田市","townArea":"上強戸町"},{"postalCode":"7891418","prefectureKana":"ｺｳﾁｹﾝ","cityKana":"ﾀｶｵｶｸﾞﾝﾅｶﾄｻﾁｮｳ","townAreaKana":"ｵｵﾉﾐｵｵﾏﾀ","prefecture":"高知県","city":"高岡郡中土佐町","townArea":"大野見大股"},{"postalCode":"0294465","prefectureKana":"ｲﾜﾃｹﾝ","cityKana":"ｵｳｼｭｳｼ","townAreaKana":"ｺﾛﾓｶﾞﾜｳｼﾛﾀｷﾉｻﾜ","prefecture":"岩手県","city":"奥州市","townArea":"衣川後滝の沢"},{"postalCode":"5061152","prefectureKana":"ｷﾞﾌｹﾝ","cityKana":"ﾋﾀﾞｼ","townAreaKana":"ｶﾐｵｶﾁｮｳﾃﾗﾊﾞﾔｼ","prefecture":"岐阜県","city":"飛騨市","townArea":"神岡町寺林"},{"postalCode":"9500804","prefectureKana":"ﾆｲｶﾞﾀｹﾝ","cityKana":"ﾆｲｶﾞﾀｼﾋｶﾞｼｸ","townAreaKana":"ﾎﾝｼﾞｮ","prefecture":"新潟県","city":"新潟市東区","townArea":"本所"},{"postalCode":"0920044","prefectureKana":"ﾎｯｶｲﾄﾞｳ","cityKana":"ｱﾊﾞｼﾘｸﾞﾝﾋﾞﾎﾛﾁｮｳ","townAreaKana":"ﾋｶﾞｼ4ｼﾞｮｳﾐﾅﾐ","prefecture":"北海道","city":"網走郡美幌町","townArea":"東四条南"},{"postalCode":"8694403","prefectureKana":"ｸﾏﾓﾄｹﾝ","cityKana":"ﾔﾂｼﾛｼ","townAreaKana":"ｲｽﾞﾐﾏﾁｼﾓﾀﾞｹ","prefecture":"熊本県","city":"八代市","townArea":"泉町下岳"},{"postalCode":"0730181","prefectureKana":"ﾎｯｶｲﾄﾞｳ","cityKana":"ｶﾊﾞﾄｸﾞﾝｼﾝﾄﾂｶﾜﾁｮｳ","townAreaKana":"ﾔﾖｲ","prefecture":"北海道","city":"樺戸郡新十津川町","townArea":"弥生"},{"postalCode":"0788342","prefectureKana":"ﾎｯｶｲﾄﾞｳ","cityKana":"ｱｻﾋｶﾜｼ","townAreaKana":"ﾄｳｺｳ2ｼﾞｮｳ","prefecture":"北海道","city":"旭川市","townArea":"東光２条"},{"postalCode":"9391631","prefectureKana":"ﾄﾔﾏｹﾝ","cityKana":"ﾅﾝﾄｼ","townAreaKana":"ﾌｸﾐﾂｱｻﾋﾏﾁ","prefecture":"富山県","city":"南砺市","townArea":"福光旭町"},{"postalCode":"9650813","prefectureKana":"ﾌｸｼﾏｹﾝ","cityKana":"ｱｲﾂﾞﾜｶﾏﾂｼ","townAreaKana":"ﾋｶﾞｼﾔﾏﾏﾁｲｼﾔﾏ","prefecture":"福島県","city":"会津若松市","townArea":"東山町石山"},{"postalCode":"8990435","prefectureKana":"ｶｺﾞｼﾏｹﾝ","cityKana":"ｲｽﾞﾐｼ","townAreaKana":"ｼｮｳ","prefecture":"鹿児島県","city":"出水市","townArea":"荘"},{"postalCode":"0040072","prefectureKana":"ﾎｯｶｲﾄﾞｳ","cityKana":"ｻｯﾎﾟﾛｼｱﾂﾍﾞﾂｸ","townAreaKana":"ｱﾂﾍﾞﾂｷﾀ2ｼﾞｮｳ","prefecture":"北海道","city":"札幌市厚別区","townArea":"厚別北二条"},{"postalCode":"9150205","prefectureKana":"ﾌｸｲｹﾝ","cityKana":"ｴﾁｾﾞﾝｼ","townAreaKana":"ﾅﾐｶﾞｷﾁｮｳ","prefecture":"福井県","city":"越前市","townArea":"波垣町"},{"postalCode":"0460552","prefectureKana":"ﾎｯｶｲﾄﾞｳ","cityKana":"ﾖｲﾁｸﾞﾝｱｶｲｶﾞﾜﾑﾗ","townAreaKana":"ﾒｲｼﾞ","prefecture":"北海道","city":"余市郡赤井川村","townArea":"明治"},{"postalCode":"5830996","prefectureKana":"ｵｵｻｶﾌ","cityKana":"ﾐﾅﾐｶﾜﾁｸﾞﾝﾀｲｼﾁｮｳ","townAreaKana":"ｾｲﾜﾀﾞｲ","prefecture":"大阪府","city":"南河内郡太子町","townArea":"聖和台"},{"postalCode":"5200225","prefectureKana":"ｼｶﾞｹﾝ","cityKana":"ｵｵﾂｼ","townAreaKana":"ｾｲﾌｳﾁｮｳ","prefecture":"滋賀県","city":"大津市","townArea":"清風町"},{"postalCode":"0383683","prefectureKana":"ｱｵﾓﾘｹﾝ","cityKana":"ｷﾀﾂｶﾞﾙｸﾞﾝｲﾀﾔﾅｷﾞﾏﾁ","townAreaKana":"ｱｶﾀﾞ","prefecture":"青森県","city":"北津軽郡板柳町","townArea":"赤田"},{"postalCode":"9901424","prefectureKana":"ﾔﾏｶﾞﾀｹﾝ","cityKana":"ﾆｼﾑﾗﾔﾏｸﾞﾝｱｻﾋﾏﾁ","townAreaKana":"ﾐｽﾞﾓﾄ","prefecture":"山形県","city":"西村山郡朝日町","townArea":"水本"},{"postalCode":"6400311","prefectureKana":"ﾜｶﾔﾏｹﾝ","cityKana":"ﾜｶﾔﾏｼ","townAreaKana":"ｸﾛｲﾜ","prefecture":"和歌山県","city":"和歌山市","townArea":"黒岩"},{"postalCode":"9992263","prefectureKana":"ﾔﾏｶﾞﾀｹﾝ","cityKana":"ﾅﾝﾖｳｼ","townAreaKana":"ﾊｷﾞｭｳﾀﾞ","prefecture":"山形県","city":"南陽市","townArea":"萩生田"},{"postalCode":"4410302","prefectureKana":"ｱｲﾁｹﾝ","cityKana":"ﾄﾖｶﾜｼ","townAreaKana":"ﾐﾄﾁｮｳｼﾓｻﾜｷﾍｲｼﾞ","prefecture":"愛知県","city":"豊川市","townArea":"御津町下佐脇平次"},{"postalCode":"7048182","prefectureKana":"ｵｶﾔﾏｹﾝ","cityKana":"ｵｶﾔﾏｼﾋｶﾞｼｸ","townAreaKana":"ﾋﾛﾀﾆ","prefecture":"岡山県","city":"岡山市東区","townArea":"広谷"},{"postalCode":"2730126","prefectureKana":"ﾁﾊﾞｹﾝ","cityKana":"ｶﾏｶﾞﾔｼ","townAreaKana":"ｷﾀﾊﾂﾄﾐ","prefecture":"千葉県","city":"鎌ケ谷市","townArea":"北初富"},{"postalCode":"0691454","prefectureKana":"ﾎｯｶｲﾄﾞｳ","cityKana":"ﾕｳﾊﾞﾘｸﾞﾝﾅｶﾞﾇﾏﾁｮｳ","townAreaKana":"ﾋｶﾞｼ4ｾﾝﾐﾅﾐ","prefecture":"北海道","city":"夕張郡長沼町","townArea":"東４線南"},{"postalCode":"7160035","prefectureKana":"ｵｶﾔﾏｹﾝ","cityKana":"ﾀｶﾊｼｼ","townAreaKana":"ｻｶｴﾏﾁ","prefecture":"岡山県","city":"高梁市","townArea":"栄町"},{"postalCode":"8113431","prefectureKana":"ﾌｸｵｶｹﾝ","cityKana":"ﾑﾅｶﾀｼ","townAreaKana":"ﾀｸﾞﾏ","prefecture":"福岡県","city":"宗像市","townArea":"田熊"},{"postalCode":"5690035","prefectureKana":"ｵｵｻｶﾌ","cityKana":"ﾀｶﾂｷｼ","townAreaKana":"ﾌｶｻﾞﾜﾁｮｳ","prefecture":"大阪府","city":"高槻市","townArea":"深沢町"},{"postalCode":"6060082","prefectureKana":"ｷｮｳﾄﾌ","cityKana":"ｷｮｳﾄｼｻｷｮｳｸ","townAreaKana":"ｶﾐﾀｶﾉﾊﾀｶﾞﾀﾞﾁｮｳ","prefecture":"京都府","city":"京都市左京区","townArea":"上高野畑ケ田町"},{"postalCode":"2630025","prefectureKana":"ﾁﾊﾞｹﾝ","cityKana":"ﾁﾊﾞｼｲﾅｹﾞｸ","townAreaKana":"ｱﾅｶﾞﾜﾁｮｳ","prefecture":"千葉県","city":"千葉市稲毛区","townArea":"穴川町"},{"postalCode":"0431525","prefectureKana":"ﾎｯｶｲﾄﾞｳ","cityKana":"ｵｸｼﾘｸﾞﾝｵｸｼﾘﾁｮｳ","townAreaKana":"ﾕﾉﾊﾏﾎﾛﾅｲ","prefecture":"北海道","city":"奥尻郡奥尻町","townArea":"湯浜幌内"},{"postalCode":"8400815","prefectureKana":"ｻｶﾞｹﾝ","cityKana":"ｻｶﾞｼ","townAreaKana":"ﾃﾝｼﾞﾝ","prefecture":"佐賀県","city":"佐賀市","townArea":"天神"},{"postalCode":"2310025","prefectureKana":"ｶﾅｶﾞﾜｹﾝ","cityKana":"ﾖｺﾊﾏｼﾅｶｸ","townAreaKana":"ﾏﾂｶｹﾞﾁｮｳ","prefecture":"神奈川県","city":"横浜市中区","townArea":"松影町"},{"postalCode":"0010037","prefectureKana":"ﾎｯｶｲﾄﾞｳ","cityKana":"ｻｯﾎﾟﾛｼｷﾀｸ","townAreaKana":"ｷﾀ37ｼﾞｮｳﾆｼ","prefecture":"北海道","city":"札幌市北区","townArea":"北三十七条西"},{"postalCode":"9560035","prefectureKana":"ﾆｲｶﾞﾀｹﾝ","cityKana":"ﾆｲｶﾞﾀｼｱｷﾊｸ","townAreaKana":"ﾎﾄﾞｼﾞﾏ","prefecture":"新潟県","city":"新潟市秋葉区","townArea":"程島"},{"postalCode":"5420085","prefectureKana":"ｵｵｻｶﾌ","cityKana":"ｵｵｻｶｼﾁｭｳｵｳｸ","townAreaKana":"ｼﾝｻｲﾊﾞｼｽｼﾞ","prefecture":"大阪府","city":"大阪市中央区","townArea":"心斎橋筋"},{"postalCode":"0391555","prefectureKana":"ｱｵﾓﾘｹﾝ","cityKana":"ｻﾝﾉﾍｸﾞﾝｺﾞﾉﾍﾏﾁ","townAreaKana":"ﾌﾙﾄﾞｳｳｼﾛ","prefecture":"青森県","city":"三戸郡五戸町","townArea":"古堂後"},{"postalCode":"9896804","prefectureKana":"ﾐﾔｷﾞｹﾝ","cityKana":"ｵｵｻｷｼ","townAreaKana":"ﾅﾙｺｵﾝｾﾝﾅｶﾔｼｷ","prefecture":"宮城県","city":"大崎市","townArea":"鳴子温泉中屋敷"},{"postalCode":"5100842","prefectureKana":"ﾐｴｹﾝ","cityKana":"ﾖｯｶｲﾁｼ","townAreaKana":"ｲｼﾊﾗﾁｮｳ","prefecture":"三重県","city":"四日市市","townArea":"石原町"},{"postalCode":"3091604","prefectureKana":"ｲﾊﾞﾗｷｹﾝ","cityKana":"ｶｻﾏｼ","townAreaKana":"ｵｵﾌﾞﾁ","prefecture":"茨城県","city":"笠間市","townArea":"大渕"},{"postalCode":"6290153","prefectureKana":"ｷｮｳﾄﾌ","cityKana":"ﾅﾝﾀﾝｼ","townAreaKana":"ﾔｷﾞﾁｮｳﾔｷﾞﾉｼﾏ","prefecture":"京都府","city":"南丹市","townArea":"八木町八木嶋"},{"postalCode":"9591314","prefectureKana":"ﾆｲｶﾞﾀｹﾝ","cityKana":"ｶﾓｼ","townAreaKana":"ﾊﾞﾝﾃﾞﾝ","prefecture":"新潟県","city":"加茂市","townArea":"番田"},{"postalCode":"5220338","prefectureKana":"ｼｶﾞｹﾝ","cityKana":"ｲﾇｶﾐｸﾞﾝﾀｶﾞﾁｮｳ","townAreaKana":"ﾂﾎﾞ","prefecture":"滋賀県","city":"犬上郡多賀町","townArea":"壺"},{"postalCode":"8800857","prefectureKana":"ﾐﾔｻﾞｷｹﾝ","cityKana":"ﾐﾔｻﾞｷｼ","townAreaKana":"ｵﾄﾞﾁｮｳ","prefecture":"宮崎県","city":"宮崎市","townArea":"小戸町"},{"postalCode":"8570047","prefectureKana":"ﾅｶﾞｻｷｹﾝ","cityKana":"ｻｾﾎﾞｼ","townAreaKana":"ﾔﾀｹﾁｮｳ","prefecture":"長崎県","city":"佐世保市","townArea":"矢岳町"},{"postalCode":"9104123","prefectureKana":"ﾌｸｲｹﾝ","cityKana":"ｱﾜﾗｼ","townAreaKana":"ﾊﾞﾝﾃﾞﾝ","prefecture":"福井県","city":"あわら市","townArea":"番田"},{"postalCode":"0820053","prefectureKana":"ﾎｯｶｲﾄﾞｳ","cityKana":"ｶｻｲｸﾞﾝﾒﾑﾛﾁｮｳ","townAreaKana":"ﾋｶﾞｼ3ｼﾞｮｳﾐﾅﾐ","prefecture":"北海道","city":"河西郡芽室町","townArea":"東三条南"},{"postalCode":"9150021","prefectureKana":"ﾌｸｲｹﾝ","cityKana":"ｴﾁｾﾞﾝｼ","townAreaKana":"ｷﾀｵﾔﾏﾁｮｳ","prefecture":"福井県","city":"越前市","townArea":"北小山町"},{"postalCode":"0101419","prefectureKana":"ｱｷﾀｹﾝ","cityKana":"ｱｷﾀｼ","townAreaKana":"ｺﾞｼｮﾉﾂﾂﾐﾀﾞｲ","prefecture":"秋田県","city":"秋田市","townArea":"御所野堤台"},{"postalCode":"3210161","prefectureKana":"ﾄﾁｷﾞｹﾝ","cityKana":"ｳﾂﾉﾐﾔｼ","townAreaKana":"ｵｵﾂｶﾁｮｳ","prefecture":"栃木県","city":"宇都宮市","townArea":"大塚町"},{"postalCode":"2860816","prefectureKana":"ﾁﾊﾞｹﾝ","cityKana":"ﾅﾘﾀｼ","townAreaKana":"ﾅﾙｹﾞ","prefecture":"千葉県","city":"成田市","townArea":"成毛"},{"postalCode":"0420905","prefectureKana":"ﾎｯｶｲﾄﾞｳ","cityKana":"ﾊｺﾀﾞﾃｼ","townAreaKana":"ﾓﾐｼﾞﾔﾏﾁｮｳ","prefecture":"北海道","city":"函館市","townArea":"紅葉山町"},{"postalCode":"9220102","prefectureKana":"ｲｼｶﾜｹﾝ","cityKana":"ｶｶﾞｼ","townAreaKana":"ﾔﾏﾅｶｵﾝｾﾝﾊｾﾀﾞﾏﾁﾋﾉﾃﾞﾀﾞﾝﾁ","prefecture":"石川県","city":"加賀市","townArea":"山中温泉長谷田町日の出団地"},{"postalCode":"9000015","prefectureKana":"ｵｷﾅﾜｹﾝ","cityKana":"ﾅﾊｼ","townAreaKana":"ｸﾓｼﾞ","prefecture":"沖縄県","city":"那覇市","townArea":"久茂地"},{"postalCode":"2960045","prefectureKana":"ﾁﾊﾞｹﾝ","cityKana":"ｶﾓｶﾞﾜｼ","townAreaKana":"ｲｽﾞﾐ","prefecture":"千葉県","city":"鴨川市","townArea":"和泉"},{"postalCode":"5008212","prefectureKana":"ｷﾞﾌｹﾝ","cityKana":"ｷﾞﾌｼ","townAreaKana":"ﾋﾉﾐﾅﾐ","prefecture":"岐阜県","city":"岐阜市","townArea":"日野南"},{"postalCode":"9640203","prefectureKana":"ﾌｸｼﾏｹﾝ","cityKana":"ﾆﾎﾝﾏﾂｼ","townAreaKana":"ｺﾊﾀ","prefecture":"福島県","city":"二本松市","townArea":"木幡"},{"postalCode":"7900006","prefectureKana":"ｴﾋﾒｹﾝ","cityKana":"ﾏﾂﾔﾏｼ","townAreaKana":"ﾐﾅﾐﾎﾘﾊﾞﾀﾁｮｳ","prefecture":"愛媛県","city":"松山市","townArea":"南堀端町"},{"postalCode":"3001263","prefectureKana":"ｲﾊﾞﾗｷｹﾝ","cityKana":"ﾂｸﾊﾞｼ","townAreaKana":"ﾌｼﾞﾐﾀﾞｲ","prefecture":"茨城県","city":"つくば市","townArea":"富士見台"},{"postalCode":"9496681","prefectureKana":"ﾆｲｶﾞﾀｹﾝ","cityKana":"ﾐﾅﾐｳｵﾇﾏｼ","townAreaKana":"ﾖｶﾜ","prefecture":"新潟県","city":"南魚沼市","townArea":"余川"},{"postalCode":"6711312","prefectureKana":"ﾋｮｳｺﾞｹﾝ","cityKana":"ﾀﾂﾉｼ","townAreaKana":"ﾐﾂﾁｮｳｲｶﾘｲﾜ","prefecture":"兵庫県","city":"たつの市","townArea":"御津町碇岩"},{"postalCode":"8691218","prefectureKana":"ｸﾏﾓﾄｹﾝ","cityKana":"ｷｸﾁｸﾞﾝｵｵﾂﾞﾏﾁ","townAreaKana":"ﾌｹﾀﾞ","prefecture":"熊本県","city":"菊池郡大津町","townArea":"吹田"},{"postalCode":"3191551","prefectureKana":"ｲﾊﾞﾗｷｹﾝ","cityKana":"ｷﾀｲﾊﾞﾗｷｼ","townAreaKana":"ﾅｶｺﾞｳﾁｮｳｼﾓｻｸﾗｲ","prefecture":"茨城県","city":"北茨城市","townArea":"中郷町下桜井"},{"postalCode":"5200833","prefectureKana":"ｼｶﾞｹﾝ","cityKana":"ｵｵﾂｼ","townAreaKana":"ｾｲﾗﾝ","prefecture":"滋賀県","city":"大津市","townArea":"晴嵐"},{"postalCode":"0410605","prefectureKana":"ﾎｯｶｲﾄﾞｳ","cityKana":"ﾊｺﾀﾞﾃｼ","townAreaKana":"ｴｻﾝﾐｻｷﾁｮｳ","prefecture":"北海道","city":"函館市","townArea":"恵山岬町"},{"postalCode":"0840914","prefectureKana":"ﾎｯｶｲﾄﾞｳ","cityKana":"ｸｼﾛｼ","townAreaKana":"ﾆｼｺｳ","prefecture":"北海道","city":"釧路市","townArea":"西港"},{"postalCode":"9502252","prefectureKana":"ﾆｲｶﾞﾀｹﾝ","cityKana":"ﾆｲｶﾞﾀｼﾆｼｸ","townAreaKana":"ﾔﾁ","prefecture":"新潟県","city":"新潟市西区","townArea":"谷内"},{"postalCode":"5150057","prefectureKana":"ﾐｴｹﾝ","cityKana":"ﾏﾂｻｶｼ","townAreaKana":"ｺﾞﾃﾝﾔﾏﾁｮｳ","prefecture":"三重県","city":"松阪市","townArea":"御殿山町"},{"postalCode":"6570843","prefectureKana":"ﾋｮｳｺﾞｹﾝ","cityKana":"ｺｳﾍﾞｼﾅﾀﾞｸ","townAreaKana":"ｵｵｲｼｷﾀﾏﾁ","prefecture":"兵庫県","city":"神戸市灘区","townArea":"大石北町"},{"postalCode":"5290262","prefectureKana":"ｼｶﾞｹﾝ","cityKana":"ﾅｶﾞﾊﾏｼ","townAreaKana":"ﾀｶﾂｷﾁｮｳﾆｼﾓﾉﾍﾞ","prefecture":"滋賀県","city":"長浜市","townArea":"高月町西物部"},{"postalCode":"9811517","prefectureKana":"ﾐﾔｷﾞｹﾝ","cityKana":"ｶｸﾀﾞｼ","townAreaKana":"ｹｶﾞﾔ","prefecture":"宮城県","city":"角田市","townArea":"毛萱"},{"postalCode":"8613517","prefectureKana":"ｸﾏﾓﾄｹﾝ","cityKana":"ｶﾐﾏｼｷｸﾞﾝﾔﾏﾄﾁｮｳ","townAreaKana":"ﾊﾀ","prefecture":"熊本県","city":"上益城郡山都町","townArea":"畑"},{"postalCode":"4180022","prefectureKana":"ｼｽﾞｵｶｹﾝ","cityKana":"ﾌｼﾞﾉﾐﾔｼ","townAreaKana":"ｺｲｽﾞﾐ","prefecture":"静岡県","city":"富士宮市","townArea":"小泉"},{"postalCode":"3550114","prefectureKana":"ｻｲﾀﾏｹﾝ","cityKana":"ﾋｷｸﾞﾝﾖｼﾐﾏﾁ","townAreaKana":"ｺﾐｮｳ","prefecture":"埼玉県","city":"比企郡吉見町","townArea":"古名"},{"postalCode":"2700017","prefectureKana":"ﾁﾊﾞｹﾝ","cityKana":"ﾏﾂﾄﾞｼ","townAreaKana":"ｺｳﾔ","prefecture":"千葉県","city":"松戸市","townArea":"幸谷"},{"postalCode":"5200033","prefectureKana":"ｼｶﾞｹﾝ","cityKana":"ｵｵﾂｼ","townAreaKana":"ﾀﾞｲﾓﾝﾄﾞｵﾘ","prefecture":"滋賀県","city":"大津市","townArea":"大門通"},{"postalCode":"5070018","prefectureKana":"ｷﾞﾌｹﾝ","cityKana":"ﾀｼﾞﾐｼ","townAreaKana":"ﾀｶﾀﾁｮｳ","prefecture":"岐阜県","city":"多治見市","townArea":"高田町"},{"postalCode":"6960311","prefectureKana":"ｼﾏﾈｹﾝ","cityKana":"ｵｵﾁｸﾞﾝｵｵﾅﾝﾁｮｳ","townAreaKana":"ﾐｯｶｲﾁ","prefecture":"島根県","city":"邑智郡邑南町","townArea":"三日市"},{"postalCode":"6148172","prefectureKana":"ｷｮｳﾄﾌ","cityKana":"ﾔﾜﾀｼ","townAreaKana":"ｺｳﾂﾞﾔﾊﾔｼ","prefecture":"京都府","city":"八幡市","townArea":"上津屋林"},{"postalCode":"9230835","prefectureKana":"ｲｼｶﾜｹﾝ","cityKana":"ｺﾏﾂｼ","townAreaKana":"ﾖｼﾀｹﾏﾁ","prefecture":"石川県","city":"小松市","townArea":"吉竹町"},{"postalCode":"7712107","prefectureKana":"ﾄｸｼﾏｹﾝ","cityKana":"ﾐﾏｼ","townAreaKana":"ﾐﾏﾁｮｳﾅﾂﾜﾗﾋﾞ","prefecture":"徳島県","city":"美馬市","townArea":"美馬町夏蕨"},{"postalCode":"4890804","prefectureKana":"ｱｲﾁｹﾝ","cityKana":"ｾﾄｼ","townAreaKana":"ｷｮｳﾏﾁ","prefecture":"愛知県","city":"瀬戸市","townArea":"京町"},{"postalCode":"4340000","prefectureKana":"ｼｽﾞｵｶｹﾝ","cityKana":"ﾊﾏﾏﾂｼﾊﾏｷﾀｸ","townAreaKana":"","prefecture":"静岡県","city":"浜松市浜北区","townArea":""},{"postalCode":"3400014","prefectureKana":"ｻｲﾀﾏｹﾝ","cityKana":"ｿｳｶｼ","townAreaKana":"ｽﾐﾖｼ","prefecture":"埼玉県","city":"草加市","townArea":"住吉"},{"postalCode":"6128202","prefectureKana":"ｷｮｳﾄﾌ","cityKana":"ｷｮｳﾄｼﾌｼﾐｸ","townAreaKana":"ｶｼｮﾏﾁ","prefecture":"京都府","city":"京都市伏見区","townArea":"過書町"},{"postalCode":"5100042","prefectureKana":"ﾐｴｹﾝ","cityKana":"ﾖｯｶｲﾁｼ","townAreaKana":"ﾀｶｻｺﾞﾁｮｳ","prefecture":"三重県","city":"四日市市","townArea":"高砂町"},{"postalCode":"9850067","prefectureKana":"ﾐﾔｷﾞｹﾝ","cityKana":"ｼｵｶﾞﾏｼ","townAreaKana":"ｺｳﾗｸﾁｮｳ","prefecture":"宮城県","city":"塩竈市","townArea":"後楽町"},{"postalCode":"6640892","prefectureKana":"ﾋｮｳｺﾞｹﾝ","cityKana":"ｲﾀﾐｼ","townAreaKana":"ﾀｶﾀﾞｲ","prefecture":"兵庫県","city":"伊丹市","townArea":"高台"},{"postalCode":"0820057","prefectureKana":"ﾎｯｶｲﾄﾞｳ","cityKana":"ｶｻｲｸﾞﾝﾒﾑﾛﾁｮｳ","townAreaKana":"ﾋｶﾞｼ7ｼﾞｮｳﾐﾅﾐ","prefecture":"北海道","city":"河西郡芽室町","townArea":"東七条南"},{"postalCode":"3701121","prefectureKana":"ｸﾞﾝﾏｹﾝ","cityKana":"ｻﾜｸﾞﾝﾀﾏﾑﾗﾏﾁ","townAreaKana":"ｶﾐｲｲｼﾞﾏ","prefecture":"群馬県","city":"佐波郡玉村町","townArea":"上飯島"},{"postalCode":"5620025","prefectureKana":"ｵｵｻｶﾌ","cityKana":"ﾐﾉｵｼ","townAreaKana":"ｱｵｹﾞｲﾝ","prefecture":"大阪府","city":"箕面市","townArea":"粟生外院"},{"postalCode":"6391160","prefectureKana":"ﾅﾗｹﾝ","cityKana":"ﾔﾏﾄｺｵﾘﾔﾏｼ","townAreaKana":"ｷﾀｺｵﾘﾔﾏﾁｮｳ","prefecture":"奈良県","city":"大和郡山市","townArea":"北郡山町"},{"postalCode":"6752455","prefectureKana":"ﾋｮｳｺﾞｹﾝ","cityKana":"ｶｻｲｼ","townAreaKana":"ｵｵﾁﾁｮｳ","prefecture":"兵庫県","city":"加西市","townArea":"大内町"},{"postalCode":"6801151","prefectureKana":"ﾄｯﾄﾘｹﾝ","cityKana":"ﾄｯﾄﾘｼ","townAreaKana":"ｼﾄﾘ","prefecture":"鳥取県","city":"鳥取市","townArea":"倭文"},{"postalCode":"0430416","prefectureKana":"ﾎｯｶｲﾄﾞｳ","cityKana":"ﾌﾀﾐｸﾞﾝﾔｸﾓﾁｮｳ","townAreaKana":"ｸﾏｲｼｳﾝｾｷﾁｮｳ","prefecture":"北海道","city":"二海郡八雲町","townArea":"熊石雲石町"},{"postalCode":"3800821","prefectureKana":"ﾅｶﾞﾉｹﾝ","cityKana":"ﾅｶﾞﾉｼ","townAreaKana":"ｶﾐﾁﾄｾﾏﾁ","prefecture":"長野県","city":"長野市","townArea":"上千歳町"},{"postalCode":"8301104","prefectureKana":"ﾌｸｵｶｹﾝ","cityKana":"ｸﾙﾒｼ","townAreaKana":"ｷﾀﾉﾏﾁｵｵｷ","prefecture":"福岡県","city":"久留米市","townArea":"北野町大城"},{"postalCode":"0995174","prefectureKana":"ﾎｯｶｲﾄﾞｳ","cityKana":"ﾓﾝﾍﾞﾂｼ","townAreaKana":"ｼｮｺﾂﾁｮｳｳﾂﾂ","prefecture":"北海道","city":"紋別市","townArea":"渚滑町宇津々"},{"postalCode":"5032323","prefectureKana":"ｷﾞﾌｹﾝ","cityKana":"ｱﾝﾊﾟﾁｸﾞﾝｺﾞｳﾄﾞﾁｮｳ","townAreaKana":"ﾆｼﾉﾎ","prefecture":"岐阜県","city":"安八郡神戸町","townArea":"西保"},{"postalCode":"7440023","prefectureKana":"ﾔﾏｸﾞﾁｹﾝ","cityKana":"ｸﾀﾞﾏﾂｼ","townAreaKana":"ｽｴﾀｹﾅｶ","prefecture":"山口県","city":"下松市","townArea":"末武中"},{"postalCode":"7100812","prefectureKana":"ｵｶﾔﾏｹﾝ","cityKana":"ｸﾗｼｷｼ","townAreaKana":"ｷﾀﾊﾏﾁｮｳ","prefecture":"岡山県","city":"倉敷市","townArea":"北浜町"},{"postalCode":"2470051","prefectureKana":"ｶﾅｶﾞﾜｹﾝ","cityKana":"ｶﾏｸﾗｼ","townAreaKana":"ｲﾜｾ","prefecture":"神奈川県","city":"鎌倉市","townArea":"岩瀬"},{"postalCode":"6370414","prefectureKana":"ﾅﾗｹﾝ","cityKana":"ｺﾞｼﾞｮｳｼ","townAreaKana":"ｵｵﾄｳﾁｮｳｻﾙﾀﾆ","prefecture":"奈良県","city":"五條市","townArea":"大塔町猿谷"},{"postalCode":"3900817","prefectureKana":"ﾅｶﾞﾉｹﾝ","cityKana":"ﾏﾂﾓﾄｼ","townAreaKana":"ﾊﾊﾞｳｴ","prefecture":"長野県","city":"松本市","townArea":"巾上"},{"postalCode":"9660835","prefectureKana":"ﾌｸｼﾏｹﾝ","cityKana":"ｷﾀｶﾀｼ","townAreaKana":"ｷﾞｮｳｻｸ","prefecture":"福島県","city":"喜多方市","townArea":"行作"},{"postalCode":"9240076","prefectureKana":"ｲｼｶﾜｹﾝ","cityKana":"ﾊｸｻﾝｼ","townAreaKana":"ﾎｳﾌﾞﾂﾏﾁ","prefecture":"石川県","city":"白山市","townArea":"法仏町"},{"postalCode":"7520973","prefectureKana":"ﾔﾏｸﾞﾁｹﾝ","cityKana":"ｼﾓﾉｾｷｼ","townAreaKana":"ﾁｮｳﾌﾅｶﾉﾁｮｳ","prefecture":"山口県","city":"下関市","townArea":"長府中之町"},{"postalCode":"8301124","prefectureKana":"ﾌｸｵｶｹﾝ","cityKana":"ｸﾙﾒｼ","townAreaKana":"ｷﾀﾉﾏﾁｵﾄﾖｼ","prefecture":"福岡県","city":"久留米市","townArea":"北野町乙吉"},{"postalCode":"9503316","prefectureKana":"ﾆｲｶﾞﾀｹﾝ","cityKana":"ﾆｲｶﾞﾀｼｷﾀｸ","townAreaKana":"ﾄﾔ","prefecture":"新潟県","city":"新潟市北区","townArea":"鳥屋"},{"postalCode":"6010533","prefectureKana":"ｷｮｳﾄﾌ","cityKana":"ｷｮｳﾄｼｳｷｮｳｸ","townAreaKana":"ｹｲﾎｸｼﾓﾅｶﾁｮｳ","prefecture":"京都府","city":"京都市右京区","townArea":"京北下中町"},{"postalCode":"8240431","prefectureKana":"ﾌｸｵｶｹﾝ","cityKana":"ﾀｶﾞﾜｸﾞﾝｱｶﾑﾗ","townAreaKana":"ｱｶ","prefecture":"福岡県","city":"田川郡赤村","townArea":"赤"},{"postalCode":"9660893","prefectureKana":"ﾌｸｼﾏｹﾝ","cityKana":"ｷﾀｶﾀｼ","townAreaKana":"ﾊﾅｿﾞﾉ","prefecture":"福島県","city":"喜多方市","townArea":"花園"},{"postalCode":"9071541","prefectureKana":"ｵｷﾅﾜｹﾝ","cityKana":"ﾔｴﾔﾏｸﾞﾝﾀｹﾄﾐﾁｮｳ","townAreaKana":"ｳｴﾊﾗ","prefecture":"沖縄県","city":"八重山郡竹富町","townArea":"上原"},{"postalCode":"5040816","prefectureKana":"ｷﾞﾌｹﾝ","cityKana":"ｶｶﾐｶﾞﾊﾗｼ","townAreaKana":"ｿﾊﾗﾋｶﾞｼｼﾞﾏﾁｮｳ","prefecture":"岐阜県","city":"各務原市","townArea":"蘇原東島町"},{"postalCode":"6050082","prefectureKana":"ｷｮｳﾄﾌ","cityKana":"ｷｮｳﾄｼﾋｶﾞｼﾔﾏｸ","townAreaKana":"ﾅｶﾉﾁｮｳｼﾝﾓﾝｾﾞﾝﾄﾞｵﾘﾔﾏﾄｵｵｼﾞﾋｶﾞｼｲﾙ","prefecture":"京都府","city":"京都市東山区","townArea":"中之町新門前通大和大路東入"},{"postalCode":"9291116","prefectureKana":"ｲｼｶﾜｹﾝ","cityKana":"ｶﾎｸｼ","townAreaKana":"ｼﾓﾔﾏﾀﾞ","prefecture":"石川県","city":"かほく市","townArea":"下山田"},{"postalCode":"7700823","prefectureKana":"ﾄｸｼﾏｹﾝ","cityKana":"ﾄｸｼﾏｼ","townAreaKana":"ﾃﾞｷｼﾞﾏﾎﾝﾁｮｳ","prefecture":"徳島県","city":"徳島市","townArea":"出来島本町"},{"postalCode":"0180302","prefectureKana":"ｱｷﾀｹﾝ","cityKana":"ﾆｶﾎｼ","townAreaKana":"ｸﾛｶﾜ","prefecture":"秋田県","city":"にかほ市","townArea":"黒川"},{"postalCode":"1631417","prefectureKana":"ﾄｳｷｮｳﾄ","cityKana":"ｼﾝｼﾞｭｸｸ","townAreaKana":"ﾆｼｼﾝｼﾞｭｸﾄｳｷｮｳｵﾍﾟﾗｼﾃｨ17ｶｲ","prefecture":"東京都","city":"新宿区","townArea":"西新宿東京オペラシティ　１７階"},{"postalCode":"7715404","prefectureKana":"ﾄｸｼﾏｹﾝ","cityKana":"ﾅｶｸﾞﾝﾅｶﾁｮｳ","townAreaKana":"ｳｼﾜ","prefecture":"徳島県","city":"那賀郡那賀町","townArea":"牛輪"},{"postalCode":"7790113","prefectureKana":"ﾄｸｼﾏｹﾝ","cityKana":"ｲﾀﾉｸﾞﾝｲﾀﾉﾁｮｳ","townAreaKana":"ｸﾛﾀﾞﾆ","prefecture":"徳島県","city":"板野郡板野町","townArea":"黒谷"},{"postalCode":"0100943","prefectureKana":"ｱｷﾀｹﾝ","cityKana":"ｱｷﾀｼ","townAreaKana":"ｶﾜｼﾘｵﾔｽﾐﾏﾁ","prefecture":"秋田県","city":"秋田市","townArea":"川尻御休町"},{"postalCode":"9980111","prefectureKana":"ﾔﾏｶﾞﾀｹﾝ","cityKana":"ｻｶﾀｼ","townAreaKana":"ｸﾛﾓﾘ","prefecture":"山形県","city":"酒田市","townArea":"黒森"},{"postalCode":"6068425","prefectureKana":"ｷｮｳﾄﾌ","cityKana":"ｷｮｳﾄｼｻｷｮｳｸ","townAreaKana":"ｼｼｶﾞﾀﾆﾆｼﾃﾗﾉﾏｴﾁｮｳ","prefecture":"京都府","city":"京都市左京区","townArea":"鹿ケ谷西寺ノ前町"},{"postalCode":"4530856","prefectureKana":"ｱｲﾁｹﾝ","cityKana":"ﾅｺﾞﾔｼﾅｶﾑﾗｸ","townAreaKana":"ﾅﾐｷ","prefecture":"愛知県","city":"名古屋市中村区","townArea":"並木"},{"postalCode":"9496746","prefectureKana":"ﾆｲｶﾞﾀｹﾝ","cityKana":"ﾐﾅﾐｳｵﾇﾏｼ","townAreaKana":"ｱｾﾞﾁ","prefecture":"新潟県","city":"南魚沼市","townArea":"畔地"},{"postalCode":"4470823","prefectureKana":"ｱｲﾁｹﾝ","cityKana":"ﾍｷﾅﾝｼ","townAreaKana":"ｶﾜｸﾞﾁﾁｮｳ","prefecture":"愛知県","city":"碧南市","townArea":"川口町"},{"postalCode":"3500405","prefectureKana":"ｻｲﾀﾏｹﾝ","cityKana":"ｲﾙﾏｸﾞﾝｵｺﾞｾﾏﾁ","townAreaKana":"ﾂｸﾈ","prefecture":"埼玉県","city":"入間郡越生町","townArea":"津久根"},{"postalCode":"4480857","prefectureKana":"ｱｲﾁｹﾝ","cityKana":"ｶﾘﾔｼ","townAreaKana":"ｵｵﾃﾏﾁ","prefecture":"愛知県","city":"刈谷市","townArea":"大手町"},{"postalCode":"9880153","prefectureKana":"ﾐﾔｷﾞｹﾝ","cityKana":"ｹｾﾝﾇﾏｼ","townAreaKana":"ﾏﾂｻﾞｷｵﾓｾ","prefecture":"宮城県","city":"気仙沼市","townArea":"松崎面瀬"},{"postalCode":"9861301","prefectureKana":"ﾐﾔｷﾞｹﾝ","cityKana":"ｲｼﾉﾏｷｼ","townAreaKana":"ｵｶﾞﾂﾁｮｳﾌﾅｺｼ","prefecture":"宮城県","city":"石巻市","townArea":"雄勝町船越"},{"postalCode":"3214545","prefectureKana":"ﾄﾁｷﾞｹﾝ","cityKana":"ﾓｵｶｼ","townAreaKana":"ﾀﾞｲﾄﾞｳｲｽﾞﾐ","prefecture":"栃木県","city":"真岡市","townArea":"大道泉"},{"postalCode":"8391202","prefectureKana":"ﾌｸｵｶｹﾝ","cityKana":"ｸﾙﾒｼ","townAreaKana":"ﾀﾇｼﾏﾙﾏﾁﾀｶﾄﾘ","prefecture":"福岡県","city":"久留米市","townArea":"田主丸町鷹取"},{"postalCode":"7128039","prefectureKana":"ｵｶﾔﾏｹﾝ","cityKana":"ｸﾗｼｷｼ","townAreaKana":"ﾐｽﾞｼﾏｱｲｵｲﾁｮｳ","prefecture":"岡山県","city":"倉敷市","townArea":"水島相生町"},{"postalCode":"8530016","prefectureKana":"ﾅｶﾞｻｷｹﾝ","cityKana":"ｺﾞﾄｳｼ","townAreaKana":"ｺﾝﾔﾏﾁ","prefecture":"長崎県","city":"五島市","townArea":"紺屋町"},{"postalCode":"2730034","prefectureKana":"ﾁﾊﾞｹﾝ","cityKana":"ﾌﾅﾊﾞｼｼ","townAreaKana":"ﾌﾀｺﾞﾁｮｳ","prefecture":"千葉県","city":"船橋市","townArea":"二子町"},{"postalCode":"8690403","prefectureKana":"ｸﾏﾓﾄｹﾝ","cityKana":"ｳﾄｼ","townAreaKana":"ｼﾝｶﾞｲﾏﾁ","prefecture":"熊本県","city":"宇土市","townArea":"新開町"},{"postalCode":"7370903","prefectureKana":"ﾋﾛｼﾏｹﾝ","cityKana":"ｸﾚｼ","townAreaKana":"ﾔｹﾔﾏﾆｼ","prefecture":"広島県","city":"呉市","townArea":"焼山西"},{"postalCode":"5200356","prefectureKana":"ｼｶﾞｹﾝ","cityKana":"ｵｵﾂｼ","townAreaKana":"ｲｶﾀﾞﾁｶﾐｻﾞｲｼﾞﾁｮｳ","prefecture":"滋賀県","city":"大津市","townArea":"伊香立上在地町"},{"postalCode":"6801427","prefectureKana":"ﾄｯﾄﾘｹﾝ","cityKana":"ﾄｯﾄﾘｼ","townAreaKana":"ｵｻｷ","prefecture":"鳥取県","city":"鳥取市","townArea":"尾崎"},{"postalCode":"5202152","prefectureKana":"ｼｶﾞｹﾝ","cityKana":"ｵｵﾂｼ","townAreaKana":"ﾂｷﾉﾜ","prefecture":"滋賀県","city":"大津市","townArea":"月輪"},{"postalCode":"6540016","prefectureKana":"ﾋｮｳｺﾞｹﾝ","cityKana":"ｺｳﾍﾞｼｽﾏｸ","townAreaKana":"ｶﾐﾎｿｻﾞﾜﾁｮｳ","prefecture":"兵庫県","city":"神戸市須磨区","townArea":"上細沢町"},{"postalCode":"8470084","prefectureKana":"ｻｶﾞｹﾝ","cityKana":"ｶﾗﾂｼ","townAreaKana":"ﾜﾀﾀﾞﾆｼﾔﾏ","prefecture":"佐賀県","city":"唐津市","townArea":"和多田西山"},{"postalCode":"9693100","prefectureKana":"ﾌｸｼﾏｹﾝ","cityKana":"ﾔﾏｸﾞﾝｲﾅﾜｼﾛﾏﾁ","townAreaKana":"","prefecture":"福島県","city":"耶麻郡猪苗代町","townArea":""},{"postalCode":"4580012","prefectureKana":"ｱｲﾁｹﾝ","cityKana":"ﾅｺﾞﾔｼﾐﾄﾞﾘｸ","townAreaKana":"ﾋｻｶﾀ","prefecture":"愛知県","city":"名古屋市緑区","townArea":"久方"},{"postalCode":"3700600","prefectureKana":"ｸﾞﾝﾏｹﾝ","cityKana":"ｵｳﾗｸﾞﾝｵｳﾗﾏﾁ","townAreaKana":"","prefecture":"群馬県","city":"邑楽郡邑楽町","townArea":""},{"postalCode":"9872338","prefectureKana":"ﾐﾔｷﾞｹﾝ","cityKana":"ｸﾘﾊﾗｼ","townAreaKana":"ｲﾁﾊｻﾏﾋﾅﾀ","prefecture":"宮城県","city":"栗原市","townArea":"一迫日向"},{"postalCode":"4380074","prefectureKana":"ｼｽﾞｵｶｹﾝ","cityKana":"ｲﾜﾀｼ","townAreaKana":"ﾆﾉﾐﾔｾﾝｹﾞﾝ","prefecture":"静岡県","city":"磐田市","townArea":"二之宮浅間"},{"postalCode":"7000073","prefectureKana":"ｵｶﾔﾏｹﾝ","cityKana":"ｵｶﾔﾏｼｷﾀｸ","townAreaKana":"ﾏﾝﾅﾘﾆｼﾏﾁ","prefecture":"岡山県","city":"岡山市北区","townArea":"万成西町"},{"postalCode":"7371205","prefectureKana":"ﾋﾛｼﾏｹﾝ","cityKana":"ｸﾚｼ","townAreaKana":"ｵﾝﾄﾞﾁｮｳﾐﾅﾐｵﾝﾄﾞ","prefecture":"広島県","city":"呉市","townArea":"音戸町南隠渡"},{"postalCode":"5290112","prefectureKana":"ｼｶﾞｹﾝ","cityKana":"ﾅｶﾞﾊﾏｼ","townAreaKana":"ﾐﾔﾍﾞﾁｮｳ","prefecture":"滋賀県","city":"長浜市","townArea":"宮部町"},{"postalCode":"7270413","prefectureKana":"ﾋﾛｼﾏｹﾝ","cityKana":"ｼｮｳﾊﾞﾗｼ","townAreaKana":"ﾀｶﾉﾁｮｳﾐﾅﾐ","prefecture":"広島県","city":"庄原市","townArea":"高野町南"},{"postalCode":"7592301","prefectureKana":"ﾔﾏｸﾞﾁｹﾝ","cityKana":"ﾐﾈｼ","townAreaKana":"ｵﾌｸﾁｮｳｶﾐﾀｲﾒｲ","prefecture":"山口県","city":"美祢市","townArea":"於福町上大明"},{"postalCode":"7793620","prefectureKana":"ﾄｸｼﾏｹﾝ","cityKana":"ﾐﾏｼ","townAreaKana":"ﾜｷﾏﾁｶﾜﾗﾏﾁ","prefecture":"徳島県","city":"美馬市","townArea":"脇町川原町"},{"postalCode":"3490212","prefectureKana":"ｻｲﾀﾏｹﾝ","cityKana":"ｼﾗｵｶｼ","townAreaKana":"ｼﾝｼﾗｵｶ","prefecture":"埼玉県","city":"白岡市","townArea":"新白岡"},{"postalCode":"2400063","prefectureKana":"ｶﾅｶﾞﾜｹﾝ","cityKana":"ﾖｺﾊﾏｼﾎﾄﾞｶﾞﾔｸ","townAreaKana":"ｶﾏﾔﾁｮｳ","prefecture":"神奈川県","city":"横浜市保土ケ谷区","townArea":"鎌谷町"},{"postalCode":"3213222","prefectureKana":"ﾄﾁｷﾞｹﾝ","cityKana":"ｳﾂﾉﾐﾔｼ","townAreaKana":"ﾉｺﾞﾔﾏﾁ","prefecture":"栃木県","city":"宇都宮市","townArea":"野高谷町"},{"postalCode":"0482400","prefectureKana":"ﾎｯｶｲﾄﾞｳ","cityKana":"ﾖｲﾁｸﾞﾝﾆｷﾁｮｳ","townAreaKana":"","prefecture":"北海道","city":"余市郡仁木町","townArea":""},{"postalCode":"4860846","prefectureKana":"ｱｲﾁｹﾝ","cityKana":"ｶｽｶﾞｲｼ","townAreaKana":"ｱｻﾐﾔﾁｮｳ","prefecture":"愛知県","city":"春日井市","townArea":"朝宮町"},{"postalCode":"6038223","prefectureKana":"ｷｮｳﾄﾌ","cityKana":"ｷｮｳﾄｼｷﾀｸ","townAreaKana":"ﾑﾗｻｷﾉﾋｶﾞｼﾌｼﾞﾉﾓﾘﾁｮｳ","prefecture":"京都府","city":"京都市北区","townArea":"紫野東藤ノ森町"},{"postalCode":"0420942","prefectureKana":"ﾎｯｶｲﾄﾞｳ","cityKana":"ﾊｺﾀﾞﾃｼ","townAreaKana":"ｶｼﾜｷﾞﾁｮｳ","prefecture":"北海道","city":"函館市","townArea":"柏木町"},{"postalCode":"4928437","prefectureKana":"ｱｲﾁｹﾝ","cityKana":"ｲﾅｻﾞﾜｼ","townAreaKana":"ﾅｶﾉｼｮｳﾅｶﾞﾂﾂﾐﾁｮｳ","prefecture":"愛知県","city":"稲沢市","townArea":"中之庄長堤町"},{"postalCode":"1057405","prefectureKana":"ﾄｳｷｮｳﾄ","cityKana":"ﾐﾅﾄｸ","townAreaKana":"ﾋｶﾞｼｼﾝﾊﾞｼﾆﾎﾝﾃﾚﾋﾞﾀﾜｰ5ｶｲ","prefecture":"東京都","city":"港区","townArea":"東新橋日本テレビタワー　５階"},{"postalCode":"6561555","prefectureKana":"ﾋｮｳｺﾞｹﾝ","cityKana":"ｱﾜｼﾞｼ","townAreaKana":"ﾐﾅﾐ","prefecture":"兵庫県","city":"淡路市","townArea":"南"},{"postalCode":"0150243","prefectureKana":"ｱｷﾀｹﾝ","cityKana":"ﾕﾘﾎﾝｼﾞｮｳｼ","townAreaKana":"ﾔﾏｳﾁ","prefecture":"秋田県","city":"由利本荘市","townArea":"山内"},{"postalCode":"6078334","prefectureKana":"ｷｮｳﾄﾌ","cityKana":"ｷｮｳﾄｼﾔﾏｼﾅｸ","townAreaKana":"ｶﾜﾀｶｹﾉｳｴ","prefecture":"京都府","city":"京都市山科区","townArea":"川田欠ノ上"},{"postalCode":"9813606","prefectureKana":"ﾐﾔｷﾞｹﾝ","cityKana":"ｸﾛｶﾜｸﾞﾝｵｵﾋﾗﾑﾗ","townAreaKana":"ｷｷｮｳﾀﾞｲﾗ","prefecture":"宮城県","city":"黒川郡大衡村","townArea":"桔梗平"},{"postalCode":"0382761","prefectureKana":"ｱｵﾓﾘｹﾝ","cityKana":"ﾆｼﾂｶﾞﾙｸﾞﾝｱｼﾞｶﾞｻﾜﾏﾁ","townAreaKana":"ﾏｲﾄﾏﾁ","prefecture":"青森県","city":"西津軽郡鰺ヶ沢町","townArea":"舞戸町"},{"postalCode":"0691345","prefectureKana":"ﾎｯｶｲﾄﾞｳ","cityKana":"ﾕｳﾊﾞﾘｸﾞﾝﾅｶﾞﾇﾏﾁｮｳ","townAreaKana":"ｼﾗｶﾊﾞ","prefecture":"北海道","city":"夕張郡長沼町","townArea":"しらかば"},{"postalCode":"8700101","prefectureKana":"ｵｵｲﾀｹﾝ","cityKana":"ｵｵｲﾀｼ","townAreaKana":"ﾅｶﾂﾙｻｷ","prefecture":"大分県","city":"大分市","townArea":"中鶴崎"},{"postalCode":"6038442","prefectureKana":"ｷｮｳﾄﾌ","cityKana":"ｷｮｳﾄｼｷﾀｸ","townAreaKana":"ｼﾁｸﾆｼﾉﾔﾏﾋｶﾞｼﾏﾁ","prefecture":"京都府","city":"京都市北区","townArea":"紫竹西野山東町"},{"postalCode":"7510876","prefectureKana":"ﾔﾏｸﾞﾁｹﾝ","cityKana":"ｼﾓﾉｾｷｼ","townAreaKana":"ｱｷﾈｷﾀﾏﾁ","prefecture":"山口県","city":"下関市","townArea":"秋根北町"},{"postalCode":"7094226","prefectureKana":"ｵｶﾔﾏｹﾝ","cityKana":"ﾐﾏｻｶｼ","townAreaKana":"ﾅﾏｽﾞ","prefecture":"岡山県","city":"美作市","townArea":"鯰"},{"postalCode":"6728094","prefectureKana":"ﾋｮｳｺﾞｹﾝ","cityKana":"ﾋﾒｼﾞｼ","townAreaKana":"ｼｶﾏｸｶﾏｸﾗﾁｮｳ","prefecture":"兵庫県","city":"姫路市","townArea":"飾磨区鎌倉町"},{"postalCode":"3292706","prefectureKana":"ﾄﾁｷﾞｹﾝ","cityKana":"ﾅｽｼｵﾊﾞﾗｼ","townAreaKana":"ﾑﾂﾐ","prefecture":"栃木県","city":"那須塩原市","townArea":"睦"},{"postalCode":"6330202","prefectureKana":"ﾅﾗｹﾝ","cityKana":"ｳﾀﾞｼ","townAreaKana":"ﾊｲﾊﾞﾗﾔﾏﾍﾞｻﾝ","prefecture":"奈良県","city":"宇陀市","townArea":"榛原山辺三"},{"postalCode":"9870354","prefectureKana":"ﾐﾔｷﾞｹﾝ","cityKana":"ﾄﾒｼ","townAreaKana":"ﾄﾖｻﾄﾁｮｳｳﾜﾇﾏﾀ","prefecture":"宮城県","city":"登米市","townArea":"豊里町上沼田"},{"postalCode":"4660855","prefectureKana":"ｱｲﾁｹﾝ","cityKana":"ﾅｺﾞﾔｼｼｮｳﾜｸ","townAreaKana":"ｶﾜﾅﾎﾝﾏﾁ","prefecture":"愛知県","city":"名古屋市昭和区","townArea":"川名本町"},{"postalCode":"8700958","prefectureKana":"ｵｵｲﾀｹﾝ","cityKana":"ｵｵｲﾀｼ","townAreaKana":"ﾕﾒｶﾞｵｶ","prefecture":"大分県","city":"大分市","townArea":"ゆめが丘"},{"postalCode":"9670305","prefectureKana":"ﾌｸｼﾏｹﾝ","cityKana":"ﾐﾅﾐｱｲﾂﾞｸﾞﾝﾐﾅﾐｱｲﾂﾞﾏﾁ","townAreaKana":"ﾄﾁｭｳ","prefecture":"福島県","city":"南会津郡南会津町","townArea":"戸中"},{"postalCode":"4020021","prefectureKana":"ﾔﾏﾅｼｹﾝ","cityKana":"ﾂﾙｼ","townAreaKana":"ﾀﾏｶﾞﾜ","prefecture":"山梨県","city":"都留市","townArea":"玉川"},{"postalCode":"9392205","prefectureKana":"ﾄﾔﾏｹﾝ","cityKana":"ﾄﾔﾏｼ","townAreaKana":"ﾌﾀﾏﾂ","prefecture":"富山県","city":"富山市","townArea":"二松"},{"postalCode":"7000983","prefectureKana":"ｵｶﾔﾏｹﾝ","cityKana":"ｵｶﾔﾏｼｷﾀｸ","townAreaKana":"ﾋｶﾞｼｼﾏﾀﾞﾁｮｳ","prefecture":"岡山県","city":"岡山市北区","townArea":"東島田町"},{"postalCode":"9280241","prefectureKana":"ｲｼｶﾜｹﾝ","cityKana":"ﾜｼﾞﾏｼ","townAreaKana":"ｼﾌﾞﾀﾏﾁ","prefecture":"石川県","city":"輪島市","townArea":"渋田町"},{"postalCode":"6038033","prefectureKana":"ｷｮｳﾄﾌ","cityKana":"ｷｮｳﾄｼｷﾀｸ","townAreaKana":"ｶﾐｶﾞﾓｳﾏﾉﾒﾁｮｳ","prefecture":"京都府","city":"京都市北区","townArea":"上賀茂馬ノ目町"},{"postalCode":"3670216","prefectureKana":"ｻｲﾀﾏｹﾝ","cityKana":"ﾎﾝｼﾞｮｳｼ","townAreaKana":"ｺﾀﾞﾏﾁｮｳｶﾅﾔ","prefecture":"埼玉県","city":"本庄市","townArea":"児玉町金屋"},{"postalCode":"5250035","prefectureKana":"ｼｶﾞｹﾝ","cityKana":"ｸｻﾂｼ","townAreaKana":"ﾆｼｸｻﾂ","prefecture":"滋賀県","city":"草津市","townArea":"西草津"},{"postalCode":"8720462","prefectureKana":"ｵｵｲﾀｹﾝ","cityKana":"ｳｻｼ","townAreaKana":"ｲﾝﾅｲﾏﾁﾊﾊﾞﾚ","prefecture":"大分県","city":"宇佐市","townArea":"院内町羽馬礼"},{"postalCode":"3740053","prefectureKana":"ｸﾞﾝﾏｹﾝ","cityKana":"ﾀﾃﾊﾞﾔｼｼ","townAreaKana":"ｱｶﾂﾁﾁｮｳ","prefecture":"群馬県","city":"館林市","townArea":"赤土町"},{"postalCode":"9302234","prefectureKana":"ﾄﾔﾏｹﾝ","cityKana":"ﾄﾔﾏｼ","townAreaKana":"ﾇﾉﾒﾐﾄﾞﾘﾏﾁ","prefecture":"富山県","city":"富山市","townArea":"布目緑町"},{"postalCode":"7780203","prefectureKana":"ﾄｸｼﾏｹﾝ","cityKana":"ﾐﾖｼｼ","townAreaKana":"ﾋｶﾞｼｲﾔﾅｶｳｴ","prefecture":"徳島県","city":"三好市","townArea":"東祖谷中上"},{"postalCode":"6048321","prefectureKana":"ｷｮｳﾄﾌ","cityKana":"ｷｮｳﾄｼﾅｶｷﾞｮｳｸ","townAreaKana":"ｸﾗﾓﾄﾁｮｳ","prefecture":"京都府","city":"京都市中京区","townArea":"倉本町"},{"postalCode":"3812215","prefectureKana":"ﾅｶﾞﾉｹﾝ","cityKana":"ﾅｶﾞﾉｼ","townAreaKana":"ｲﾅｻﾄﾏﾁﾅｶﾋｶﾞﾉ","prefecture":"長野県","city":"長野市","townArea":"稲里町中氷鉋"},{"postalCode":"9670346","prefectureKana":"ﾌｸｼﾏｹﾝ","cityKana":"ﾐﾅﾐｱｲﾂﾞｸﾞﾝﾐﾅﾐｱｲﾂﾞﾏﾁ","townAreaKana":"ｶﾜｷﾞﾇ","prefecture":"福島県","city":"南会津郡南会津町","townArea":"川衣"},{"postalCode":"8820043","prefectureKana":"ﾐﾔｻﾞｷｹﾝ","cityKana":"ﾉﾍﾞｵｶｼ","townAreaKana":"ｷﾞｵﾝﾏﾁ","prefecture":"宮崎県","city":"延岡市","townArea":"祗園町"},{"postalCode":"0790301","prefectureKana":"ﾎｯｶｲﾄﾞｳ","cityKana":"ｿﾗﾁｸﾞﾝﾅｲｴﾁｮｳ","townAreaKana":"ｲﾂｸｼﾏ","prefecture":"北海道","city":"空知郡奈井江町","townArea":"厳島"},{"postalCode":"0640926","prefectureKana":"ﾎｯｶｲﾄﾞｳ","cityKana":"ｻｯﾎﾟﾛｼﾁｭｳｵｳｸ","townAreaKana":"ﾐﾅﾐ26ｼﾞｮｳﾆｼ","prefecture":"北海道","city":"札幌市中央区","townArea":"南二十六条西"},{"postalCode":"7795163","prefectureKana":"ﾄｸｼﾏｹﾝ","cityKana":"ﾐﾖｼｼ","townAreaKana":"ｲｹﾀﾞﾁｮｳﾅｶﾂｶﾞﾜ","prefecture":"徳島県","city":"三好市","townArea":"池田町中津川"},{"postalCode":"7691625","prefectureKana":"ｶｶﾞﾜｹﾝ","cityKana":"ｶﾝｵﾝｼﾞｼ","townAreaKana":"ｵｵﾉﾊﾗﾁｮｳｴﾋﾞｽｸｲ","prefecture":"香川県","city":"観音寺市","townArea":"大野原町海老済"},{"postalCode":"7540514","prefectureKana":"ﾔﾏｸﾞﾁｹﾝ","cityKana":"ﾐﾈｼ","townAreaKana":"ｼｭｳﾎｳﾁｮｳ","prefecture":"山口県","city":"美祢市","townArea":"秋芳町"},{"postalCode":"0391526","prefectureKana":"ｱｵﾓﾘｹﾝ","cityKana":"ｻﾝﾉﾍｸﾞﾝｺﾞﾉﾍﾏﾁ","townAreaKana":"ｿｳﾘﾝﾊﾞｼ","prefecture":"青森県","city":"三戸郡五戸町","townArea":"惣林橋"},{"postalCode":"7850024","prefectureKana":"ｺｳﾁｹﾝ","cityKana":"ｽｻｷｼ","townAreaKana":"ｱﾜ","prefecture":"高知県","city":"須崎市","townArea":"安和"},{"postalCode":"7891402","prefectureKana":"ｺｳﾁｹﾝ","cityKana":"ﾀｶｵｶｸﾞﾝﾅｶﾄｻﾁｮｳ","townAreaKana":"ｵｵﾉﾐﾊｼﾀﾞﾆ","prefecture":"高知県","city":"高岡郡中土佐町","townArea":"大野見橋谷"},{"postalCode":"4420001","prefectureKana":"ｱｲﾁｹﾝ","cityKana":"ﾄﾖｶﾜｼ","townAreaKana":"ﾁｷﾞﾘﾁｮｳ","prefecture":"愛知県","city":"豊川市","townArea":"千両町"},{"postalCode":"0181401","prefectureKana":"ｱｷﾀｹﾝ","cityKana":"ｶﾀｶﾞﾐｼ","townAreaKana":"ｼｮｳﾜｵｵｸﾎﾞ","prefecture":"秋田県","city":"潟上市","townArea":"昭和大久保"},{"postalCode":"9900038","prefectureKana":"ﾔﾏｶﾞﾀｹﾝ","cityKana":"ﾔﾏｶﾞﾀｼ","townAreaKana":"ｻｲﾜｲﾁｮｳ","prefecture":"山形県","city":"山形市","townArea":"幸町"},{"postalCode":"4070262","prefectureKana":"ﾔﾏﾅｼｹﾝ","cityKana":"ﾆﾗｻｷｼ","townAreaKana":"ﾅｶﾀﾞﾏﾁﾅｶｼﾞｮｳ","prefecture":"山梨県","city":"韮崎市","townArea":"中田町中條"},{"postalCode":"6901406","prefectureKana":"ｼﾏﾈｹﾝ","cityKana":"ﾏﾂｴｼ","townAreaKana":"ﾔﾂｶﾁｮｳﾌﾀｺﾞ","prefecture":"島根県","city":"松江市","townArea":"八束町二子"},{"postalCode":"9550014","prefectureKana":"ﾆｲｶﾞﾀｹﾝ","cityKana":"ｻﾝｼﾞｮｳｼ","townAreaKana":"ﾆｼｶﾀ","prefecture":"新潟県","city":"三条市","townArea":"西潟"},{"postalCode":"3080863","prefectureKana":"ｲﾊﾞﾗｷｹﾝ","cityKana":"ﾁｸｾｲｼ","townAreaKana":"ﾊｲﾂｶ","prefecture":"茨城県","city":"筑西市","townArea":"灰塚"},{"postalCode":"5108123","prefectureKana":"ﾐｴｹﾝ","cityKana":"ﾐｴｸﾞﾝｶﾜｺﾞｴﾁｮｳ","townAreaKana":"ﾄﾖﾀﾞｲｯｼｷ","prefecture":"三重県","city":"三重郡川越町","townArea":"豊田一色"},{"postalCode":"6920015","prefectureKana":"ｼﾏﾈｹﾝ","cityKana":"ﾔｽｷﾞｼ","townAreaKana":"ｲﾏﾂﾞﾁｮｳ","prefecture":"島根県","city":"安来市","townArea":"今津町"},{"postalCode":"4213114","prefectureKana":"ｼｽﾞｵｶｹﾝ","cityKana":"ｼｽﾞｵｶｼｼﾐｽﾞｸ","townAreaKana":"ﾕｲﾋｶﾞｼｸﾗｻﾜ","prefecture":"静岡県","city":"静岡市清水区","townArea":"由比東倉澤"},{"postalCode":"9370026","prefectureKana":"ﾄﾔﾏｹﾝ","cityKana":"ｳｵﾂﾞｼ","townAreaKana":"ｵｵｻﾜ","prefecture":"富山県","city":"魚津市","townArea":"大沢"},{"postalCode":"5100096","prefectureKana":"ﾐｴｹﾝ","cityKana":"ﾖｯｶｲﾁｼ","townAreaKana":"ﾅｶﾏﾁ","prefecture":"三重県","city":"四日市市","townArea":"中町"},{"postalCode":"9591503","prefectureKana":"ﾆｲｶﾞﾀｹﾝ","cityKana":"ﾐﾅﾐｶﾝﾊﾞﾗｸﾞﾝﾀｶﾞﾐﾏﾁ","townAreaKana":"ﾊﾗｶﾞｻｷｼﾝﾃﾞﾝ","prefecture":"新潟県","city":"南蒲原郡田上町","townArea":"原ケ崎新田"},{"postalCode":"4410315","prefectureKana":"ｱｲﾁｹﾝ","cityKana":"ﾄﾖｶﾜｼ","townAreaKana":"ﾐﾄﾁｮｳｵｵｸｻｼﾝﾃﾞﾝ","prefecture":"愛知県","city":"豊川市","townArea":"御津町大草新田"},{"postalCode":"6920214","prefectureKana":"ｼﾏﾈｹﾝ","cityKana":"ﾔｽｷﾞｼ","townAreaKana":"ﾊｸﾀﾁｮｳｽﾔﾏﾌｸﾄﾞﾒ","prefecture":"島根県","city":"安来市","townArea":"伯太町須山福冨"},{"postalCode":"5690086","prefectureKana":"ｵｵｻｶﾌ","cityKana":"ﾀｶﾂｷｼ","townAreaKana":"ﾏﾂﾊﾞﾗﾁｮｳ","prefecture":"大阪府","city":"高槻市","townArea":"松原町"},{"postalCode":"7230145","prefectureKana":"ﾋﾛｼﾏｹﾝ","cityKana":"ﾐﾊﾗｼ","townAreaKana":"ﾇﾀﾋｶﾞｼﾁｮｳｶﾀｼﾏ","prefecture":"広島県","city":"三原市","townArea":"沼田東町片島"},{"postalCode":"3930067","prefectureKana":"ﾅｶﾞﾉｹﾝ","cityKana":"ｽﾜｸﾞﾝｼﾓｽﾜﾏﾁ","townAreaKana":"ﾔｷﾞﾋｶﾞｼ","prefecture":"長野県","city":"諏訪郡下諏訪町","townArea":"矢木東"},{"postalCode":"8750213","prefectureKana":"ｵｵｲﾀｹﾝ","cityKana":"ｳｽｷｼ","townAreaKana":"ﾉﾂﾏﾁﾊﾁﾘｺﾞｳ","prefecture":"大分県","city":"臼杵市","townArea":"野津町八里合"},{"postalCode":"4413203","prefectureKana":"ｱｲﾁｹﾝ","cityKana":"ﾄﾖﾊｼｼ","townAreaKana":"ﾀｶﾂｶﾁｮｳ","prefecture":"愛知県","city":"豊橋市","townArea":"高塚町"},{"postalCode":"9301413","prefectureKana":"ﾄﾔﾏｹﾝ","cityKana":"ﾅｶﾆｲｶﾜｸﾞﾝﾀﾃﾔﾏﾏﾁ","townAreaKana":"ﾃﾝｸﾞﾀﾞｲﾗ","prefecture":"富山県","city":"中新川郡立山町","townArea":"天狗平"},{"postalCode":"8800821","prefectureKana":"ﾐﾔｻﾞｷｹﾝ","cityKana":"ﾐﾔｻﾞｷｼ","townAreaKana":"ｳｷﾉｼﾞｮｳﾁｮｳ","prefecture":"宮崎県","city":"宮崎市","townArea":"浮城町"},{"postalCode":"9560811","prefectureKana":"ﾆｲｶﾞﾀｹﾝ","cityKana":"ﾆｲｶﾞﾀｼｱｷﾊｸ","townAreaKana":"ﾏﾝｶﾞﾝｼﾞ","prefecture":"新潟県","city":"新潟市秋葉区","townArea":"満願寺"},{"postalCode":"5008036","prefectureKana":"ｷﾞﾌｹﾝ","cityKana":"ｷﾞﾌｼ","townAreaKana":"ｼﾞﾝｴｲﾁｮｳ","prefecture":"岐阜県","city":"岐阜市","townArea":"甚衛町"},{"postalCode":"3000605","prefectureKana":"ｲﾊﾞﾗｷｹﾝ","cityKana":"ｲﾅｼｷｼ","townAreaKana":"ｺｳﾀﾞ","prefecture":"茨城県","city":"稲敷市","townArea":"幸田"},{"postalCode":"9291814","prefectureKana":"ｲｼｶﾜｹﾝ","cityKana":"ｶｼﾏｸﾞﾝﾅｶﾉﾄﾏﾁ","townAreaKana":"ﾊﾗﾔﾏ","prefecture":"石川県","city":"鹿島郡中能登町","townArea":"原山"},{"postalCode":"7793405","prefectureKana":"ﾄｸｼﾏｹﾝ","cityKana":"ﾖｼﾉｶﾞﾜｼ","townAreaKana":"ﾔﾏｶﾜﾁｮｳﾂｶｱﾅ","prefecture":"徳島県","city":"吉野川市","townArea":"山川町塚穴"},{"postalCode":"6850433","prefectureKana":"ｼﾏﾈｹﾝ","cityKana":"ｵｷｸﾞﾝｵｷﾉｼﾏﾁｮｳ","townAreaKana":"ﾐﾅﾄ","prefecture":"島根県","city":"隠岐郡隠岐の島町","townArea":"湊"},{"postalCode":"9013138","prefectureKana":"ｵｷﾅﾜｹﾝ","cityKana":"ｼﾏｼﾞﾘｸﾞﾝｸﾒｼﾞﾏﾁｮｳ","townAreaKana":"ｳｴｽﾞ","prefecture":"沖縄県","city":"島尻郡久米島町","townArea":"上江洲"},{"postalCode":"6168346","prefectureKana":"ｷｮｳﾄﾌ","cityKana":"ｷｮｳﾄｼｳｷｮｳｸ","townAreaKana":"ｻｶﾞﾃﾝﾘｭｳｼﾞｱﾌﾞﾗｶｹﾁｮｳ","prefecture":"京都府","city":"京都市右京区","townArea":"嵯峨天龍寺油掛町"},{"postalCode":"7191126","prefectureKana":"ｵｶﾔﾏｹﾝ","cityKana":"ｿｳｼﾞｬｼ","townAreaKana":"ｿｳｼﾞｬ","prefecture":"岡山県","city":"総社市","townArea":"総社"},{"postalCode":"9392711","prefectureKana":"ﾄﾔﾏｹﾝ","cityKana":"ﾄﾔﾏｼ","townAreaKana":"ﾌﾁｭｳﾏﾁｳｻｶ","prefecture":"富山県","city":"富山市","townArea":"婦中町鵜坂"},{"postalCode":"3114146","prefectureKana":"ｲﾊﾞﾗｷｹﾝ","cityKana":"ﾐﾄｼ","townAreaKana":"ﾅｶﾏﾙﾁｮｳ","prefecture":"茨城県","city":"水戸市","townArea":"中丸町"},{"postalCode":"0800028","prefectureKana":"ﾎｯｶｲﾄﾞｳ","cityKana":"ｵﾋﾞﾋﾛｼ","townAreaKana":"ﾆｼ18ｼﾞｮｳﾐﾅﾐ","prefecture":"北海道","city":"帯広市","townArea":"西十八条南"},{"postalCode":"4328011","prefectureKana":"ｼｽﾞｵｶｹﾝ","cityKana":"ﾊﾏﾏﾂｼﾅｶｸ","townAreaKana":"ｼﾞｮｳﾎｸ","prefecture":"静岡県","city":"浜松市中区","townArea":"城北"},{"postalCode":"9813523","prefectureKana":"ﾐﾔｷﾞｹﾝ","cityKana":"ｸﾛｶﾜｸﾞﾝｵｵｻﾄﾁｮｳ","townAreaKana":"ﾂﾁﾊｼ","prefecture":"宮城県","city":"黒川郡大郷町","townArea":"土橋"},{"postalCode":"8720653","prefectureKana":"ｵｵｲﾀｹﾝ","cityKana":"ｳｻｼ","townAreaKana":"ｱｼﾞﾑﾏﾁﾎﾞｳｶﾞﾊﾀ","prefecture":"大分県","city":"宇佐市","townArea":"安心院町房ケ畑"},{"postalCode":"6920077","prefectureKana":"ｼﾏﾈｹﾝ","cityKana":"ﾔｽｷﾞｼ","townAreaKana":"ﾆｼﾏﾂｲﾁｮｳ","prefecture":"島根県","city":"安来市","townArea":"西松井町"},{"postalCode":"6371223","prefectureKana":"ﾅﾗｹﾝ","cityKana":"ﾖｼﾉｸﾞﾝﾄﾂｶﾜﾑﾗ","townAreaKana":"ﾐｳﾗ","prefecture":"奈良県","city":"吉野郡十津川村","townArea":"三浦"},{"postalCode":"5260823","prefectureKana":"ｼｶﾞｹﾝ","cityKana":"ﾅｶﾞﾊﾏｼ","townAreaKana":"ｼﾞｮｳｷﾞﾁｮｳ","prefecture":"滋賀県","city":"長浜市","townArea":"常喜町"},{"postalCode":"8695454","prefectureKana":"ｸﾏﾓﾄｹﾝ","cityKana":"ｱｼｷﾀｸﾞﾝｱｼｷﾀﾏﾁ","townAreaKana":"ﾂﾙｷﾞﾔﾏ","prefecture":"熊本県","city":"葦北郡芦北町","townArea":"鶴木山"},{"postalCode":"5200000","prefectureKana":"ｼｶﾞｹﾝ","cityKana":"ｵｵﾂｼ","townAreaKana":"","prefecture":"滋賀県","city":"大津市","townArea":""},{"postalCode":"3420053","prefectureKana":"ｻｲﾀﾏｹﾝ","cityKana":"ﾖｼｶﾜｼ","townAreaKana":"ｾｷ","prefecture":"埼玉県","city":"吉川市","townArea":"関"},{"postalCode":"5406136","prefectureKana":"ｵｵｻｶﾌ","cityKana":"ｵｵｻｶｼﾁｭｳｵｳｸ","townAreaKana":"ｼﾛﾐｴﾑｱｲﾃﾞｨﾀﾜｰ36ｶｲ","prefecture":"大阪府","city":"大阪市中央区","townArea":"城見ＭＩＤタワー　３６階"},{"postalCode":"2730853","prefectureKana":"ﾁﾊﾞｹﾝ","cityKana":"ﾌﾅﾊﾞｼｼ","townAreaKana":"ｶﾅｽｷﾞ","prefecture":"千葉県","city":"船橋市","townArea":"金杉"},{"postalCode":"9850872","prefectureKana":"ﾐﾔｷﾞｹﾝ","cityKana":"ﾀｶﾞｼﾞｮｳｼ","townAreaKana":"ﾃﾞﾝｼﾞｮｳﾔﾏ","prefecture":"宮城県","city":"多賀城市","townArea":"伝上山"},{"postalCode":"0783304","prefectureKana":"ﾎｯｶｲﾄﾞｳ","cityKana":"ﾙﾓｲｸﾞﾝｵﾋﾞﾗﾁｮｳ","townAreaKana":"ﾎﾝｺﾞｳ","prefecture":"北海道","city":"留萌郡小平町","townArea":"本郷"},{"postalCode":"8940625","prefectureKana":"ｶｺﾞｼﾏｹﾝ","cityKana":"ｱﾏﾐｼ","townAreaKana":"ｶｻﾘﾁｮｳｶﾜｶﾐ","prefecture":"鹿児島県","city":"奄美市","townArea":"笠利町川上"},{"postalCode":"9440202","prefectureKana":"ﾆｲｶﾞﾀｹﾝ","cityKana":"ﾐｮｳｺｳｼ","townAreaKana":"ﾏｷﾌﾞﾁ","prefecture":"新潟県","city":"妙高市","townArea":"巻淵"},{"postalCode":"5700046","prefectureKana":"ｵｵｻｶﾌ","cityKana":"ﾓﾘｸﾞﾁｼ","townAreaKana":"ﾐﾅﾐﾃﾗｶﾀｷﾀﾄﾞｵﾘ","prefecture":"大阪府","city":"守口市","townArea":"南寺方北通"},{"postalCode":"3460013","prefectureKana":"ｻｲﾀﾏｹﾝ","cityKana":"ｸｷｼ","townAreaKana":"ｱｵﾊﾞ","prefecture":"埼玉県","city":"久喜市","townArea":"青葉"},{"postalCode":"6068082","prefectureKana":"ｷｮｳﾄﾌ","cityKana":"ｷｮｳﾄｼｻｷｮｳｸ","townAreaKana":"ｼｭｳｶﾞｸｲﾝｶﾉｼﾀﾁｮｳ","prefecture":"京都府","city":"京都市左京区","townArea":"修学院鹿ノ下町"},{"postalCode":"1631019","prefectureKana":"ﾄｳｷｮｳﾄ","cityKana":"ｼﾝｼﾞｭｸｸ","townAreaKana":"ﾆｼｼﾝｼﾞｭｸｼﾝｼﾞｭｸﾊﾟｰｸﾀﾜｰ19ｶｲ","prefecture":"東京都","city":"新宿区","townArea":"西新宿新宿パークタワー　１９階"},{"postalCode":"0392625","prefectureKana":"ｱｵﾓﾘｹﾝ","cityKana":"ｶﾐｷﾀｸﾞﾝﾄｳﾎｸﾏﾁ","townAreaKana":"ﾅｶﾞｸﾎﾞ","prefecture":"青森県","city":"上北郡東北町","townArea":"長久保"},{"postalCode":"4700152","prefectureKana":"ｱｲﾁｹﾝ","cityKana":"ｱｲﾁｸﾞﾝﾄｳｺﾞｳﾁｮｳ","townAreaKana":"ｷﾀﾔﾏﾀﾞｲ","prefecture":"愛知県","city":"愛知郡東郷町","townArea":"北山台"},{"postalCode":"8120036","prefectureKana":"ﾌｸｵｶｹﾝ","cityKana":"ﾌｸｵｶｼﾊｶﾀｸ","townAreaKana":"ｶﾐｺﾞﾌｸﾏﾁ","prefecture":"福岡県","city":"福岡市博多区","townArea":"上呉服町"},{"postalCode":"9637866","prefectureKana":"ﾌｸｼﾏｹﾝ","cityKana":"ｲｼｶﾜｸﾞﾝｲｼｶﾜﾏﾁ","townAreaKana":"ｿﾄｸﾆﾐ","prefecture":"福島県","city":"石川郡石川町","townArea":"外国見"},{"postalCode":"9230981","prefectureKana":"ｲｼｶﾜｹﾝ","cityKana":"ｺﾏﾂｼ","townAreaKana":"ﾀｸｴｲﾏﾁ","prefecture":"石川県","city":"小松市","townArea":"拓栄町"},{"postalCode":"9591332","prefectureKana":"ﾆｲｶﾞﾀｹﾝ","cityKana":"ｶﾓｼ","townAreaKana":"ｼﾞｮｳｼﾞｮｳ","prefecture":"新潟県","city":"加茂市","townArea":"上条"},{"postalCode":"9230914","prefectureKana":"ｲｼｶﾜｹﾝ","cityKana":"ｺﾏﾂｼ","townAreaKana":"ｼﾝｶｼﾞﾏﾁ","prefecture":"石川県","city":"小松市","townArea":"新鍛冶町"},{"postalCode":"8380014","prefectureKana":"ﾌｸｵｶｹﾝ","cityKana":"ｱｻｸﾗｼ","townAreaKana":"ﾔﾏﾐ","prefecture":"福岡県","city":"朝倉市","townArea":"山見"},{"postalCode":"7370162","prefectureKana":"ﾋﾛｼﾏｹﾝ","cityKana":"ｸﾚｼ","townAreaKana":"ｺﾞｳﾊﾗﾏﾅﾋﾞﾉｵｶ","prefecture":"広島県","city":"呉市","townArea":"郷原学びの丘"},{"postalCode":"7820000","prefectureKana":"ｺｳﾁｹﾝ","cityKana":"ｶﾐｼ","townAreaKana":"","prefecture":"高知県","city":"香美市","townArea":""},{"postalCode":"9896711","prefectureKana":"ﾐﾔｷﾞｹﾝ","cityKana":"ｵｵｻｷｼ","townAreaKana":"ﾅﾙｺｵﾝｾﾝｷｭｳﾃﾞﾝ","prefecture":"宮城県","city":"大崎市","townArea":"鳴子温泉久田"},{"postalCode":"9220334","prefectureKana":"ｲｼｶﾜｹﾝ","cityKana":"ｶｶﾞｼ","townAreaKana":"ﾆｼｼﾞﾏﾏﾁ","prefecture":"石川県","city":"加賀市","townArea":"西島町"},{"postalCode":"7690211","prefectureKana":"ｶｶﾞﾜｹﾝ","cityKana":"ｱﾔｳﾀｸﾞﾝｳﾀﾂﾞﾁｮｳ","townAreaKana":"ｼﾞｭｳﾗｸｼﾞ","prefecture":"香川県","city":"綾歌郡宇多津町","townArea":"十楽寺"},{"postalCode":"3470000","prefectureKana":"ｻｲﾀﾏｹﾝ","cityKana":"ｶｿﾞｼ","townAreaKana":"","prefecture":"埼玉県","city":"加須市","townArea":""},{"postalCode":"2310815","prefectureKana":"ｶﾅｶﾞﾜｹﾝ","cityKana":"ﾖｺﾊﾏｼﾅｶｸ","townAreaKana":"ﾁﾄﾞﾘﾁｮｳ","prefecture":"神奈川県","city":"横浜市中区","townArea":"千鳥町"},{"postalCode":"7160061","prefectureKana":"ｵｶﾔﾏｹﾝ","cityKana":"ﾀｶﾊｼｼ","townAreaKana":"ｵﾁｱｲﾁｮｳｱﾍﾞ","prefecture":"岡山県","city":"高梁市","townArea":"落合町阿部"},{"postalCode":"9450858","prefectureKana":"ﾆｲｶﾞﾀｹﾝ","cityKana":"ｶｼﾜｻﾞｷｼ","townAreaKana":"ｺｽｷﾞ","prefecture":"新潟県","city":"柏崎市","townArea":"小杉"},{"postalCode":"6692364","prefectureKana":"ﾋｮｳｺﾞｹﾝ","cityKana":"ﾀﾝﾊﾞｻｻﾔﾏｼ","townAreaKana":"ﾜｼｵ","prefecture":"兵庫県","city":"丹波篠山市","townArea":"鷲尾"},{"postalCode":"5998103","prefectureKana":"ｵｵｻｶﾌ","cityKana":"ｻｶｲｼﾋｶﾞｼｸ","townAreaKana":"ﾎﾞﾀﾞｲﾁｮｳ","prefecture":"大阪府","city":"堺市東区","townArea":"菩提町"},{"postalCode":"9637764","prefectureKana":"ﾌｸｼﾏｹﾝ","cityKana":"ﾀﾑﾗｸﾞﾝﾐﾊﾙﾏﾁ","townAreaKana":"ｷﾀﾑｷﾏﾁ","prefecture":"福島県","city":"田村郡三春町","townArea":"北向町"},{"postalCode":"2770011","prefectureKana":"ﾁﾊﾞｹﾝ","cityKana":"ｶｼﾜｼ","townAreaKana":"ｱｽﾞﾏｶﾐﾁｮｳ","prefecture":"千葉県","city":"柏市","townArea":"東上町"},{"postalCode":"7100064","prefectureKana":"ｵｶﾔﾏｹﾝ","cityKana":"ｸﾗｼｷｼ","townAreaKana":"ｱｵｴ","prefecture":"岡山県","city":"倉敷市","townArea":"青江"},{"postalCode":"9690403","prefectureKana":"ﾌｸｼﾏｹﾝ","cityKana":"ｲﾜｾｸﾞﾝｶｶﾞﾐｲｼﾏﾁ","townAreaKana":"ﾄﾞｳﾏｴ","prefecture":"福島県","city":"岩瀬郡鏡石町","townArea":"堂前"},{"postalCode":"3002655","prefectureKana":"ｲﾊﾞﾗｷｹﾝ","cityKana":"ﾂｸﾊﾞｼ","townAreaKana":"ｼﾏﾅ","prefecture":"茨城県","city":"つくば市","townArea":"島名"},{"postalCode":"9660000","prefectureKana":"ﾌｸｼﾏｹﾝ","cityKana":"ｷﾀｶﾀｼ","townAreaKana":"","prefecture":"福島県","city":"喜多方市","townArea":""},{"postalCode":"1620853","prefectureKana":"ﾄｳｷｮｳﾄ","cityKana":"ｼﾝｼﾞｭｸｸ","townAreaKana":"ｷﾀﾔﾏﾌﾞｼﾁｮｳ","prefecture":"東京都","city":"新宿区","townArea":"北山伏町"},{"postalCode":"9120424","prefectureKana":"ﾌｸｲｹﾝ","cityKana":"ｵｵﾉｼ","townAreaKana":"ｲﾏｲ","prefecture":"福井県","city":"大野市","townArea":"今井"},{"postalCode":"0970036","prefectureKana":"ﾎｯｶｲﾄﾞｳ","cityKana":"ﾜｯｶﾅｲｼ","townAreaKana":"ﾊﾞｯｶｲﾑﾗ","prefecture":"北海道","city":"稚内市","townArea":"抜海村"},{"postalCode":"9501121","prefectureKana":"ﾆｲｶﾞﾀｹﾝ","cityKana":"ﾆｲｶﾞﾀｼﾆｼｸ","townAreaKana":"ｲﾀｲ","prefecture":"新潟県","city":"新潟市西区","townArea":"板井"},{"postalCode":"0231102","prefectureKana":"ｲﾜﾃｹﾝ","cityKana":"ｵｳｼｭｳｼ","townAreaKana":"ｴｻｼﾖｳｶﾏﾁ","prefecture":"岩手県","city":"奥州市","townArea":"江刺八日町"},{"postalCode":"4371305","prefectureKana":"ｼｽﾞｵｶｹﾝ","cityKana":"ｶｹｶﾞﾜｼ","townAreaKana":"ﾔﾏｻﾞｷ","prefecture":"静岡県","city":"掛川市","townArea":"山崎"},{"postalCode":"7201265","prefectureKana":"ﾋﾛｼﾏｹﾝ","cityKana":"ﾌｸﾔﾏｼ","townAreaKana":"ｱｼﾀﾞﾁｮｳｺｳﾖｳﾀﾞｲ","prefecture":"広島県","city":"福山市","townArea":"芦田町向陽台"},{"postalCode":"8950033","prefectureKana":"ｶｺﾞｼﾏｹﾝ","cityKana":"ｻﾂﾏｾﾝﾀﾞｲｼ","townAreaKana":"ｶﾜﾅｶﾞﾉﾁｮｳ","prefecture":"鹿児島県","city":"薩摩川内市","townArea":"川永野町"},{"postalCode":"9470042","prefectureKana":"ﾆｲｶﾞﾀｹﾝ","cityKana":"ｵﾁﾞﾔｼ","townAreaKana":"ﾋﾗｻﾜ","prefecture":"新潟県","city":"小千谷市","townArea":"平沢"},{"postalCode":"8913100","prefectureKana":"ｶｺﾞｼﾏｹﾝ","cityKana":"ﾆｼﾉｵﾓﾃｼ","townAreaKana":"","prefecture":"鹿児島県","city":"西之表市","townArea":""},{"postalCode":"9500206","prefectureKana":"ﾆｲｶﾞﾀｹﾝ","cityKana":"ﾆｲｶﾞﾀｼｺｳﾅﾝｸ","townAreaKana":"ｷﾂ","prefecture":"新潟県","city":"新潟市江南区","townArea":"木津"},{"postalCode":"0891716","prefectureKana":"ﾎｯｶｲﾄﾞｳ","cityKana":"ﾅｶｶﾞﾜｸﾞﾝﾏｸﾍﾞﾂﾁｮｳ","townAreaKana":"ﾁｭｳﾙｲﾓﾄﾁｭｳﾙｲ","prefecture":"北海道","city":"中川郡幕別町","townArea":"忠類元忠類"},{"postalCode":"6496451","prefectureKana":"ﾜｶﾔﾏｹﾝ","cityKana":"ｷﾉｶﾜｼ","townAreaKana":"ｼﾞﾝﾂﾞｳ","prefecture":"和歌山県","city":"紀の川市","townArea":"神通"},{"postalCode":"9592504","prefectureKana":"ﾆｲｶﾞﾀｹﾝ","cityKana":"ｼﾊﾞﾀｼ","townAreaKana":"ｶﾐｼﾞﾅｲ","prefecture":"新潟県","city":"新発田市","townArea":"上寺内"},{"postalCode":"4240061","prefectureKana":"ｼｽﾞｵｶｹﾝ","cityKana":"ｼｽﾞｵｶｼｼﾐｽﾞｸ","townAreaKana":"ｵｵｳﾁ","prefecture":"静岡県","city":"静岡市清水区","townArea":"大内"},{"postalCode":"9493216","prefectureKana":"ﾆｲｶﾞﾀｹﾝ","cityKana":"ｼﾞｮｳｴﾂｼ","townAreaKana":"ｶｷｻﾞｷｸｶｷｻﾞｷ","prefecture":"新潟県","city":"上越市","townArea":"柿崎区柿崎"},{"postalCode":"8811303","prefectureKana":"ﾐﾔｻﾞｷｹﾝ","cityKana":"ｺﾕｸﾞﾝﾆｼﾒﾗｿﾝ","townAreaKana":"ﾖｺﾉ","prefecture":"宮崎県","city":"児湯郡西米良村","townArea":"横野"},{"postalCode":"6660201","prefectureKana":"ﾋｮｳｺﾞｹﾝ","cityKana":"ｶﾜﾍﾞｸﾞﾝｲﾅｶﾞﾜﾁｮｳ","townAreaKana":"ｽｷﾞｵ","prefecture":"兵庫県","city":"川辺郡猪名川町","townArea":"杉生"},{"postalCode":"0783953","prefectureKana":"ﾎｯｶｲﾄﾞｳ","cityKana":"ﾄﾏﾏｴｸﾞﾝﾊﾎﾞﾛﾁｮｳ","townAreaKana":"ﾃｳﾘ","prefecture":"北海道","city":"苫前郡羽幌町","townArea":"天売"},{"postalCode":"3790224","prefectureKana":"ｸﾞﾝﾏｹﾝ","cityKana":"ｱﾝﾅｶｼ","townAreaKana":"ﾏﾂｲﾀﾞﾏﾁﾋﾄﾐ","prefecture":"群馬県","city":"安中市","townArea":"松井田町人見"},{"postalCode":"3550301","prefectureKana":"ｻｲﾀﾏｹﾝ","cityKana":"ﾋｷｸﾞﾝｵｶﾞﾜﾏﾁ","townAreaKana":"ﾆｼﾌﾙｻﾄ","prefecture":"埼玉県","city":"比企郡小川町","townArea":"西古里"},{"postalCode":"6712525","prefectureKana":"ﾋｮｳｺﾞｹﾝ","cityKana":"ｼｿｳｼ","townAreaKana":"ﾔﾏｻｷﾁｮｳｺｳﾀﾞﾆ","prefecture":"兵庫県","city":"宍粟市","townArea":"山崎町神谷"},{"postalCode":"6078175","prefectureKana":"ｷｮｳﾄﾌ","cityKana":"ｷｮｳﾄｼﾔﾏｼﾅｸ","townAreaKana":"ｵｵﾔｹﾔﾏﾀﾞ","prefecture":"京都府","city":"京都市山科区","townArea":"大宅山田"},{"postalCode":"3812407","prefectureKana":"ﾅｶﾞﾉｹﾝ","cityKana":"ﾅｶﾞﾉｼ","townAreaKana":"ｼﾝｼｭｳｼﾝﾏﾁﾔﾏﾎｶﾘ","prefecture":"長野県","city":"長野市","townArea":"信州新町山穂刈"},{"postalCode":"9420082","prefectureKana":"ﾆｲｶﾞﾀｹﾝ","cityKana":"ｼﾞｮｳｴﾂｼ","townAreaKana":"ｺｸﾌ","prefecture":"新潟県","city":"上越市","townArea":"国府"},{"postalCode":"9870164","prefectureKana":"ﾐﾔｷﾞｹﾝ","cityKana":"ﾄｵﾀﾞｸﾞﾝﾜｸﾔﾁｮｳ","townAreaKana":"ｶﾙｶﾔﾁｮｳ","prefecture":"宮城県","city":"遠田郡涌谷町","townArea":"刈萱町"},{"postalCode":"4980027","prefectureKana":"ｱｲﾁｹﾝ","cityKana":"ﾔﾄﾐｼ","townAreaKana":"ｳｸﾞｲｳﾗﾁｮｳ","prefecture":"愛知県","city":"弥富市","townArea":"鯏浦町"},{"postalCode":"7708053","prefectureKana":"ﾄｸｼﾏｹﾝ","cityKana":"ﾄｸｼﾏｼ","townAreaKana":"ｵｷﾉﾊﾏﾋｶﾞｼ","prefecture":"徳島県","city":"徳島市","townArea":"沖浜東"},{"postalCode":"6308302","prefectureKana":"ﾅﾗｹﾝ","cityKana":"ﾅﾗｼ","townAreaKana":"ﾋﾞｬｸｺﾞｳｼﾞﾁｮｳ","prefecture":"奈良県","city":"奈良市","townArea":"白毫寺町"},{"postalCode":"6990501","prefectureKana":"ｼﾏﾈｹﾝ","cityKana":"ｲｽﾞﾓｼ","townAreaKana":"ﾋｶﾜﾁｮｳｶﾞｸﾄｳ","prefecture":"島根県","city":"出雲市","townArea":"斐川町学頭"},{"postalCode":"5640012","prefectureKana":"ｵｵｻｶﾌ","cityKana":"ｽｲﾀｼ","townAreaKana":"ﾐﾅﾐｼｮｳｼﾞｬｸ","prefecture":"大阪府","city":"吹田市","townArea":"南正雀"},{"postalCode":"6028312","prefectureKana":"ｷｮｳﾄﾌ","cityKana":"ｷｮｳﾄｼｶﾐｷﾞｮｳｸ","townAreaKana":"ｽｴﾋﾛﾁｮｳ","prefecture":"京都府","city":"京都市上京区","townArea":"末広町"},{"postalCode":"9100104","prefectureKana":"ﾌｸｲｹﾝ","cityKana":"ﾌｸｲｼ","townAreaKana":"ｱﾄﾞｾﾁｮｳ","prefecture":"福井県","city":"福井市","townArea":"網戸瀬町"},{"postalCode":"8615526","prefectureKana":"ｸﾏﾓﾄｹﾝ","cityKana":"ｸﾏﾓﾄｼｷﾀｸ","townAreaKana":"ｼﾓｽｽﾞﾘｶﾜ","prefecture":"熊本県","city":"熊本市北区","townArea":"下硯川"},{"postalCode":"9160200","prefectureKana":"ﾌｸｲｹﾝ","cityKana":"ﾆｭｳｸﾞﾝｴﾁｾﾞﾝﾁｮｳ","townAreaKana":"","prefecture":"福井県","city":"丹生郡越前町","townArea":""},{"postalCode":"9812134","prefectureKana":"ﾐﾔｷﾞｹﾝ","cityKana":"ｲｸﾞｸﾞﾝﾏﾙﾓﾘﾏﾁ","townAreaKana":"ﾄｳｹﾞｺﾔｼﾓ","prefecture":"宮城県","city":"伊具郡丸森町","townArea":"峠小屋下"},{"postalCode":"2900007","prefectureKana":"ﾁﾊﾞｹﾝ","cityKana":"ｲﾁﾊﾗｼ","townAreaKana":"ｷｸﾏ","prefecture":"千葉県","city":"市原市","townArea":"菊間"},{"postalCode":"5291512","prefectureKana":"ｼｶﾞｹﾝ","cityKana":"ﾋｶﾞｼｵｳﾐｼ","townAreaKana":"ｵｵﾂｶﾁｮｳ","prefecture":"滋賀県","city":"東近江市","townArea":"大塚町"},{"postalCode":"4801326","prefectureKana":"ｱｲﾁｹﾝ","cityKana":"ﾅｶﾞｸﾃｼ","townAreaKana":"ｽｹﾛｸ","prefecture":"愛知県","city":"長久手市","townArea":"助六"},{"postalCode":"0180122","prefectureKana":"ｱｷﾀｹﾝ","cityKana":"ﾆｶﾎｼ","townAreaKana":"ｷｻｶﾀﾏﾁｷｻｶﾀｼﾞﾏ","prefecture":"秋田県","city":"にかほ市","townArea":"象潟町象潟島"},{"postalCode":"5150303","prefectureKana":"ﾐｴｹﾝ","cityKana":"ﾀｷｸﾞﾝﾒｲﾜﾁｮｳ","townAreaKana":"ﾔﾏｵｵﾖﾄﾞ","prefecture":"三重県","city":"多気郡明和町","townArea":"山大淀"},{"postalCode":"0182302","prefectureKana":"ｱｷﾀｹﾝ","cityKana":"ﾔﾏﾓﾄｸﾞﾝﾐﾀﾈﾁｮｳ","townAreaKana":"ｼﾓｲﾜｶﾜ","prefecture":"秋田県","city":"山本郡三種町","townArea":"下岩川"},{"postalCode":"3220058","prefectureKana":"ﾄﾁｷﾞｹﾝ","cityKana":"ｶﾇﾏｼ","townAreaKana":"ｱｻｳﾁｮｳ","prefecture":"栃木県","city":"鹿沼市","townArea":"麻苧町"},{"postalCode":"0392406","prefectureKana":"ｱｵﾓﾘｹﾝ","cityKana":"ｶﾐｷﾀｸﾞﾝﾄｳﾎｸﾏﾁ","townAreaKana":"ｱｻﾋｷﾀ","prefecture":"青森県","city":"上北郡東北町","townArea":"旭北"},{"postalCode":"3760115","prefectureKana":"ｸﾞﾝﾏｹﾝ","cityKana":"ﾐﾄﾞﾘｼ","townAreaKana":"ｵｵﾏﾏﾁｮｳｼｵﾊﾞﾗ","prefecture":"群馬県","city":"みどり市","townArea":"大間々町塩原"},{"postalCode":"7320053","prefectureKana":"ﾋﾛｼﾏｹﾝ","cityKana":"ﾋﾛｼﾏｼﾋｶﾞｼｸ","townAreaKana":"ﾜｶｸｻﾁｮｳ","prefecture":"広島県","city":"広島市東区","townArea":"若草町"},{"postalCode":"8010834","prefectureKana":"ﾌｸｵｶｹﾝ","cityKana":"ｷﾀｷｭｳｼｭｳｼﾓｼﾞｸ","townAreaKana":"ﾎﾝﾏﾁ","prefecture":"福岡県","city":"北九州市門司区","townArea":"本町"},{"postalCode":"6370104","prefectureKana":"ﾅﾗｹﾝ","cityKana":"ｺﾞｼﾞｮｳｼ","townAreaKana":"ﾆｼﾖｼﾉﾁｮｳﾔﾅｾ","prefecture":"奈良県","city":"五條市","townArea":"西吉野町屋那瀬"},{"postalCode":"1631027","prefectureKana":"ﾄｳｷｮｳﾄ","cityKana":"ｼﾝｼﾞｭｸｸ","townAreaKana":"ﾆｼｼﾝｼﾞｭｸｼﾝｼﾞｭｸﾊﾟｰｸﾀﾜｰ27ｶｲ","prefecture":"東京都","city":"新宿区","townArea":"西新宿新宿パークタワー　２７階"},{"postalCode":"1630537","prefectureKana":"ﾄｳｷｮｳﾄ","cityKana":"ｼﾝｼﾞｭｸｸ","townAreaKana":"ﾆｼｼﾝｼﾞｭｸｼﾝｼﾞｭｸﾉﾑﾗﾋﾞﾙ37ｶｲ","prefecture":"東京都","city":"新宿区","townArea":"西新宿新宿野村ビル　３７階"},{"postalCode":"9392189","prefectureKana":"ﾄﾔﾏｹﾝ","cityKana":"ﾄﾔﾏｼ","townAreaKana":"ｶｶﾞｻﾜ","prefecture":"富山県","city":"富山市","townArea":"加賀沢"},{"postalCode":"2892535","prefectureKana":"ﾁﾊﾞｹﾝ","cityKana":"ｱｻﾋｼ","townAreaKana":"ｶﾜｸﾞﾁ","prefecture":"千葉県","city":"旭市","townArea":"川口"},{"postalCode":"2860216","prefectureKana":"ﾁﾊﾞｹﾝ","cityKana":"ﾄﾐｻﾄｼ","townAreaKana":"ｺｳﾔ","prefecture":"千葉県","city":"富里市","townArea":"高野"},{"postalCode":"9250371","prefectureKana":"ｲｼｶﾜｹﾝ","cityKana":"ﾊｸｲｸﾞﾝｼｶﾏﾁ","townAreaKana":"ｼｬｶﾄﾞｳ","prefecture":"石川県","city":"羽咋郡志賀町","townArea":"釈迦堂"},{"postalCode":"6128109","prefectureKana":"ｷｮｳﾄﾌ","cityKana":"ｷｮｳﾄｼﾌｼﾐｸ","townAreaKana":"ｻﾇｷﾁｮｳ","prefecture":"京都府","city":"京都市伏見区","townArea":"讃岐町"},{"postalCode":"8570402","prefectureKana":"ﾅｶﾞｻｷｹﾝ","cityKana":"ｻｾﾎﾞｼ","townAreaKana":"ｺｻｻﾞﾁｮｳｺｻｶ","prefecture":"長崎県","city":"佐世保市","townArea":"小佐々町小坂"},{"postalCode":"6692114","prefectureKana":"ﾋｮｳｺﾞｹﾝ","cityKana":"ﾀﾝﾊﾞｻｻﾔﾏｼ","townAreaKana":"ｱﾌﾞﾗｲ","prefecture":"兵庫県","city":"丹波篠山市","townArea":"油井"},{"postalCode":"0992304","prefectureKana":"ﾎｯｶｲﾄﾞｳ","cityKana":"ｱﾊﾞｼﾘｸﾞﾝｵｵｿﾞﾗﾁｮｳ","townAreaKana":"ﾒﾏﾝﾍﾞﾂｺｳｴﾝ","prefecture":"北海道","city":"網走郡大空町","townArea":"女満別公園"},{"postalCode":"8528001","prefectureKana":"ﾅｶﾞｻｷｹﾝ","cityKana":"ﾅｶﾞｻｷｼ","townAreaKana":"ﾋｶﾘﾏﾁ","prefecture":"長崎県","city":"長崎市","townArea":"光町"},{"postalCode":"5798055","prefectureKana":"ｵｵｻｶﾌ","cityKana":"ﾋｶﾞｼｵｵｻｶｼ","townAreaKana":"ｽｴﾋﾛﾁｮｳ","prefecture":"大阪府","city":"東大阪市","townArea":"末広町"},{"postalCode":"0681146","prefectureKana":"ﾎｯｶｲﾄﾞｳ","cityKana":"ｲｼｶﾘｸﾞﾝｼﾝｼﾉﾂﾑﾗ","townAreaKana":"ｼﾝﾀｶｸﾗ","prefecture":"北海道","city":"石狩郡新篠津村","townArea":"新高倉"},{"postalCode":"9300221","prefectureKana":"ﾄﾔﾏｹﾝ","cityKana":"ﾅｶﾆｲｶﾜｸﾞﾝﾀﾃﾔﾏﾏﾁ","townAreaKana":"ﾏｴｻﾞﾜ","prefecture":"富山県","city":"中新川郡立山町","townArea":"前沢"},{"postalCode":"6048245","prefectureKana":"ｷｮｳﾄﾌ","cityKana":"ｷｮｳﾄｼﾅｶｷﾞｮｳｸ","townAreaKana":"ﾛｯｶｸｱﾌﾞﾗﾉｺｳｼﾞﾁｮｳ","prefecture":"京都府","city":"京都市中京区","townArea":"六角油小路町"},{"postalCode":"5008476","prefectureKana":"ｷﾞﾌｹﾝ","cityKana":"ｷﾞﾌｼ","townAreaKana":"ｶﾉｳｱﾀｺﾞﾁｮｳ","prefecture":"岐阜県","city":"岐阜市","townArea":"加納愛宕町"},{"postalCode":"5630000","prefectureKana":"ｵｵｻｶﾌ","cityKana":"ｲｹﾀﾞｼ","townAreaKana":"","prefecture":"大阪府","city":"池田市","townArea":""},{"postalCode":"7202104","prefectureKana":"ﾋﾛｼﾏｹﾝ","cityKana":"ﾌｸﾔﾏｼ","townAreaKana":"ｶﾝﾅﾍﾞﾁｮｳﾐﾁﾉｳｴ","prefecture":"広島県","city":"福山市","townArea":"神辺町道上"},{"postalCode":"6995515","prefectureKana":"ｼﾏﾈｹﾝ","cityKana":"ｶﾉｱｼｸﾞﾝﾖｼｶﾁｮｳ","townAreaKana":"ｺｳｼﾞ","prefecture":"島根県","city":"鹿足郡吉賀町","townArea":"幸地"},{"postalCode":"2980246","prefectureKana":"ﾁﾊﾞｹﾝ","cityKana":"ｲｽﾐｸﾞﾝｵｵﾀｷﾏﾁ","townAreaKana":"ｼｮｳｼﾞ","prefecture":"千葉県","city":"夷隅郡大多喜町","townArea":"庄司"},{"postalCode":"1620065","prefectureKana":"ﾄｳｷｮｳﾄ","cityKana":"ｼﾝｼﾞｭｸｸ","townAreaKana":"ｽﾐﾖｼﾁｮｳ","prefecture":"東京都","city":"新宿区","townArea":"住吉町"},{"postalCode":"0130455","prefectureKana":"ｱｷﾀｹﾝ","cityKana":"ﾖｺﾃｼ","townAreaKana":"ﾀｲﾕｳｵｵﾔﾁﾆｼ","prefecture":"秋田県","city":"横手市","townArea":"大雄大谷地西"},{"postalCode":"8940014","prefectureKana":"ｶｺﾞｼﾏｹﾝ","cityKana":"ｱﾏﾐｼ","townAreaKana":"ﾅｾﾞﾋﾗﾀﾁｮｳ","prefecture":"鹿児島県","city":"奄美市","townArea":"名瀬平田町"},{"postalCode":"6731453","prefectureKana":"ﾋｮｳｺﾞｹﾝ","cityKana":"ｶﾄｳｼ","townAreaKana":"ｶｲﾊﾗ","prefecture":"兵庫県","city":"加東市","townArea":"貝原"},{"postalCode":"9870305","prefectureKana":"ﾐﾔｷﾞｹﾝ","cityKana":"ﾄﾒｼ","townAreaKana":"ﾖﾈﾔﾏﾁｮｳｶﾜﾏｴ","prefecture":"宮城県","city":"登米市","townArea":"米山町川前"},{"postalCode":"7770005","prefectureKana":"ﾄｸｼﾏｹﾝ","cityKana":"ﾐﾏｼ","townAreaKana":"ｱﾅﾌﾞｷﾁｮｳｱﾅﾌﾞｷ","prefecture":"徳島県","city":"美馬市","townArea":"穴吹町穴吹"},{"postalCode":"0792412","prefectureKana":"ﾎｯｶｲﾄﾞｳ","cityKana":"ｿﾗﾁｸﾞﾝﾐﾅﾐﾌﾗﾉﾁｮｳ","townAreaKana":"ﾋｶﾞｼｲｸﾄﾗ","prefecture":"北海道","city":"空知郡南富良野町","townArea":"東幾寅"},{"postalCode":"0286913","prefectureKana":"ｲﾜﾃｹﾝ","cityKana":"ﾆﾉﾍｼ","townAreaKana":"ｼﾞｮｳﾎﾞｳｼﾞﾏﾁｼﾓﾉｻﾜ","prefecture":"岩手県","city":"二戸市","townArea":"浄法寺町下ノ沢"},{"postalCode":"0820033","prefectureKana":"ﾎｯｶｲﾄﾞｳ","cityKana":"ｶｻｲｸﾞﾝﾒﾑﾛﾁｮｳ","townAreaKana":"ﾆｼ3ｼﾞｮｳ","prefecture":"北海道","city":"河西郡芽室町","townArea":"西三条"},{"postalCode":"6290323","prefectureKana":"ｷｮｳﾄﾌ","cityKana":"ﾅﾝﾀﾝｼ","townAreaKana":"ﾋﾖｼﾁｮｳﾀﾜﾗ","prefecture":"京都府","city":"南丹市","townArea":"日吉町田原"},{"postalCode":"1850035","prefectureKana":"ﾄｳｷｮｳﾄ","cityKana":"ｺｸﾌﾞﾝｼﾞｼ","townAreaKana":"ﾆｼﾏﾁ","prefecture":"東京都","city":"国分寺市","townArea":"西町"},{"postalCode":"8700847","prefectureKana":"ｵｵｲﾀｹﾝ","cityKana":"ｵｵｲﾀｼ","townAreaKana":"ﾋﾛｾﾏﾁ","prefecture":"大分県","city":"大分市","townArea":"広瀬町"},{"postalCode":"9590511","prefectureKana":"ﾆｲｶﾞﾀｹﾝ","cityKana":"ﾆｲｶﾞﾀｼﾆｼｶﾝｸ","townAreaKana":"ｵｵﾊﾗ","prefecture":"新潟県","city":"新潟市西蒲区","townArea":"大原"},{"postalCode":"4442837","prefectureKana":"ｱｲﾁｹﾝ","cityKana":"ﾄﾖﾀｼ","townAreaKana":"ｲｼｷﾁｮｳ","prefecture":"愛知県","city":"豊田市","townArea":"一色町"},{"postalCode":"5008413","prefectureKana":"ｷﾞﾌｹﾝ","cityKana":"ｷﾞﾌｼ","townAreaKana":"ｶﾉｳﾄｳﾖｳﾁｮｳ","prefecture":"岐阜県","city":"岐阜市","townArea":"加納東陽町"},{"postalCode":"0890134","prefectureKana":"ﾎｯｶｲﾄﾞｳ","cityKana":"ｶﾐｶﾜｸﾞﾝｼﾐｽﾞﾁｮｳ","townAreaKana":"ｷﾀ2ｼﾞｮｳ","prefecture":"北海道","city":"上川郡清水町","townArea":"北二条"},{"postalCode":"9660085","prefectureKana":"ﾌｸｼﾏｹﾝ","cityKana":"ｷﾀｶﾀｼ","townAreaKana":"ｴﾅｶｺ","prefecture":"福島県","city":"喜多方市","townArea":"江中子"},{"postalCode":"0710209","prefectureKana":"ﾎｯｶｲﾄﾞｳ","cityKana":"ｶﾐｶﾜｸﾞﾝﾋﾞｴｲﾁｮｳ","townAreaKana":"ｺﾄﾌﾞｷﾁｮｳ","prefecture":"北海道","city":"上川郡美瑛町","townArea":"寿町"},{"postalCode":"6210127","prefectureKana":"ｷｮｳﾄﾌ","cityKana":"ｶﾒｵｶｼ","townAreaKana":"ﾆｼﾍﾞﾂｲﾝﾁｮｳｺｳｼﾞ","prefecture":"京都府","city":"亀岡市","townArea":"西別院町神地"},{"postalCode":"8000306","prefectureKana":"ﾌｸｵｶｹﾝ","cityKana":"ｷﾀｷｭｳｼｭｳｼｺｸﾗﾐﾅﾐｸ","townAreaKana":"ｸｳｺｳｷﾀﾏﾁ","prefecture":"福岡県","city":"北九州市小倉南区","townArea":"空港北町"},{"postalCode":"6791337","prefectureKana":"ﾋｮｳｺﾞｹﾝ","cityKana":"ﾀｶｸﾞﾝﾀｶﾁｮｳ","townAreaKana":"ｶﾐｸｵｸﾄﾖﾍﾞ","prefecture":"兵庫県","city":"多可郡多可町","townArea":"加美区奥豊部"},{"postalCode":"7094225","prefectureKana":"ｵｶﾔﾏｹﾝ","cityKana":"ﾐﾏｻｶｼ","townAreaKana":"ﾏﾂﾜｷ","prefecture":"岡山県","city":"美作市","townArea":"松脇"},{"postalCode":"6332143","prefectureKana":"ﾅﾗｹﾝ","cityKana":"ｳﾀﾞｼ","townAreaKana":"ｵｵｳﾀﾞﾏｷ","prefecture":"奈良県","city":"宇陀市","townArea":"大宇陀牧"},{"postalCode":"0711174","prefectureKana":"ﾎｯｶｲﾄﾞｳ","cityKana":"ｱｻﾋｶﾜｼ","townAreaKana":"ｴﾀﾝﾍﾞﾂﾁｮｳﾄﾐﾊﾗ","prefecture":"北海道","city":"旭川市","townArea":"江丹別町富原"},{"postalCode":"0184612","prefectureKana":"ｱｷﾀｹﾝ","cityKana":"ｷﾀｱｷﾀｼ","townAreaKana":"ｱﾆﾏｷﾞｻﾜｺｳｻﾞﾝ","prefecture":"秋田県","city":"北秋田市","townArea":"阿仁真木沢鉱山"},{"postalCode":"9610023","prefectureKana":"ﾌｸｼﾏｹﾝ","cityKana":"ｼﾗｶﾜｼ","townAreaKana":"ｶﾒｲｼ","prefecture":"福島県","city":"白河市","townArea":"亀石"},{"postalCode":"1890024","prefectureKana":"ﾄｳｷｮｳﾄ","cityKana":"ﾋｶﾞｼﾑﾗﾔﾏｼ","townAreaKana":"ﾌｼﾞﾐﾁｮｳ","prefecture":"東京都","city":"東村山市","townArea":"富士見町"},{"postalCode":"3110108","prefectureKana":"ｲﾊﾞﾗｷｹﾝ","cityKana":"ﾅｶｼ","townAreaKana":"ﾇｶﾀﾞｷﾀｺﾞｳ","prefecture":"茨城県","city":"那珂市","townArea":"額田北郷"},{"postalCode":"0682133","prefectureKana":"ﾎｯｶｲﾄﾞｳ","cityKana":"ﾐｶｻｼ","townAreaKana":"ﾄｳﾏﾂﾄｷﾜﾁｮｳ","prefecture":"北海道","city":"三笠市","townArea":"唐松常盤町"},{"postalCode":"9150827","prefectureKana":"ﾌｸｲｹﾝ","cityKana":"ｴﾁｾﾞﾝｼ","townAreaKana":"ﾍｲﾜﾁｮｳ","prefecture":"福井県","city":"越前市","townArea":"平和町"},{"postalCode":"5840015","prefectureKana":"ｵｵｻｶﾌ","cityKana":"ﾄﾝﾀﾞﾊﾞﾔｼｼ","townAreaKana":"ｻｲｼﾞｮｳﾁｮｳ","prefecture":"大阪府","city":"富田林市","townArea":"西条町"},{"postalCode":"5250072","prefectureKana":"ｼｶﾞｹﾝ","cityKana":"ｸｻﾂｼ","townAreaKana":"ｶｻﾔﾏ","prefecture":"滋賀県","city":"草津市","townArea":"笠山"},{"postalCode":"7680104","prefectureKana":"ｶｶﾞﾜｹﾝ","cityKana":"ﾐﾄﾖｼ","townAreaKana":"ﾔﾏﾓﾄﾁｮｳｺｳﾀﾞ","prefecture":"香川県","city":"三豊市","townArea":"山本町神田"},{"postalCode":"6168016","prefectureKana":"ｷｮｳﾄﾌ","cityKana":"ｷｮｳﾄｼｳｷｮｳｸ","townAreaKana":"ﾘｮｳｱﾝｼﾞﾆｼﾉｶﾜﾁｮｳ","prefecture":"京都府","city":"京都市右京区","townArea":"龍安寺西ノ川町"},{"postalCode":"3800873","prefectureKana":"ﾅｶﾞﾉｹﾝ","cityKana":"ﾅｶﾞﾉｼ","townAreaKana":"ｼﾝｽﾜﾁｮｳ","prefecture":"長野県","city":"長野市","townArea":"新諏訪町"},{"postalCode":"5100007","prefectureKana":"ﾐｴｹﾝ","cityKana":"ﾖｯｶｲﾁｼ","townAreaKana":"ﾍﾞﾂﾒｲ","prefecture":"三重県","city":"四日市市","townArea":"別名"},{"postalCode":"0994144","prefectureKana":"ﾎｯｶｲﾄﾞｳ","cityKana":"ｼｬﾘｸﾞﾝｼｬﾘﾁｮｳ","townAreaKana":"ﾀｲｴｲ","prefecture":"北海道","city":"斜里郡斜里町","townArea":"大栄"},{"postalCode":"7350016","prefectureKana":"ﾋﾛｼﾏｹﾝ","cityKana":"ｱｷｸﾞﾝﾌﾁｭｳﾁｮｳ","townAreaKana":"ｱｵｻｷﾅｶ","prefecture":"広島県","city":"安芸郡府中町","townArea":"青崎中"},{"postalCode":"0718134","prefectureKana":"ﾎｯｶｲﾄﾞｳ","cityKana":"ｱｻﾋｶﾜｼ","townAreaKana":"ｽｴﾋﾛ4ｼﾞｮｳ","prefecture":"北海道","city":"旭川市","townArea":"末広４条"},{"postalCode":"4910867","prefectureKana":"ｱｲﾁｹﾝ","cityKana":"ｲﾁﾉﾐﾔｼ","townAreaKana":"ｺｶﾞﾈﾏﾁ","prefecture":"愛知県","city":"一宮市","townArea":"古金町"},{"postalCode":"4550068","prefectureKana":"ｱｲﾁｹﾝ","cityKana":"ﾅｺﾞﾔｼﾐﾅﾄｸ","townAreaKana":"ﾄﾞﾝｺﾞﾁｮｳ","prefecture":"愛知県","city":"名古屋市港区","townArea":"土古町"},{"postalCode":"0882682","prefectureKana":"ﾎｯｶｲﾄﾞｳ","cityKana":"ｼﾍﾞﾂｸﾞﾝﾅｶｼﾍﾞﾂﾁｮｳ","townAreaKana":"ｹﾈﾍﾞﾂ","prefecture":"北海道","city":"標津郡中標津町","townArea":"計根別"},{"postalCode":"6008390","prefectureKana":"ｷｮｳﾄﾌ","cityKana":"ｷｮｳﾄｼｼﾓｷﾞｮｳｸ","townAreaKana":"ﾏﾂﾓﾄﾁｮｳ","prefecture":"京都府","city":"京都市下京区","townArea":"松本町"},{"postalCode":"1056238","prefectureKana":"ﾄｳｷｮｳﾄ","cityKana":"ﾐﾅﾄｸ","townAreaKana":"ｱﾀｺﾞｱﾀｺﾞｸﾞﾘｰﾝﾋﾙｽﾞﾓﾘﾀﾜｰ38ｶｲ","prefecture":"東京都","city":"港区","townArea":"愛宕愛宕グリーンヒルズＭＯＲＩタワー　３８階"},{"postalCode":"5192731","prefectureKana":"ﾐｴｹﾝ","cityKana":"ﾜﾀﾗｲｸﾞﾝﾀｲｷﾁｮｳ","townAreaKana":"ﾉﾜﾗ","prefecture":"三重県","city":"度会郡大紀町","townArea":"野原"},{"postalCode":"9580236","prefectureKana":"ﾆｲｶﾞﾀｹﾝ","cityKana":"ﾑﾗｶﾐｼ","townAreaKana":"ｶﾐﾅｶｼﾞﾏ","prefecture":"新潟県","city":"村上市","townArea":"上中島"},{"postalCode":"6982254","prefectureKana":"ｼﾏﾈｹﾝ","cityKana":"ﾏｽﾀﾞｼ","townAreaKana":"ｶﾂﾗﾋﾗﾁｮｳ","prefecture":"島根県","city":"益田市","townArea":"桂平町"},{"postalCode":"4570061","prefectureKana":"ｱｲﾁｹﾝ","cityKana":"ﾅｺﾞﾔｼﾐﾅﾐｸ","townAreaKana":"ﾎｼｻﾞｷﾁｮｳ","prefecture":"愛知県","city":"名古屋市南区","townArea":"星崎町"},{"postalCode":"9392244","prefectureKana":"ﾄﾔﾏｹﾝ","cityKana":"ﾄﾔﾏｼ","townAreaKana":"ﾆｼｼｵﾉ","prefecture":"富山県","city":"富山市","townArea":"西塩野"},{"postalCode":"9271442","prefectureKana":"ｲｼｶﾜｹﾝ","cityKana":"ｽｽﾞｼ","townAreaKana":"ﾉﾛｼｼﾝﾏﾁ","prefecture":"石川県","city":"珠洲市","townArea":"狼煙新町"},{"postalCode":"7370076","prefectureKana":"ﾋﾛｼﾏｹﾝ","cityKana":"ｸﾚｼ","townAreaKana":"ｱﾂﾞﾏ","prefecture":"広島県","city":"呉市","townArea":"吾妻"},{"postalCode":"1066121","prefectureKana":"ﾄｳｷｮｳﾄ","cityKana":"ﾐﾅﾄｸ","townAreaKana":"ﾛｯﾎﾟﾝｷﾞﾛｯﾎﾟﾝｷﾞﾋﾙｽﾞﾓﾘﾀﾜｰ21ｶｲ","prefecture":"東京都","city":"港区","townArea":"六本木六本木ヒルズ森タワー　２１階"},{"postalCode":"9292375","prefectureKana":"ｲｼｶﾜｹﾝ","cityKana":"ﾜｼﾞﾏｼ","townAreaKana":"ﾐｲﾏﾁﾎｿﾔ","prefecture":"石川県","city":"輪島市","townArea":"三井町細屋"},{"postalCode":"6028115","prefectureKana":"ｷｮｳﾄﾌ","cityKana":"ｷｮｳﾄｼｶﾐｷﾞｮｳｸ","townAreaKana":"ｷﾀｶﾆﾔﾁｮｳ","prefecture":"京都府","city":"京都市上京区","townArea":"北蟹屋町"},{"postalCode":"7983357","prefectureKana":"ｴﾋﾒｹﾝ","cityKana":"ｳﾜｼﾞﾏｼ","townAreaKana":"ﾂｼﾏﾁｮｳﾀﾉﾊﾏ","prefecture":"愛媛県","city":"宇和島市","townArea":"津島町田之浜"},{"postalCode":"6670114","prefectureKana":"ﾋｮｳｺﾞｹﾝ","cityKana":"ﾔﾌﾞｼ","townAreaKana":"ｺｼﾞｮｳ","prefecture":"兵庫県","city":"養父市","townArea":"小城"},{"postalCode":"5830007","prefectureKana":"ｵｵｻｶﾌ","cityKana":"ﾌｼﾞｲﾃﾞﾗｼ","townAreaKana":"ﾊﾔｼ","prefecture":"大阪府","city":"藤井寺市","townArea":"林"},{"postalCode":"7891301","prefectureKana":"ｺｳﾁｹﾝ","cityKana":"ﾀｶｵｶｸﾞﾝﾅｶﾄｻﾁｮｳ","townAreaKana":"ｸﾚ","prefecture":"高知県","city":"高岡郡中土佐町","townArea":"久礼"},{"postalCode":"3192411","prefectureKana":"ｲﾊﾞﾗｷｹﾝ","cityKana":"ﾋﾀﾁｵｵﾐﾔｼ","townAreaKana":"ｺﾌﾞﾈ","prefecture":"茨城県","city":"常陸大宮市","townArea":"小舟"},{"postalCode":"8090002","prefectureKana":"ﾌｸｵｶｹﾝ","cityKana":"ﾅｶﾏｼ","townAreaKana":"ﾅｶｿｺｲﾉ","prefecture":"福岡県","city":"中間市","townArea":"中底井野"},{"postalCode":"6391112","prefectureKana":"ﾅﾗｹﾝ","cityKana":"ﾔﾏﾄｺｵﾘﾔﾏｼ","townAreaKana":"ｼﾗﾂﾁﾁｮｳ","prefecture":"奈良県","city":"大和郡山市","townArea":"白土町"},{"postalCode":"5691144","prefectureKana":"ｵｵｻｶﾌ","cityKana":"ﾀｶﾂｷｼ","townAreaKana":"ｵｵﾊﾀﾁｮｳ","prefecture":"大阪府","city":"高槻市","townArea":"大畑町"},{"postalCode":"7980062","prefectureKana":"ｴﾋﾒｹﾝ","cityKana":"ｳﾜｼﾞﾏｼ","townAreaKana":"ｻｸﾗﾏﾁ","prefecture":"愛媛県","city":"宇和島市","townArea":"桜町"},{"postalCode":"9530067","prefectureKana":"ﾆｲｶﾞﾀｹﾝ","cityKana":"ﾆｲｶﾞﾀｼﾆｼｶﾝｸ","townAreaKana":"ｶﾞﾀｶﾞｼﾗ","prefecture":"新潟県","city":"新潟市西蒲区","townArea":"潟頭"},{"postalCode":"9460061","prefectureKana":"ﾆｲｶﾞﾀｹﾝ","cityKana":"ｳｵﾇﾏｼ","townAreaKana":"ｼﾝﾎﾞｼﾝﾃﾞﾝ","prefecture":"新潟県","city":"魚沼市","townArea":"新保新田"},{"postalCode":"0181853","prefectureKana":"ｱｷﾀｹﾝ","cityKana":"ﾐﾅﾐｱｷﾀｸﾞﾝｺﾞｼﾞｮｳﾒﾏﾁ","townAreaKana":"ﾌﾂﾅｲﾅｶﾂﾏﾀ","prefecture":"秋田県","city":"南秋田郡五城目町","townArea":"富津内中津又"},{"postalCode":"9696121","prefectureKana":"ﾌｸｼﾏｹﾝ","cityKana":"ｵｵﾇﾏｸﾞﾝｱｲﾂﾞﾐｻﾄﾏﾁ","townAreaKana":"ｴﾝﾒｲｼﾞﾏｴ","prefecture":"福島県","city":"大沼郡会津美里町","townArea":"延命寺前"},{"postalCode":"9218814","prefectureKana":"ｲｼｶﾜｹﾝ","cityKana":"ﾉﾉｲﾁｼ","townAreaKana":"ｽｶﾞﾊﾗﾏﾁ","prefecture":"石川県","city":"野々市市","townArea":"菅原町"},{"postalCode":"4300804","prefectureKana":"ｼｽﾞｵｶｹﾝ","cityKana":"ﾊﾏﾏﾂｼﾅｶｸ","townAreaKana":"ﾄﾐﾖｼﾁｮｳ","prefecture":"静岡県","city":"浜松市中区","townArea":"富吉町"},{"postalCode":"2701604","prefectureKana":"ﾁﾊﾞｹﾝ","cityKana":"ｲﾝｻﾞｲｼ","townAreaKana":"ﾔﾏﾀﾞ","prefecture":"千葉県","city":"印西市","townArea":"山田"},{"postalCode":"6790211","prefectureKana":"ﾋｮｳｺﾞｹﾝ","cityKana":"ｶﾄｳｼ","townAreaKana":"ｶﾐﾀｷﾉ","prefecture":"兵庫県","city":"加東市","townArea":"上滝野"},{"postalCode":"3213702","prefectureKana":"ﾄﾁｷﾞｹﾝ","cityKana":"ﾊｶﾞｸﾞﾝﾓﾃｷﾞﾏﾁ","townAreaKana":"ｲｲﾉ","prefecture":"栃木県","city":"芳賀郡茂木町","townArea":"飯野"},{"postalCode":"2270044","prefectureKana":"ｶﾅｶﾞﾜｹﾝ","cityKana":"ﾖｺﾊﾏｼｱｵﾊﾞｸ","townAreaKana":"ﾓｴｷﾞﾉ","prefecture":"神奈川県","city":"横浜市青葉区","townArea":"もえぎ野"},{"postalCode":"7140077","prefectureKana":"ｵｶﾔﾏｹﾝ","cityKana":"ｶｻｵｶｼ","townAreaKana":"ｼﾉｻｶ","prefecture":"岡山県","city":"笠岡市","townArea":"篠坂"},{"postalCode":"1630723","prefectureKana":"ﾄｳｷｮｳﾄ","cityKana":"ｼﾝｼﾞｭｸｸ","townAreaKana":"ﾆｼｼﾝｼﾞｭｸｵﾀﾞｷｭｳﾀﾞｲｲﾁｾｲﾒｲﾋﾞﾙ23ｶｲ","prefecture":"東京都","city":"新宿区","townArea":"西新宿小田急第一生命ビル　２３階"},{"postalCode":"5980054","prefectureKana":"ｵｵｻｶﾌ","cityKana":"ｲｽﾞﾐｻﾉｼ","townAreaKana":"ｻｶｴﾏﾁ","prefecture":"大阪府","city":"泉佐野市","townArea":"栄町"},{"postalCode":"0280554","prefectureKana":"ｲﾜﾃｹﾝ","cityKana":"ﾄｵﾉｼ","townAreaKana":"ﾂﾁﾌﾞﾁﾁｮｳｲｲﾄﾖ","prefecture":"岩手県","city":"遠野市","townArea":"土淵町飯豊"},{"postalCode":"9800004","prefectureKana":"ﾐﾔｷﾞｹﾝ","cityKana":"ｾﾝﾀﾞｲｼｱｵﾊﾞｸ","townAreaKana":"ﾐﾔﾏﾁ","prefecture":"宮城県","city":"仙台市青葉区","townArea":"宮町"},{"postalCode":"9634701","prefectureKana":"ﾌｸｼﾏｹﾝ","cityKana":"ﾀﾑﾗｼ","townAreaKana":"ﾐﾔｺｼﾞﾏﾁﾌﾙﾐﾁ","prefecture":"福島県","city":"田村市","townArea":"都路町古道"},{"postalCode":"7011134","prefectureKana":"ｵｶﾔﾏｹﾝ","cityKana":"ｵｶﾔﾏｼｷﾀｸ","townAreaKana":"ﾐﾄ","prefecture":"岡山県","city":"岡山市北区","townArea":"三和"},{"postalCode":"8300026","prefectureKana":"ﾌｸｵｶｹﾝ","cityKana":"ｸﾙﾒｼ","townAreaKana":"ﾅｶﾞﾄｲｼﾏﾁ","prefecture":"福岡県","city":"久留米市","townArea":"長門石町"},{"postalCode":"9330243","prefectureKana":"ﾄﾔﾏｹﾝ","cityKana":"ｲﾐｽﾞｼ","townAreaKana":"ﾎﾝｺﾞｳｱｼｱﾗｲ","prefecture":"富山県","city":"射水市","townArea":"本江足洗"},{"postalCode":"2850053","prefectureKana":"ﾁﾊﾞｹﾝ","cityKana":"ｻｸﾗｼ","townAreaKana":"ｼﾓｶﾂﾀ","prefecture":"千葉県","city":"佐倉市","townArea":"下勝田"},{"postalCode":"0580343","prefectureKana":"ﾎｯｶｲﾄﾞｳ","cityKana":"ﾎﾛｲｽﾞﾐｸﾞﾝｴﾘﾓﾁｮｳ","townAreaKana":"ﾄｳﾖｳｱﾌﾞﾗｺﾏ","prefecture":"北海道","city":"幌泉郡えりも町","townArea":"東洋油駒"},{"postalCode":"0150825","prefectureKana":"ｱｷﾀｹﾝ","cityKana":"ﾕﾘﾎﾝｼﾞｮｳｼ","townAreaKana":"ｶﾝﾉﾝﾏﾁ","prefecture":"秋田県","city":"由利本荘市","townArea":"観音町"},{"postalCode":"6620923","prefectureKana":"ﾋｮｳｺﾞｹﾝ","cityKana":"ﾆｼﾉﾐﾔｼ","townAreaKana":"ﾊﾏﾏﾂﾊﾞﾗﾁｮｳ","prefecture":"兵庫県","city":"西宮市","townArea":"浜松原町"},{"postalCode":"9493114","prefectureKana":"ﾆｲｶﾞﾀｹﾝ","cityKana":"ｼﾞｮｳｴﾂｼ","townAreaKana":"ｵｵｶﾞﾀｸｶﾐｺﾌﾞﾅﾂﾊﾏ","prefecture":"新潟県","city":"上越市","townArea":"大潟区上小船津浜"},{"postalCode":"1660004","prefectureKana":"ﾄｳｷｮｳﾄ","cityKana":"ｽｷﾞﾅﾐｸ","townAreaKana":"ｱｻｶﾞﾔﾐﾅﾐ","prefecture":"東京都","city":"杉並区","townArea":"阿佐谷南"},{"postalCode":"9810133","prefectureKana":"ﾐﾔｷﾞｹﾝ","cityKana":"ﾐﾔｷﾞｸﾞﾝﾘﾌﾁｮｳ","townAreaKana":"ｱｵﾊﾞﾀﾞｲ","prefecture":"宮城県","city":"宮城郡利府町","townArea":"青葉台"},{"postalCode":"5150053","prefectureKana":"ﾐｴｹﾝ","cityKana":"ﾏﾂｻｶｼ","townAreaKana":"ｺｳﾖｳﾁｮｳ","prefecture":"三重県","city":"松阪市","townArea":"広陽町"},{"postalCode":"1056420","prefectureKana":"ﾄｳｷｮｳﾄ","cityKana":"ﾐﾅﾄｸ","townAreaKana":"ﾄﾗﾉﾓﾝﾄﾗﾉﾓﾝﾋﾙｽﾞﾋﾞｼﾞﾈｽﾀﾜｰ20ｶｲ","prefecture":"東京都","city":"港区","townArea":"虎ノ門虎ノ門ヒルズビジネスタワー　２０階"},{"postalCode":"6191122","prefectureKana":"ｷｮｳﾄﾌ","cityKana":"ｷﾂﾞｶﾞﾜｼ","townAreaKana":"ｶﾓﾁｮｳﾐﾅﾐｼﾓﾃﾞ","prefecture":"京都府","city":"木津川市","townArea":"加茂町南下手"},{"postalCode":"6496200","prefectureKana":"ﾜｶﾔﾏｹﾝ","cityKana":"ｲﾜﾃﾞｼ","townAreaKana":"","prefecture":"和歌山県","city":"岩出市","townArea":""},{"postalCode":"5012105","prefectureKana":"ｷﾞﾌｹﾝ","cityKana":"ﾔﾏｶﾞﾀｼ","townAreaKana":"ﾀｶﾄﾐ","prefecture":"岐阜県","city":"山県市","townArea":"高富"},{"postalCode":"0286956","prefectureKana":"ｲﾜﾃｹﾝ","cityKana":"ﾆﾉﾍｼ","townAreaKana":"ｼﾞｮｳﾎﾞｳｼﾞﾏﾁﾀﾞｲﾎﾞｳ","prefecture":"岩手県","city":"二戸市","townArea":"浄法寺町大坊"},{"postalCode":"9813300","prefectureKana":"ﾐﾔｷﾞｹﾝ","cityKana":"ﾄﾐﾔｼ","townAreaKana":"","prefecture":"宮城県","city":"富谷市","townArea":""},{"postalCode":"5110431","prefectureKana":"ﾐｴｹﾝ","cityKana":"ｲﾅﾍﾞｼ","townAreaKana":"ﾎｸｾｲﾁｮｳﾍﾞﾂﾐｮｳ","prefecture":"三重県","city":"いなべ市","townArea":"北勢町別名"},{"postalCode":"9997312","prefectureKana":"ﾔﾏｶﾞﾀｹﾝ","cityKana":"ﾂﾙｵｶｼ","townAreaKana":"ｱﾂﾐｶﾞﾜ","prefecture":"山形県","city":"鶴岡市","townArea":"温海川"},{"postalCode":"6840055","prefectureKana":"ﾄｯﾄﾘｹﾝ","cityKana":"ｻｶｲﾐﾅﾄｼ","townAreaKana":"ｻｲﾉｶﾐﾁｮｳ","prefecture":"鳥取県","city":"境港市","townArea":"佐斐神町"},{"postalCode":"6711612","prefectureKana":"ﾋｮｳｺﾞｹﾝ","cityKana":"ﾀﾂﾉｼ","townAreaKana":"ｲﾎﾞｶﾞﾜﾁｮｳﾎﾝｼﾞｮｳ","prefecture":"兵庫県","city":"たつの市","townArea":"揖保川町本條"},{"postalCode":"4371601","prefectureKana":"ｼｽﾞｵｶｹﾝ","cityKana":"ｵﾏｴｻﾞｷｼ","townAreaKana":"ｶﾐｱｻﾋﾅ","prefecture":"静岡県","city":"御前崎市","townArea":"上朝比奈"},{"postalCode":"3491152","prefectureKana":"ｻｲﾀﾏｹﾝ","cityKana":"ｶｿﾞｼ","townAreaKana":"ﾔﾍｴ","prefecture":"埼玉県","city":"加須市","townArea":"弥兵衛"},{"postalCode":"7440002","prefectureKana":"ﾔﾏｸﾞﾁｹﾝ","cityKana":"ｸﾀﾞﾏﾂｼ","townAreaKana":"ﾋｶﾞｼﾄﾖｲｶﾐﾄﾖｲ","prefecture":"山口県","city":"下松市","townArea":"東豊井上豊井"},{"postalCode":"7390646","prefectureKana":"ﾋﾛｼﾏｹﾝ","cityKana":"ｵｵﾀｹｼ","townAreaKana":"ｸﾘﾀﾆﾁｮｳｵｵｸﾘﾊﾞﾔｼ","prefecture":"広島県","city":"大竹市","townArea":"栗谷町大栗林"},{"postalCode":"8592415","prefectureKana":"ﾅｶﾞｻｷｹﾝ","cityKana":"ﾐﾅﾐｼﾏﾊﾞﾗｼ","townAreaKana":"ﾐﾅﾐｱﾘﾏﾁｮｳﾎﾞ","prefecture":"長崎県","city":"南島原市","townArea":"南有馬町戊"},{"postalCode":"9440138","prefectureKana":"ﾆｲｶﾞﾀｹﾝ","cityKana":"ｼﾞｮｳｴﾂｼ","townAreaKana":"ｲﾀｸﾗｸｸﾏｶﾞﾜｼﾝﾃﾞﾝ","prefecture":"新潟県","city":"上越市","townArea":"板倉区熊川新田"},{"postalCode":"5270136","prefectureKana":"ｼｶﾞｹﾝ","cityKana":"ﾋｶﾞｼｵｳﾐｼ","townAreaKana":"ﾐﾅﾐﾎﾞﾀﾞｲｼﾞﾁｮｳ","prefecture":"滋賀県","city":"東近江市","townArea":"南菩提寺町"},{"postalCode":"5040812","prefectureKana":"ｷﾞﾌｹﾝ","cityKana":"ｶｶﾐｶﾞﾊﾗｼ","townAreaKana":"ｿﾊﾗｻｶｲﾁｮｳ","prefecture":"岐阜県","city":"各務原市","townArea":"蘇原坂井町"},{"postalCode":"8893532","prefectureKana":"ﾐﾔｻﾞｷｹﾝ","cityKana":"ｸｼﾏｼ","townAreaKana":"ｵｵﾋﾗ","prefecture":"宮崎県","city":"串間市","townArea":"大平"},{"postalCode":"9638014","prefectureKana":"ﾌｸｼﾏｹﾝ","cityKana":"ｺｵﾘﾔﾏｼ","townAreaKana":"ﾄﾗﾏﾙﾏﾁ","prefecture":"福島県","city":"郡山市","townArea":"虎丸町"},{"postalCode":"4801153","prefectureKana":"ｱｲﾁｹﾝ","cityKana":"ﾅｶﾞｸﾃｼ","townAreaKana":"ｻｸﾀ","prefecture":"愛知県","city":"長久手市","townArea":"作田"},{"postalCode":"6991253","prefectureKana":"ｼﾏﾈｹﾝ","cityKana":"ｳﾝﾅﾝｼ","townAreaKana":"ﾀﾞｲﾄｳﾁｮｳﾅｶﾕｲｼ","prefecture":"島根県","city":"雲南市","townArea":"大東町中湯石"},{"postalCode":"6020958","prefectureKana":"ｷｮｳﾄﾌ","cityKana":"ｷｮｳﾄｼｶﾐｷﾞｮｳｸ","townAreaKana":"ﾅｶﾉﾁｮｳ","prefecture":"京都府","city":"京都市上京区","townArea":"仲之町元誓願寺通油小路東入"},{"postalCode":"9600474","prefectureKana":"ﾌｸｼﾏｹﾝ","cityKana":"ﾀﾞﾃｼ","townAreaKana":"ｸﾂｶﾞﾀ","prefecture":"福島県","city":"伊達市","townArea":"沓形"},{"postalCode":"9870445","prefectureKana":"ﾐﾔｷﾞｹﾝ","cityKana":"ﾄﾒｼ","townAreaKana":"ﾐﾅﾐｶﾀﾏﾁｶﾐﾋﾗｶﾞｲ","prefecture":"宮城県","city":"登米市","townArea":"南方町上平貝"},{"postalCode":"3111500","prefectureKana":"ｲﾊﾞﾗｷｹﾝ","cityKana":"ﾎｺﾀｼ","townAreaKana":"","prefecture":"茨城県","city":"鉾田市","townArea":""},{"postalCode":"6460043","prefectureKana":"ﾜｶﾔﾏｹﾝ","cityKana":"ﾀﾅﾍﾞｼ","townAreaKana":"ｲﾏﾌｸﾏﾁ","prefecture":"和歌山県","city":"田辺市","townArea":"今福町"},{"postalCode":"5410045","prefectureKana":"ｵｵｻｶﾌ","cityKana":"ｵｵｻｶｼﾁｭｳｵｳｸ","townAreaKana":"ﾄﾞｼｮｳﾏﾁ","prefecture":"大阪府","city":"大阪市中央区","townArea":"道修町"},{"postalCode":"7930024","prefectureKana":"ｴﾋﾒｹﾝ","cityKana":"ｻｲｼﾞｮｳｼ","townAreaKana":"ﾀﾞｲｼﾏﾁ","prefecture":"愛媛県","city":"西条市","townArea":"大師町"},{"postalCode":"8615514","prefectureKana":"ｸﾏﾓﾄｹﾝ","cityKana":"ｸﾏﾓﾄｼｷﾀｸ","townAreaKana":"ﾋﾀﾞ","prefecture":"熊本県","city":"熊本市北区","townArea":"飛田"},{"postalCode":"3570125","prefectureKana":"ｻｲﾀﾏｹﾝ","cityKana":"ﾊﾝﾉｳｼ","townAreaKana":"ｶﾐｱｶﾀﾞｸﾐ","prefecture":"埼玉県","city":"飯能市","townArea":"上赤工"},{"postalCode":"7200803","prefectureKana":"ﾋﾛｼﾏｹﾝ","cityKana":"ﾌｸﾔﾏｼ","townAreaKana":"ﾊﾅｿﾞﾉﾁｮｳ","prefecture":"広島県","city":"福山市","townArea":"花園町"},{"postalCode":"1006915","prefectureKana":"ﾄｳｷｮｳﾄ","cityKana":"ﾁﾖﾀﾞｸ","townAreaKana":"ﾏﾙﾉｳﾁﾏﾙﾉｳﾁﾊﾟｰｸﾋﾞﾙﾃﾞｨﾝｸﾞ15ｶｲ","prefecture":"東京都","city":"千代田区","townArea":"丸の内丸の内パークビルディング　１５階"},{"postalCode":"3640003","prefectureKana":"ｻｲﾀﾏｹﾝ","cityKana":"ｷﾀﾓﾄｼ","townAreaKana":"ﾌﾙｲﾁﾊﾞ","prefecture":"埼玉県","city":"北本市","townArea":"古市場"},{"postalCode":"3002357","prefectureKana":"ｲﾊﾞﾗｷｹﾝ","cityKana":"ﾂｸﾊﾞﾐﾗｲｼ","townAreaKana":"ﾔｸﾞﾁ","prefecture":"茨城県","city":"つくばみらい市","townArea":"谷口"},{"postalCode":"5060051","prefectureKana":"ｷﾞﾌｹﾝ","cityKana":"ﾀｶﾔﾏｼ","townAreaKana":"ﾅｶﾔﾏﾏﾁ","prefecture":"岐阜県","city":"高山市","townArea":"中山町"},{"postalCode":"9600501","prefectureKana":"ﾌｸｼﾏｹﾝ","cityKana":"ﾀﾞﾃｼ","townAreaKana":"ﾌｼｸﾞﾛ","prefecture":"福島県","city":"伊達市","townArea":"伏黒"},{"postalCode":"6900015","prefectureKana":"ｼﾏﾈｹﾝ","cityKana":"ﾏﾂｴｼ","townAreaKana":"ｱｹﾞﾉｷﾞ","prefecture":"島根県","city":"松江市","townArea":"上乃木"},{"postalCode":"3550067","prefectureKana":"ｻｲﾀﾏｹﾝ","cityKana":"ﾋｶﾞｼﾏﾂﾔﾏｼ","townAreaKana":"ﾊﾞﾝﾄﾞｳﾔﾏ","prefecture":"埼玉県","city":"東松山市","townArea":"坂東山"},{"postalCode":"9301361","prefectureKana":"ﾄﾔﾏｹﾝ","cityKana":"ﾅｶﾆｲｶﾜｸﾞﾝﾀﾃﾔﾏﾏﾁ","townAreaKana":"ﾐｻﾀﾞ","prefecture":"富山県","city":"中新川郡立山町","townArea":"下田"},{"postalCode":"5128054","prefectureKana":"ﾐｴｹﾝ","cityKana":"ﾖｯｶｲﾁｼ","townAreaKana":"ｱｻｹﾁｮｳ","prefecture":"三重県","city":"四日市市","townArea":"朝明町"},{"postalCode":"7780105","prefectureKana":"ﾄｸｼﾏｹﾝ","cityKana":"ﾐﾖｼｼ","townAreaKana":"ﾆｼｲﾔﾔﾏﾑﾗﾄｸｾﾞﾝﾆｼ","prefecture":"徳島県","city":"三好市","townArea":"西祖谷山村徳善西"},{"postalCode":"9370043","prefectureKana":"ﾄﾔﾏｹﾝ","cityKana":"ｳｵﾂﾞｼ","townAreaKana":"ﾌｸﾛ","prefecture":"富山県","city":"魚津市","townArea":"袋"},{"postalCode":"4020052","prefectureKana":"ﾔﾏﾅｼｹﾝ","cityKana":"ﾂﾙｼ","townAreaKana":"ﾁｭｳｵｳ","prefecture":"山梨県","city":"都留市","townArea":"中央"},{"postalCode":"0891242","prefectureKana":"ﾎｯｶｲﾄﾞｳ","cityKana":"ｵﾋﾞﾋﾛｼ","townAreaKana":"ﾀｲｼｮｳﾁｮｳ","prefecture":"北海道","city":"帯広市","townArea":"大正町"},{"postalCode":"8802114","prefectureKana":"ﾐﾔｻﾞｷｹﾝ","cityKana":"ﾐﾔｻﾞｷｼ","townAreaKana":"ﾄﾐﾖｼ","prefecture":"宮崎県","city":"宮崎市","townArea":"富吉"},{"postalCode":"8810116","prefectureKana":"ﾐﾔｻﾞｷｹﾝ","cityKana":"ｻｲﾄｼ","townAreaKana":"ｻﾌﾞｶﾜ","prefecture":"宮崎県","city":"西都市","townArea":"寒川"},{"postalCode":"5470014","prefectureKana":"ｵｵｻｶﾌ","cityKana":"ｵｵｻｶｼﾋﾗﾉｸ","townAreaKana":"ﾅｶﾞﾖｼｶﾜﾅﾍﾞ","prefecture":"大阪府","city":"大阪市平野区","townArea":"長吉川辺"},{"postalCode":"6168422","prefectureKana":"ｷｮｳﾄﾌ","cityKana":"ｷｮｳﾄｼｳｷｮｳｸ","townAreaKana":"ｻｶﾞｼｬｶﾄﾞｳﾀﾞｲﾓﾝﾁｮｳ","prefecture":"京都府","city":"京都市右京区","townArea":"嵯峨釈迦堂大門町"},{"postalCode":"7592301","prefectureKana":"ﾔﾏｸﾞﾁｹﾝ","cityKana":"ﾐﾈｼ","townAreaKana":"ｵﾌｸﾁｮｳｶﾐ","prefecture":"山口県","city":"美祢市","townArea":"於福町上"},{"postalCode":"4710827","prefectureKana":"ｱｲﾁｹﾝ","cityKana":"ﾄﾖﾀｼ","townAreaKana":"ﾋﾗﾔﾏﾁｮｳ","prefecture":"愛知県","city":"豊田市","townArea":"平山町"},{"postalCode":"8710058","prefectureKana":"ｵｵｲﾀｹﾝ","cityKana":"ﾅｶﾂｼ","townAreaKana":"ﾄﾖﾀﾞﾏﾁ","prefecture":"大分県","city":"中津市","townArea":"豊田町"},{"postalCode":"6370092","prefectureKana":"ﾅﾗｹﾝ","cityKana":"ｺﾞｼﾞｮｳｼ","townAreaKana":"ｵｶﾁｮｳ","prefecture":"奈良県","city":"五條市","townArea":"岡町"},{"postalCode":"2991733","prefectureKana":"ﾁﾊﾞｹﾝ","cityKana":"ﾌｯﾂｼ","townAreaKana":"ﾀｶﾐｿﾞ","prefecture":"千葉県","city":"富津市","townArea":"高溝"},{"postalCode":"9230963","prefectureKana":"ｲｼｶﾜｹﾝ","cityKana":"ｺﾏﾂｼ","townAreaKana":"ｽｱﾏﾏﾁ","prefecture":"石川県","city":"小松市","townArea":"須天町"},{"postalCode":"9696183","prefectureKana":"ﾌｸｼﾏｹﾝ","cityKana":"ｱｲﾂﾞﾜｶﾏﾂｼ","townAreaKana":"ｷﾀｱｲﾂﾞﾏﾁｶﾐﾖﾈﾂﾞｶ","prefecture":"福島県","city":"会津若松市","townArea":"北会津町上米塚"},{"postalCode":"4670805","prefectureKana":"ｱｲﾁｹﾝ","cityKana":"ﾅｺﾞﾔｼﾐｽﾞﾎｸ","townAreaKana":"ｻｸﾗﾐﾁｮｳ","prefecture":"愛知県","city":"名古屋市瑞穂区","townArea":"桜見町"},{"postalCode":"6696351","prefectureKana":"ﾋｮｳｺﾞｹﾝ","cityKana":"ﾄﾖｵｶｼ","townAreaKana":"ﾀｹﾉﾁｮｳｽﾉﾀﾆ","prefecture":"兵庫県","city":"豊岡市","townArea":"竹野町須野谷"},{"postalCode":"0991422","prefectureKana":"ﾎｯｶｲﾄﾞｳ","cityKana":"ﾄｺﾛｸﾞﾝｸﾝﾈｯﾌﾟﾁｮｳ","townAreaKana":"ﾎｸｴｲ","prefecture":"北海道","city":"常呂郡訓子府町","townArea":"北栄"},{"postalCode":"5040958","prefectureKana":"ｷﾞﾌｹﾝ","cityKana":"ｶｶﾐｶﾞﾊﾗｼ","townAreaKana":"ﾅｶｼﾝｶﾉｳﾁｮｳ","prefecture":"岐阜県","city":"各務原市","townArea":"那加新加納町"},{"postalCode":"9190737","prefectureKana":"ﾌｸｲｹﾝ","cityKana":"ｱﾜﾗｼ","townAreaKana":"ｺﾞﾝｾﾞ","prefecture":"福井県","city":"あわら市","townArea":"権世"},{"postalCode":"5720865","prefectureKana":"ｵｵｻｶﾌ","cityKana":"ﾈﾔｶﾞﾜｼ","townAreaKana":"ｼｮｳｼﾞｷﾀﾏﾁ","prefecture":"大阪府","city":"寝屋川市","townArea":"小路北町"},{"postalCode":"7430071","prefectureKana":"ﾔﾏｸﾞﾁｹﾝ","cityKana":"ﾋｶﾘｼ","townAreaKana":"ﾑﾛﾂﾞﾐｼﾝｶｲ","prefecture":"山口県","city":"光市","townArea":"室積新開"},{"postalCode":"8574816","prefectureKana":"ﾅｶﾞｻｷｹﾝ","cityKana":"ｻｾﾎﾞｼ","townAreaKana":"ｳｸﾏﾁﾃﾗｼﾏ","prefecture":"長崎県","city":"佐世保市","townArea":"宇久町寺島"},{"postalCode":"8693711","prefectureKana":"ｸﾏﾓﾄｹﾝ","cityKana":"ｶﾐｱﾏｸｻｼ","townAreaKana":"ｵｵﾔﾉﾏﾁﾕｼﾏ","prefecture":"熊本県","city":"上天草市","townArea":"大矢野町湯島"},{"postalCode":"1631126","prefectureKana":"ﾄｳｷｮｳﾄ","cityKana":"ｼﾝｼﾞｭｸｸ","townAreaKana":"ﾆｼｼﾝｼﾞｭｸｼﾝｼﾞｭｸｽｸｴｱﾀﾜｰ26ｶｲ","prefecture":"東京都","city":"新宿区","townArea":"西新宿新宿スクエアタワー　２６階"},{"postalCode":"2740073","prefectureKana":"ﾁﾊﾞｹﾝ","cityKana":"ﾌﾅﾊﾞｼｼ","townAreaKana":"ﾀｷﾉｲ","prefecture":"千葉県","city":"船橋市","townArea":"田喜野井"},{"postalCode":"5240001","prefectureKana":"ｼｶﾞｹﾝ","cityKana":"ﾓﾘﾔﾏｼ","townAreaKana":"ｶﾜﾀﾁｮｳ","prefecture":"滋賀県","city":"守山市","townArea":"川田町"},{"postalCode":"9940078","prefectureKana":"ﾔﾏｶﾞﾀｹﾝ","cityKana":"ﾃﾝﾄﾞｳｼ","townAreaKana":"ｲﾏﾏﾁ","prefecture":"山形県","city":"天童市","townArea":"今町"},{"postalCode":"2920412","prefectureKana":"ﾁﾊﾞｹﾝ","cityKana":"ｷﾐﾂｼ","townAreaKana":"ｵﾋﾞﾂﾀﾞｲ","prefecture":"千葉県","city":"君津市","townArea":"小櫃台"},{"postalCode":"6210033","prefectureKana":"ｷｮｳﾄﾌ","cityKana":"ｶﾒｵｶｼ","townAreaKana":"ﾋｴﾀﾞﾉﾁｮｳｻｴｷ","prefecture":"京都府","city":"亀岡市","townArea":"ひえ田野町佐伯"},{"postalCode":"9592648","prefectureKana":"ﾆｲｶﾞﾀｹﾝ","cityKana":"ﾀｲﾅｲｼ","townAreaKana":"ｽﾐﾖｼﾁｮｳ","prefecture":"新潟県","city":"胎内市","townArea":"住吉町"},{"postalCode":"7800842","prefectureKana":"ｺｳﾁｹﾝ","cityKana":"ｺｳﾁｼ","townAreaKana":"ｵｳﾃｽｼﾞ","prefecture":"高知県","city":"高知市","townArea":"追手筋"},{"postalCode":"6511602","prefectureKana":"ﾋｮｳｺﾞｹﾝ","cityKana":"ｺｳﾍﾞｼｷﾀｸ","townAreaKana":"ｵｳｺﾞﾁｮｳﾐﾅﾐｿｵ","prefecture":"兵庫県","city":"神戸市北区","townArea":"淡河町南僧尾"},{"postalCode":"8795435","prefectureKana":"ｵｵｲﾀｹﾝ","cityKana":"ﾕﾌｼ","townAreaKana":"ｼｮｳﾅｲﾁｮｳﾅｶ","prefecture":"大分県","city":"由布市","townArea":"庄内町中"},{"postalCode":"5230894","prefectureKana":"ｼｶﾞｹﾝ","cityKana":"ｵｳﾐﾊﾁﾏﾝｼ","townAreaKana":"ﾅｶﾑﾗﾁｮｳ","prefecture":"滋賀県","city":"近江八幡市","townArea":"中村町"},{"postalCode":"9300914","prefectureKana":"ﾄﾔﾏｹﾝ","cityKana":"ﾄﾔﾏｼ","townAreaKana":"ｴﾊﾞﾗ","prefecture":"富山県","city":"富山市","townArea":"荏原"},{"postalCode":"8030836","prefectureKana":"ﾌｸｵｶｹﾝ","cityKana":"ｷﾀｷｭｳｼｭｳｼｺｸﾗｷﾀｸ","townAreaKana":"ﾅｶｲ","prefecture":"福岡県","city":"北九州市小倉北区","townArea":"中井"},{"postalCode":"9188043","prefectureKana":"ﾌｸｲｹﾝ","cityKana":"ﾌｸｲｼ","townAreaKana":"ｷﾂﾈﾊﾞｼ","prefecture":"福井県","city":"福井市","townArea":"狐橋"},{"postalCode":"9640081","prefectureKana":"ﾌｸｼﾏｹﾝ","cityKana":"ﾆﾎﾝﾏﾂｼ","townAreaKana":"ﾐﾔｻﾞﾜ","prefecture":"福島県","city":"二本松市","townArea":"宮沢"},{"postalCode":"9301303","prefectureKana":"ﾄﾔﾏｹﾝ","cityKana":"ﾄﾔﾏｼ","townAreaKana":"ｾﾞﾝﾅ","prefecture":"富山県","city":"富山市","townArea":"善名"},{"postalCode":"0660001","prefectureKana":"ﾎｯｶｲﾄﾞｳ","cityKana":"ﾁﾄｾｼ","townAreaKana":"ｵｻﾂ","prefecture":"北海道","city":"千歳市","townArea":"長都"},{"postalCode":"5192147","prefectureKana":"ﾐｴｹﾝ","cityKana":"ﾏﾂｻｶｼ","townAreaKana":"ｼｮｳﾁｮｳ","prefecture":"三重県","city":"松阪市","townArea":"庄町"},{"postalCode":"1940044","prefectureKana":"ﾄｳｷｮｳﾄ","cityKana":"ﾏﾁﾀﾞｼ","townAreaKana":"ﾅﾙｾ","prefecture":"東京都","city":"町田市","townArea":"成瀬"},{"postalCode":"7791620","prefectureKana":"ﾄｸｼﾏｹﾝ","cityKana":"ｱﾅﾝｼ","townAreaKana":"ﾌｸｲﾁｮｳ","prefecture":"徳島県","city":"阿南市","townArea":"福井町"},{"postalCode":"9190454","prefectureKana":"ﾌｸｲｹﾝ","cityKana":"ｻｶｲｼ","townAreaKana":"ﾊﾙｴﾁｮｳｴﾄﾞﾒｶﾐﾋﾉﾃﾞ","prefecture":"福井県","city":"坂井市","townArea":"春江町江留上日の出"},{"postalCode":"5080037","prefectureKana":"ｷﾞﾌｹﾝ","cityKana":"ﾅｶﾂｶﾞﾜｼ","townAreaKana":"ｴﾋﾞｽﾁｮｳ","prefecture":"岐阜県","city":"中津川市","townArea":"えびす町"},{"postalCode":"9570011","prefectureKana":"ﾆｲｶﾞﾀｹﾝ","cityKana":"ｼﾊﾞﾀｼ","townAreaKana":"ｼﾏｶﾞﾀ","prefecture":"新潟県","city":"新発田市","townArea":"島潟"},{"postalCode":"9601232","prefectureKana":"ﾌｸｼﾏｹﾝ","cityKana":"ﾌｸｼﾏｼ","townAreaKana":"ﾏﾂｶﾜﾏﾁｼﾓｶﾜｻｷ","prefecture":"福島県","city":"福島市","townArea":"松川町下川崎"},{"postalCode":"6730860","prefectureKana":"ﾋｮｳｺﾞｹﾝ","cityKana":"ｱｶｼｼ","townAreaKana":"ｱｻｷﾞﾘﾋｶﾞｼﾏﾁ","prefecture":"兵庫県","city":"明石市","townArea":"朝霧東町"},{"postalCode":"9650034","prefectureKana":"ﾌｸｼﾏｹﾝ","cityKana":"ｱｲﾂﾞﾜｶﾏﾂｼ","townAreaKana":"ｳﾜﾏﾁ","prefecture":"福島県","city":"会津若松市","townArea":"上町"},{"postalCode":"7983342","prefectureKana":"ｴﾋﾒｹﾝ","cityKana":"ｳﾜｼﾞﾏｼ","townAreaKana":"ﾂｼﾏﾁｮｳｳﾗｼﾘ","prefecture":"愛媛県","city":"宇和島市","townArea":"津島町浦知"},{"postalCode":"6010145","prefectureKana":"ｷｮｳﾄﾌ","cityKana":"ｷｮｳﾄｼｷﾀｸ","townAreaKana":"ｵｵﾓﾘﾋｶﾞｼﾁｮｳ","prefecture":"京都府","city":"京都市北区","townArea":"大森東町"},{"postalCode":"9630543","prefectureKana":"ﾌｸｼﾏｹﾝ","cityKana":"ｺｵﾘﾔﾏｼ","townAreaKana":"ｷｸﾀﾏﾁﾏｴﾀｻﾞﾜ","prefecture":"福島県","city":"郡山市","townArea":"喜久田町前田沢"},{"postalCode":"0294207","prefectureKana":"ｲﾜﾃｹﾝ","cityKana":"ｵｳｼｭｳｼ","townAreaKana":"ﾏｴｻﾜﾄﾏﾘｶﾞｻｷ","prefecture":"岩手県","city":"奥州市","townArea":"前沢泊ケ崎"},{"postalCode":"5030813","prefectureKana":"ｷﾞﾌｹﾝ","cityKana":"ｵｵｶﾞｷｼ","townAreaKana":"ｻﾝﾎﾞﾝｷﾞ","prefecture":"岐阜県","city":"大垣市","townArea":"三本木"},{"postalCode":"0140300","prefectureKana":"ｱｷﾀｹﾝ","cityKana":"ｾﾝﾎﾞｸｼ","townAreaKana":"","prefecture":"秋田県","city":"仙北市","townArea":""},{"postalCode":"1056402","prefectureKana":"ﾄｳｷｮｳﾄ","cityKana":"ﾐﾅﾄｸ","townAreaKana":"ﾄﾗﾉﾓﾝﾄﾗﾉﾓﾝﾋﾙｽﾞﾋﾞｼﾞﾈｽﾀﾜｰ2ｶｲ","prefecture":"東京都","city":"港区","townArea":"虎ノ門虎ノ門ヒルズビジネスタワー　２階"},{"postalCode":"7090873","prefectureKana":"ｵｶﾔﾏｹﾝ","cityKana":"ｵｶﾔﾏｼﾋｶﾞｼｸ","townAreaKana":"ｾﾄﾁｮｳｻｶﾈ","prefecture":"岡山県","city":"岡山市東区","townArea":"瀬戸町坂根"},{"postalCode":"9300237","prefectureKana":"ﾄﾔﾏｹﾝ","cityKana":"ﾅｶﾆｲｶﾜｸﾞﾝﾀﾃﾔﾏﾏﾁ","townAreaKana":"ｶｷﾉｷｻﾞﾜ","prefecture":"富山県","city":"中新川郡立山町","townArea":"柿の木沢"},{"postalCode":"3760306","prefectureKana":"ｸﾞﾝﾏｹﾝ","cityKana":"ﾐﾄﾞﾘｼ","townAreaKana":"ｱｽﾞﾏﾁｮｳｵｷﾞﾊﾗ","prefecture":"群馬県","city":"みどり市","townArea":"東町荻原"},{"postalCode":"0711176","prefectureKana":"ﾎｯｶｲﾄﾞｳ","cityKana":"ｱｻﾋｶﾜｼ","townAreaKana":"ｴﾀﾝﾍﾞﾂﾁｮｳﾆｼｻﾄ","prefecture":"北海道","city":"旭川市","townArea":"江丹別町西里"},{"postalCode":"9272154","prefectureKana":"ｲｼｶﾜｹﾝ","cityKana":"ﾜｼﾞﾏｼ","townAreaKana":"ﾓﾝｾﾞﾝﾏﾁﾄﾁﾉｷ","prefecture":"石川県","city":"輪島市","townArea":"門前町栃木"},{"postalCode":"8614205","prefectureKana":"ｸﾏﾓﾄｹﾝ","cityKana":"ｸﾏﾓﾄｼﾐﾅﾐｸ","townAreaKana":"ｼﾞｮｳﾅﾝﾏﾁｲｶﾘ","prefecture":"熊本県","city":"熊本市南区","townArea":"城南町碇"},{"postalCode":"0180604","prefectureKana":"ｱｷﾀｹﾝ","cityKana":"ﾕﾘﾎﾝｼﾞｮｳｼ","townAreaKana":"ﾆｼﾒﾏﾁﾇﾏﾀ","prefecture":"秋田県","city":"由利本荘市","townArea":"西目町沼田"},{"postalCode":"0200704","prefectureKana":"ｲﾜﾃｹﾝ","cityKana":"ﾀｷｻﾞﾜｼ","townAreaKana":"ｵｵｻﾜﾔﾁﾅｶ","prefecture":"岩手県","city":"滝沢市","townArea":"大沢谷地中"},{"postalCode":"0882156","prefectureKana":"ﾎｯｶｲﾄﾞｳ","cityKana":"ｸｼﾛｸﾞﾝｸｼﾛﾁｮｳ","townAreaKana":"ﾄｵﾔﾐﾅﾐ","prefecture":"北海道","city":"釧路郡釧路町","townArea":"遠矢南"},{"postalCode":"6900024","prefectureKana":"ｼﾏﾈｹﾝ","cityKana":"ﾏﾂｴｼ","townAreaKana":"ﾏｶﾀﾁｮｳ","prefecture":"島根県","city":"松江市","townArea":"馬潟町"},{"postalCode":"6048042","prefectureKana":"ｷｮｳﾄﾌ","cityKana":"ｷｮｳﾄｼﾅｶｷﾞｮｳｸ","townAreaKana":"ﾅｶﾉﾁｮｳ","prefecture":"京都府","city":"京都市中京区","townArea":"中之町寺町通錦小路下る"},{"postalCode":"3500131","prefectureKana":"ｻｲﾀﾏｹﾝ","cityKana":"ﾋｷｸﾞﾝｶﾜｼﾞﾏﾏﾁ","townAreaKana":"ﾋﾗﾇﾏ","prefecture":"埼玉県","city":"比企郡川島町","townArea":"平沼"},{"postalCode":"9696522","prefectureKana":"ﾌｸｼﾏｹﾝ","cityKana":"ｶﾜﾇﾏｸﾞﾝｱｲﾂﾞﾊﾞﾝｹﾞﾏﾁ","townAreaKana":"ﾐﾔｺ","prefecture":"福島県","city":"河沼郡会津坂下町","townArea":"宮古"},{"postalCode":"7081202","prefectureKana":"ｵｶﾔﾏｹﾝ","cityKana":"ﾂﾔﾏｼ","townAreaKana":"ｵｵｲﾜ","prefecture":"岡山県","city":"津山市","townArea":"大岩"},{"postalCode":"6148063","prefectureKana":"ｷｮｳﾄﾌ","cityKana":"ﾔﾜﾀｼ","townAreaKana":"ﾔﾜﾀｷｼﾓﾄ","prefecture":"京都府","city":"八幡市","townArea":"八幡岸本"},{"postalCode":"8000258","prefectureKana":"ﾌｸｵｶｹﾝ","cityKana":"ｷﾀｷｭｳｼｭｳｼｺｸﾗﾐﾅﾐｸ","townAreaKana":"ｱﾍﾞﾔﾏ","prefecture":"福岡県","city":"北九州市小倉南区","townArea":"安部山"},{"postalCode":"1030014","prefectureKana":"ﾄｳｷｮｳﾄ","cityKana":"ﾁｭｳｵｳｸ","townAreaKana":"ﾆﾎﾝﾊﾞｼｶｷｶﾞﾗﾁｮｳ","prefecture":"東京都","city":"中央区","townArea":"日本橋蛎殻町"},{"postalCode":"7390552","prefectureKana":"ﾋﾛｼﾏｹﾝ","cityKana":"ﾊﾂｶｲﾁｼ","townAreaKana":"ﾐﾔｼﾞﾏﾁｮｳ","prefecture":"広島県","city":"廿日市市","townArea":"宮島町"},{"postalCode":"4640031","prefectureKana":"ｱｲﾁｹﾝ","cityKana":"ﾅｺﾞﾔｼﾁｸｻｸ","townAreaKana":"ﾄｸｶﾞﾜﾔﾏﾁｮｳ","prefecture":"愛知県","city":"名古屋市千種区","townArea":"徳川山町"},{"postalCode":"3760014","prefectureKana":"ｸﾞﾝﾏｹﾝ","cityKana":"ｷﾘｭｳｼ","townAreaKana":"ﾋﾛｻﾜﾁｮｳｱｲﾉｼﾏ","prefecture":"群馬県","city":"桐生市","townArea":"広沢町間ノ島"},{"postalCode":"3950305","prefectureKana":"ﾅｶﾞﾉｹﾝ","cityKana":"ｼﾓｲﾅｸﾞﾝｱﾁﾑﾗ","townAreaKana":"ｺﾏ","prefecture":"長野県","city":"下伊那郡阿智村","townArea":"駒"},{"postalCode":"7700929","prefectureKana":"ﾄｸｼﾏｹﾝ","cityKana":"ﾄｸｼﾏｼ","townAreaKana":"ﾆｼﾄﾐﾀﾞﾁｮｳ","prefecture":"徳島県","city":"徳島市","townArea":"西富田町"},{"postalCode":"9160151","prefectureKana":"ﾌｸｲｹﾝ","cityKana":"ﾆｭｳｸﾞﾝｴﾁｾﾞﾝﾁｮｳ","townAreaKana":"ｶﾅﾔ","prefecture":"福井県","city":"丹生郡越前町","townArea":"金谷"},{"postalCode":"7580003","prefectureKana":"ﾔﾏｸﾞﾁｹﾝ","cityKana":"ﾊｷﾞｼ","townAreaKana":"ｵｵｼﾏ","prefecture":"山口県","city":"萩市","townArea":"大島"},{"postalCode":"4506325","prefectureKana":"ｱｲﾁｹﾝ","cityKana":"ﾅｺﾞﾔｼﾅｶﾑﾗｸ","townAreaKana":"ﾒｲｴｷｼﾞｪｲﾋﾟｰﾀﾜｰﾅｺﾞﾔ25ｶｲ","prefecture":"愛知県","city":"名古屋市中村区","townArea":"名駅ＪＰタワー名古屋　２５階"},{"postalCode":"6980025","prefectureKana":"ｼﾏﾈｹﾝ","cityKana":"ﾏｽﾀﾞｼ","townAreaKana":"ｱｹﾎﾞﾉﾆｼﾏﾁ","prefecture":"島根県","city":"益田市","townArea":"あけぼの西町"},{"postalCode":"9391802","prefectureKana":"ﾄﾔﾏｹﾝ","cityKana":"ﾅﾝﾄｼ","townAreaKana":"ｷﾀﾉｼﾞﾛｳﾏﾙ","prefecture":"富山県","city":"南砺市","townArea":"北野次郎丸"},{"postalCode":"6370403","prefectureKana":"ﾅﾗｹﾝ","cityKana":"ｺﾞｼﾞｮｳｼ","townAreaKana":"ｵｵﾄｳﾁｮｳﾅｶｲﾎｳｼﾞ","prefecture":"奈良県","city":"五條市","townArea":"大塔町中井傍示"},{"postalCode":"9994601","prefectureKana":"ﾔﾏｶﾞﾀｹﾝ","cityKana":"ﾓｶﾞﾐｸﾞﾝﾌﾅｶﾞﾀﾏﾁ","townAreaKana":"ﾌﾅｶﾞﾀ","prefecture":"山形県","city":"最上郡舟形町","townArea":"舟形"},{"postalCode":"4700308","prefectureKana":"ｱｲﾁｹﾝ","cityKana":"ﾄﾖﾀｼ","townAreaKana":"ｼﾀﾞﾚﾁｮｳ","prefecture":"愛知県","city":"豊田市","townArea":"枝下町"},{"postalCode":"2891132","prefectureKana":"ﾁﾊﾞｹﾝ","cityKana":"ﾔﾁﾏﾀｼ","townAreaKana":"ｾﾀ","prefecture":"千葉県","city":"八街市","townArea":"勢田"},{"postalCode":"8530207","prefectureKana":"ﾅｶﾞｻｷｹﾝ","cityKana":"ｺﾞﾄｳｼ","townAreaKana":"ﾄﾐｴﾏﾁﾅｶﾞﾐﾈ","prefecture":"長崎県","city":"五島市","townArea":"富江町長峰"},{"postalCode":"8740845","prefectureKana":"ｵｵｲﾀｹﾝ","cityKana":"ﾍﾞｯﾌﾟｼ","townAreaKana":"ｷﾀｼﾞｭｳ","prefecture":"大分県","city":"別府市","townArea":"北中"},{"postalCode":"4520011","prefectureKana":"ｱｲﾁｹﾝ","cityKana":"ｷﾖｽｼ","townAreaKana":"ﾆｼﾋﾞﾜｼﾞﾏﾁｮｳｼﾞｮｳﾅﾐ","prefecture":"愛知県","city":"清須市","townArea":"西枇杷島町城並"},{"postalCode":"0392816","prefectureKana":"ｱｵﾓﾘｹﾝ","cityKana":"ｶﾐｷﾀｸﾞﾝｼﾁﾉﾍﾏﾁ","townAreaKana":"ｲｴﾉｳﾗ","prefecture":"青森県","city":"上北郡七戸町","townArea":"家ノ裏"},{"postalCode":"8900034","prefectureKana":"ｶｺﾞｼﾏｹﾝ","cityKana":"ｶｺﾞｼﾏｼ","townAreaKana":"ﾀｶﾞﾐ","prefecture":"鹿児島県","city":"鹿児島市","townArea":"田上"},{"postalCode":"5918037","prefectureKana":"ｵｵｻｶﾌ","cityKana":"ｻｶｲｼｷﾀｸ","townAreaKana":"ﾓｽﾞｱｶﾊﾀﾁｮｳ","prefecture":"大阪府","city":"堺市北区","townArea":"百舌鳥赤畑町"},{"postalCode":"9010604","prefectureKana":"ｵｷﾅﾜｹﾝ","cityKana":"ﾅﾝｼﾞｮｳｼ","townAreaKana":"ﾀﾏｸﾞｽｸﾀﾏｸﾞｽｸ","prefecture":"沖縄県","city":"南城市","townArea":"玉城玉城"},{"postalCode":"5730034","prefectureKana":"ｵｵｻｶﾌ","cityKana":"ﾋﾗｶﾀｼ","townAreaKana":"ｵｶﾔﾏﾃﾁｮｳ","prefecture":"大阪府","city":"枚方市","townArea":"岡山手町"},{"postalCode":"9696312","prefectureKana":"ﾌｸｼﾏｹﾝ","cityKana":"ｵｵﾇﾏｸﾞﾝｱｲﾂﾞﾐｻﾄﾏﾁ","townAreaKana":"ｼﾐｽﾞﾀﾞｲｺｳ","prefecture":"福島県","city":"大沼郡会津美里町","townArea":"清水台甲"},{"postalCode":"5203200","prefectureKana":"ｼｶﾞｹﾝ","cityKana":"ｺﾅﾝｼ","townAreaKana":"","prefecture":"滋賀県","city":"湖南市","townArea":""},{"postalCode":"4020056","prefectureKana":"ﾔﾏﾅｼｹﾝ","cityKana":"ﾂﾙｼ","townAreaKana":"ﾂﾙ","prefecture":"山梨県","city":"都留市","townArea":"つる"},{"postalCode":"0660062","prefectureKana":"ﾎｯｶｲﾄﾞｳ","cityKana":"ﾁﾄｾｼ","townAreaKana":"ﾁﾖﾀﾞﾁｮｳ","prefecture":"北海道","city":"千歳市","townArea":"千代田町"},{"postalCode":"6168474","prefectureKana":"ｷｮｳﾄﾌ","cityKana":"ｷｮｳﾄｼｳｷｮｳｸ","townAreaKana":"ｻｶﾞｼｷﾐｶﾞﾊﾗｼﾐｽﾞﾁｮｳ","prefecture":"京都府","city":"京都市右京区","townArea":"嵯峨樒原清水町"},{"postalCode":"9430134","prefectureKana":"ﾆｲｶﾞﾀｹﾝ","cityKana":"ｼﾞｮｳｴﾂｼ","townAreaKana":"ｼﾓｲﾅﾂﾞｶ","prefecture":"新潟県","city":"上越市","townArea":"下稲塚"},{"postalCode":"4300912","prefectureKana":"ｼｽﾞｵｶｹﾝ","cityKana":"ﾊﾏﾏﾂｼﾅｶｸ","townAreaKana":"ﾅｽﾋﾞﾁｮｳ","prefecture":"静岡県","city":"浜松市中区","townArea":"茄子町"},{"postalCode":"4500007","prefectureKana":"ｱｲﾁｹﾝ","cityKana":"ﾅｺﾞﾔｼﾅｶﾑﾗｸ","townAreaKana":"ｻｻｼﾏﾁｮｳ","prefecture":"愛知県","city":"名古屋市中村区","townArea":"笹島町"},{"postalCode":"9696188","prefectureKana":"ﾌｸｼﾏｹﾝ","cityKana":"ｱｲﾂﾞﾜｶﾏﾂｼ","townAreaKana":"ｷﾀｱｲﾂﾞﾏﾁﾋｶﾞｼｺﾏﾂ","prefecture":"福島県","city":"会津若松市","townArea":"北会津町東小松"},{"postalCode":"6420029","prefectureKana":"ﾜｶﾔﾏｹﾝ","cityKana":"ｶｲﾅﾝｼ","townAreaKana":"ﾔﾏﾀﾞ","prefecture":"和歌山県","city":"海南市","townArea":"山田"},{"postalCode":"6068162","prefectureKana":"ｷｮｳﾄﾌ","cityKana":"ｷｮｳﾄｼｻｷｮｳｸ","townAreaKana":"ｲﾁｼﾞｮｳｼﾞｺﾞｻｲﾃﾞﾝﾁｮｳ","prefecture":"京都府","city":"京都市左京区","townArea":"一乗寺御祭田町"},{"postalCode":"4928043","prefectureKana":"ｱｲﾁｹﾝ","cityKana":"ｲﾅｻﾞﾜｼ","townAreaKana":"ｸｶﾞﾀｳﾏﾔﾏﾁｮｳ","prefecture":"愛知県","city":"稲沢市","townArea":"陸田馬山町"},{"postalCode":"6168362","prefectureKana":"ｷｮｳﾄﾌ","cityKana":"ｷｮｳﾄｼｳｷｮｳｸ","townAreaKana":"ｻｶﾞｺﾞﾄｳﾁｮｳ","prefecture":"京都府","city":"京都市右京区","townArea":"嵯峨五島町"},{"postalCode":"8540206","prefectureKana":"ﾅｶﾞｻｷｹﾝ","cityKana":"ｲｻﾊﾔｼ","townAreaKana":"ﾓﾘﾔﾏﾁｮｳｶﾗｺｷﾀ","prefecture":"長崎県","city":"諫早市","townArea":"森山町唐比北"},{"postalCode":"9670528","prefectureKana":"ﾌｸｼﾏｹﾝ","cityKana":"ﾐﾅﾐｱｲﾂﾞｸﾞﾝﾋﾉｴﾏﾀﾑﾗ","townAreaKana":"ﾖｼｶﾞﾀｲﾗ","prefecture":"福島県","city":"南会津郡檜枝岐村","townArea":"葭ケ平"},{"postalCode":"9608102","prefectureKana":"ﾌｸｼﾏｹﾝ","cityKana":"ﾌｸｼﾏｼ","townAreaKana":"ｷﾀﾏﾁ","prefecture":"福島県","city":"福島市","townArea":"北町"},{"postalCode":"3400135","prefectureKana":"ｻｲﾀﾏｹﾝ","cityKana":"ｻｯﾃｼ","townAreaKana":"ﾏｷﾉｼﾞ","prefecture":"埼玉県","city":"幸手市","townArea":"槇野地"},{"postalCode":"4530000","prefectureKana":"ｱｲﾁｹﾝ","cityKana":"ﾅｺﾞﾔｼﾅｶﾑﾗｸ","townAreaKana":"","prefecture":"愛知県","city":"名古屋市中村区","townArea":""},{"postalCode":"5650843","prefectureKana":"ｵｵｻｶﾌ","cityKana":"ｽｲﾀｼ","townAreaKana":"ｾﾝﾘﾔﾏﾏﾂｶﾞｵｶ","prefecture":"大阪府","city":"吹田市","townArea":"千里山松が丘"},{"postalCode":"9840041","prefectureKana":"ﾐﾔｷﾞｹﾝ","cityKana":"ｾﾝﾀﾞｲｼﾜｶﾊﾞﾔｼｸ","townAreaKana":"ｼﾜﾏﾁ","prefecture":"宮城県","city":"仙台市若林区","townArea":"志波町"},{"postalCode":"3390062","prefectureKana":"ｻｲﾀﾏｹﾝ","cityKana":"ｻｲﾀﾏｼｲﾜﾂｷｸ","townAreaKana":"ﾐﾅﾐﾂｼﾞ","prefecture":"埼玉県","city":"さいたま市岩槻区","townArea":"南辻"},{"postalCode":"3700131","prefectureKana":"ｸﾞﾝﾏｹﾝ","cityKana":"ｲｾｻｷｼ","townAreaKana":"ｻｶｲﾖﾈｵｶ","prefecture":"群馬県","city":"伊勢崎市","townArea":"境米岡"},{"postalCode":"5190605","prefectureKana":"ﾐｴｹﾝ","cityKana":"ｲｾｼ","townAreaKana":"ﾌﾀﾐﾁｮｳﾐｿﾞｸﾞﾁ","prefecture":"三重県","city":"伊勢市","townArea":"二見町溝口"},{"postalCode":"3550801","prefectureKana":"ｻｲﾀﾏｹﾝ","cityKana":"ﾋｷｸﾞﾝﾅﾒｶﾞﾜﾏﾁ","townAreaKana":"ﾂﾁｼｵ","prefecture":"埼玉県","city":"比企郡滑川町","townArea":"土塩"},{"postalCode":"5008868","prefectureKana":"ｷﾞﾌｹﾝ","cityKana":"ｷﾞﾌｼ","townAreaKana":"ｺｳﾒｲﾁｮｳ","prefecture":"岐阜県","city":"岐阜市","townArea":"光明町"},{"postalCode":"9660046","prefectureKana":"ﾌｸｼﾏｹﾝ","cityKana":"ｷﾀｶﾀｼ","townAreaKana":"ﾊﾗﾀﾞ","prefecture":"福島県","city":"喜多方市","townArea":"原田"},{"postalCode":"0380102","prefectureKana":"ｱｵﾓﾘｹﾝ","cityKana":"ﾋﾗｶﾜｼ","townAreaKana":"ｲｶﾘｶﾞｾｷｺｶﾞｹﾄﾘｲ","prefecture":"青森県","city":"平川市","townArea":"碇ケ関古懸鳥井"},{"postalCode":"4300808","prefectureKana":"ｼｽﾞｵｶｹﾝ","cityKana":"ﾊﾏﾏﾂｼﾅｶｸ","townAreaKana":"ﾃﾝｼﾞﾝﾏﾁ","prefecture":"静岡県","city":"浜松市中区","townArea":"天神町"},{"postalCode":"6408350","prefectureKana":"ﾜｶﾔﾏｹﾝ","cityKana":"ﾜｶﾔﾏｼ","townAreaKana":"ｷﾀﾉｼﾝﾁﾌﾝﾄﾞｳﾁｮｳ","prefecture":"和歌山県","city":"和歌山市","townArea":"北ノ新地分銅丁"},{"postalCode":"6693305","prefectureKana":"ﾋｮｳｺﾞｹﾝ","cityKana":"ﾀﾝﾊﾞｼ","townAreaKana":"ｶｲﾊﾞﾗﾁｮｳｼﾓｵｸﾞﾗ","prefecture":"兵庫県","city":"丹波市","townArea":"柏原町下小倉"},{"postalCode":"0360132","prefectureKana":"ｱｵﾓﾘｹﾝ","cityKana":"ﾋﾗｶﾜｼ","townAreaKana":"ｶﾗﾀｹｺﾏﾂﾊﾗ","prefecture":"青森県","city":"平川市","townArea":"唐竹小松原"},{"postalCode":"5013716","prefectureKana":"ｷﾞﾌｹﾝ","cityKana":"ﾐﾉｼ","townAreaKana":"ﾏｴﾉ","prefecture":"岐阜県","city":"美濃市","townArea":"前野"},{"postalCode":"9880227","prefectureKana":"ﾐﾔｷﾞｹﾝ","cityKana":"ｹｾﾝﾇﾏｼ","townAreaKana":"ﾅｶﾞｲｿﾓﾘ","prefecture":"宮城県","city":"気仙沼市","townArea":"長磯森"},{"postalCode":"8160822","prefectureKana":"ﾌｸｵｶｹﾝ","cityKana":"ｶｽｶﾞｼ","townAreaKana":"ﾁｸｼﾀﾞｲ","prefecture":"福岡県","city":"春日市","townArea":"ちくし台"},{"postalCode":"9530101","prefectureKana":"ﾆｲｶﾞﾀｹﾝ","cityKana":"ﾆｲｶﾞﾀｼﾆｼｶﾝｸ","townAreaKana":"ﾋｿ","prefecture":"新潟県","city":"新潟市西蒲区","townArea":"樋曽"},{"postalCode":"8821100","prefectureKana":"ﾐﾔｻﾞｷｹﾝ","cityKana":"ﾆｼｳｽｷｸﾞﾝﾀｶﾁﾎﾁｮｳ","townAreaKana":"","prefecture":"宮崎県","city":"西臼杵郡高千穂町","townArea":""},{"postalCode":"6040014","prefectureKana":"ｷｮｳﾄﾌ","cityKana":"ｷｮｳﾄｼﾅｶｷﾞｮｳｸ","townAreaKana":"ﾀﾞｲｺｸﾁｮｳ","prefecture":"京都府","city":"京都市中京区","townArea":"大黒町釜座通夷川下る"},{"postalCode":"2921173","prefectureKana":"ﾁﾊﾞｹﾝ","cityKana":"ｷﾐﾂｼ","townAreaKana":"ｵｵｲﾜ","prefecture":"千葉県","city":"君津市","townArea":"大岩"},{"postalCode":"7712305","prefectureKana":"ﾄｸｼﾏｹﾝ","cityKana":"ﾐﾖｼｼ","townAreaKana":"ﾐﾉﾁｮｳﾀﾁﾉ","prefecture":"徳島県","city":"三好市","townArea":"三野町太刀野"},{"postalCode":"1706049","prefectureKana":"ﾄｳｷｮｳﾄ","cityKana":"ﾄｼﾏｸ","townAreaKana":"ﾋｶﾞｼｲｹﾌﾞｸﾛｻﾝｼｬｲﾝ6049ｶｲ","prefecture":"東京都","city":"豊島区","townArea":"東池袋サンシャイン６０　４９階"},{"postalCode":"8610903","prefectureKana":"ｸﾏﾓﾄｹﾝ","cityKana":"ﾀﾏﾅｸﾞﾝﾅｺﾞﾐﾏﾁ","townAreaKana":"ﾜﾆ","prefecture":"熊本県","city":"玉名郡和水町","townArea":"和仁"},{"postalCode":"6168356","prefectureKana":"ｷｮｳﾄﾌ","cityKana":"ｷｮｳﾄｼｳｷｮｳｸ","townAreaKana":"ｻｶﾞﾃﾝﾘｭｳｼﾞﾅｶｼﾞﾏﾁｮｳ","prefecture":"京都府","city":"京都市右京区","townArea":"嵯峨天龍寺中島町"},{"postalCode":"6590000","prefectureKana":"ﾋｮｳｺﾞｹﾝ","cityKana":"ｱｼﾔｼ","townAreaKana":"","prefecture":"兵庫県","city":"芦屋市","townArea":""},{"postalCode":"6128063","prefectureKana":"ｷｮｳﾄﾌ","cityKana":"ｷｮｳﾄｼﾌｼﾐｸ","townAreaKana":"ﾋｶﾞｼｸﾐﾁｮｳ","prefecture":"京都府","city":"京都市伏見区","townArea":"東組町"},{"postalCode":"6250035","prefectureKana":"ｷｮｳﾄﾌ","cityKana":"ﾏｲﾂﾞﾙｼ","townAreaKana":"ﾐｿﾞｼﾘ","prefecture":"京都府","city":"舞鶴市","townArea":"溝尻"},{"postalCode":"8650000","prefectureKana":"ｸﾏﾓﾄｹﾝ","cityKana":"ﾀﾏﾅｼ","townAreaKana":"","prefecture":"熊本県","city":"玉名市","townArea":""},{"postalCode":"3192252","prefectureKana":"ｲﾊﾞﾗｷｹﾝ","cityKana":"ﾋﾀﾁｵｵﾐﾔｼ","townAreaKana":"ﾋｶﾞｼﾄﾐﾁｮｳ","prefecture":"茨城県","city":"常陸大宮市","townArea":"東富町"},{"postalCode":"9870308","prefectureKana":"ﾐﾔｷﾞｹﾝ","cityKana":"ﾄﾒｼ","townAreaKana":"ﾖﾈﾔﾏﾁｮｳｺﾏﾁｲ","prefecture":"宮城県","city":"登米市","townArea":"米山町小待井"},{"postalCode":"6158224","prefectureKana":"ｷｮｳﾄﾌ","cityKana":"ｷｮｳﾄｼﾆｼｷｮｳｸ","townAreaKana":"ｶﾐｶﾂﾗｻﾝﾉﾐﾔﾁｮｳ","prefecture":"京都府","city":"京都市西京区","townArea":"上桂三ノ宮町"},{"postalCode":"1036031","prefectureKana":"ﾄｳｷｮｳﾄ","cityKana":"ﾁｭｳｵｳｸ","townAreaKana":"ﾆﾎﾝﾊﾞｼﾄｳｷｮｳﾆﾎﾝﾊﾞｼﾀﾜｰ31ｶｲ","prefecture":"東京都","city":"中央区","townArea":"日本橋東京日本橋タワー　３１階"},{"postalCode":"6780081","prefectureKana":"ﾋｮｳｺﾞｹﾝ","cityKana":"ｱｲｵｲｼ","townAreaKana":"ﾜｶｻﾉﾁｮｳﾋｶﾞｼｺﾞﾐｮｳ","prefecture":"兵庫県","city":"相生市","townArea":"若狭野町東後明"},{"postalCode":"9591965","prefectureKana":"ﾆｲｶﾞﾀｹﾝ","cityKana":"ｱｶﾞﾉｼ","townAreaKana":"ｼﾏﾀﾞ","prefecture":"新潟県","city":"阿賀野市","townArea":"島田"},{"postalCode":"8533102","prefectureKana":"ﾅｶﾞｻｷｹﾝ","cityKana":"ﾐﾅﾐﾏﾂｳﾗｸﾞﾝｼﾝｶﾐｺﾞﾄｳﾁｮｳ","townAreaKana":"ｲﾜｾｳﾗｺﾞｳ","prefecture":"長崎県","city":"南松浦郡新上五島町","townArea":"岩瀬浦郷"},{"postalCode":"8111355","prefectureKana":"ﾌｸｵｶｹﾝ","cityKana":"ﾌｸｵｶｼﾐﾅﾐｸ","townAreaKana":"ﾋﾊﾞﾙ","prefecture":"福岡県","city":"福岡市南区","townArea":"桧原"},{"postalCode":"4838031","prefectureKana":"ｱｲﾁｹﾝ","cityKana":"ｺｳﾅﾝｼ","townAreaKana":"ﾔﾏｼﾞﾘﾁｮｳｱｻﾋ","prefecture":"愛知県","city":"江南市","townArea":"山尻町朝日"},{"postalCode":"6128071","prefectureKana":"ｷｮｳﾄﾌ","cityKana":"ｷｮｳﾄｼﾌｼﾐｸ","townAreaKana":"ｶｼﾞﾔﾏﾁ","prefecture":"京都府","city":"京都市伏見区","townArea":"鍛冶屋町"},{"postalCode":"6308316","prefectureKana":"ﾅﾗｹﾝ","cityKana":"ﾅﾗｼ","townAreaKana":"ﾂｼﾞﾉｳﾁﾁｮｳ","prefecture":"奈良県","city":"奈良市","townArea":"築地之内町"},{"postalCode":"6680304","prefectureKana":"ﾋｮｳｺﾞｹﾝ","cityKana":"ﾄﾖｵｶｼ","townAreaKana":"ﾀﾝﾄｳﾁｮｳﾐｽﾞｼ","prefecture":"兵庫県","city":"豊岡市","townArea":"但東町水石"},{"postalCode":"9130056","prefectureKana":"ﾌｸｲｹﾝ","cityKana":"ｻｶｲｼ","townAreaKana":"ﾐｸﾆﾁｮｳｼｭｸ","prefecture":"福井県","city":"坂井市","townArea":"三国町宿"},{"postalCode":"4410313","prefectureKana":"ｱｲﾁｹﾝ","cityKana":"ﾄﾖｶﾜｼ","townAreaKana":"ﾐﾄﾁｮｳﾅｷﾞﾉﾎﾘｱｲ","prefecture":"愛知県","city":"豊川市","townArea":"御津町泙野堀合"},{"postalCode":"9993132","prefectureKana":"ﾔﾏｶﾞﾀｹﾝ","cityKana":"ｶﾐﾉﾔﾏｼ","townAreaKana":"ｻｶｴﾏﾁ","prefecture":"山形県","city":"上山市","townArea":"栄町"},{"postalCode":"9220836","prefectureKana":"ｲｼｶﾜｹﾝ","cityKana":"ｶｶﾞｼ","townAreaKana":"ｼﾗﾄﾘﾏﾁ","prefecture":"石川県","city":"加賀市","townArea":"白鳥町"},{"postalCode":"5192424","prefectureKana":"ﾐｴｹﾝ","cityKana":"ﾀｷｸﾞﾝｵｵﾀﾞｲﾁｮｳ","townAreaKana":"ﾄﾁﾊﾗ","prefecture":"三重県","city":"多気郡大台町","townArea":"栃原"},{"postalCode":"9630723","prefectureKana":"ﾌｸｼﾏｹﾝ","cityKana":"ｺｵﾘﾔﾏｼ","townAreaKana":"ﾀﾑﾗﾏﾁｻｸﾗｶﾞｵｶ","prefecture":"福島県","city":"郡山市","townArea":"田村町桜ケ丘"},{"postalCode":"5970046","prefectureKana":"ｵｵｻｶﾌ","cityKana":"ｶｲﾂﾞｶｼ","townAreaKana":"ﾋｶﾞｼﾔﾏ","prefecture":"大阪府","city":"貝塚市","townArea":"東山"},{"postalCode":"3300000","prefectureKana":"ｻｲﾀﾏｹﾝ","cityKana":"ｻｲﾀﾏｼﾁｭｳｵｳｸ","townAreaKana":"","prefecture":"埼玉県","city":"さいたま市中央区","townArea":""},{"postalCode":"3080852","prefectureKana":"ｲﾊﾞﾗｷｹﾝ","cityKana":"ﾁｸｾｲｼ","townAreaKana":"ｵｵﾔ","prefecture":"茨城県","city":"筑西市","townArea":"大谷"},{"postalCode":"2580014","prefectureKana":"ｶﾅｶﾞﾜｹﾝ","cityKana":"ｱｼｶﾞﾗｶﾐｸﾞﾝｵｵｲﾏﾁ","townAreaKana":"ｱｶﾀﾞ","prefecture":"神奈川県","city":"足柄上郡大井町","townArea":"赤田"},{"postalCode":"6330231","prefectureKana":"ﾅﾗｹﾝ","cityKana":"ｳﾀﾞｼ","townAreaKana":"ﾊｲﾊﾞﾗｱﾀﾞﾁ","prefecture":"奈良県","city":"宇陀市","townArea":"榛原足立"},{"postalCode":"4530857","prefectureKana":"ｱｲﾁｹﾝ","cityKana":"ﾅｺﾞﾔｼﾅｶﾑﾗｸ","townAreaKana":"ﾅｶﾞｸｻﾁｮｳ","prefecture":"愛知県","city":"名古屋市中村区","townArea":"長草町"},{"postalCode":"1690073","prefectureKana":"ﾄｳｷｮｳﾄ","cityKana":"ｼﾝｼﾞｭｸｸ","townAreaKana":"ﾋｬｸﾆﾝﾁｮｳ","prefecture":"東京都","city":"新宿区","townArea":"百人町"},{"postalCode":"9042311","prefectureKana":"ｵｷﾅﾜｹﾝ","cityKana":"ｳﾙﾏｼ","townAreaKana":"ｶﾂﾚﾝﾊｴﾊﾞﾙ","prefecture":"沖縄県","city":"うるま市","townArea":"勝連南風原"},{"postalCode":"8360896","prefectureKana":"ﾌｸｵｶｹﾝ","cityKana":"ｵｵﾑﾀｼ","townAreaKana":"ﾃﾝﾄﾞｳﾏﾁ","prefecture":"福岡県","city":"大牟田市","townArea":"天道町"},{"postalCode":"9994112","prefectureKana":"ﾔﾏｶﾞﾀｹﾝ","cityKana":"ｷﾀﾑﾗﾔﾏｸﾞﾝｵｵｲｼﾀﾞﾏﾁ","townAreaKana":"ﾐﾄﾞﾘﾁｮｳ","prefecture":"山形県","city":"北村山郡大石田町","townArea":"緑町"},{"postalCode":"7320803","prefectureKana":"ﾋﾛｼﾏｹﾝ","cityKana":"ﾋﾛｼﾏｼﾐﾅﾐｸ","townAreaKana":"ﾐﾅﾐｶﾆﾔ","prefecture":"広島県","city":"広島市南区","townArea":"南蟹屋"},{"postalCode":"0900006","prefectureKana":"ﾎｯｶｲﾄﾞｳ","cityKana":"ｷﾀﾐｼ","townAreaKana":"ｶﾐﾆｺﾛ","prefecture":"北海道","city":"北見市","townArea":"上仁頃"},{"postalCode":"2720824","prefectureKana":"ﾁﾊﾞｹﾝ","cityKana":"ｲﾁｶﾜｼ","townAreaKana":"ｽｶﾞﾉ","prefecture":"千葉県","city":"市川市","townArea":"菅野"},{"postalCode":"0680005","prefectureKana":"ﾎｯｶｲﾄﾞｳ","cityKana":"ｲﾜﾐｻﾞﾜｼ","townAreaKana":"5ｼﾞｮｳﾋｶﾞｼ","prefecture":"北海道","city":"岩見沢市","townArea":"五条東"},{"postalCode":"7540603","prefectureKana":"ﾔﾏｸﾞﾁｹﾝ","cityKana":"ﾐﾈｼ","townAreaKana":"ｼｭｳﾎｳﾁｮｳﾍﾞｯﾌﾟ","prefecture":"山口県","city":"美祢市","townArea":"秋芳町別府"},{"postalCode":"7510816","prefectureKana":"ﾔﾏｸﾞﾁｹﾝ","cityKana":"ｼﾓﾉｾｷｼ","townAreaKana":"ﾑｸﾉﾁｮｳ","prefecture":"山口県","city":"下関市","townArea":"椋野町"},{"postalCode":"0960072","prefectureKana":"ﾎｯｶｲﾄﾞｳ","cityKana":"ﾅﾖﾛｼ","townAreaKana":"ﾎｳｴｲ","prefecture":"北海道","city":"名寄市","townArea":"豊栄"},{"postalCode":"3220535","prefectureKana":"ﾄﾁｷﾞｹﾝ","cityKana":"ｶﾇﾏｼ","townAreaKana":"ﾉｻﾞﾜﾏﾁ","prefecture":"栃木県","city":"鹿沼市","townArea":"野沢町"},{"postalCode":"2600007","prefectureKana":"ﾁﾊﾞｹﾝ","cityKana":"ﾁﾊﾞｼﾁｭｳｵｳｸ","townAreaKana":"ﾕｳｺｳ","prefecture":"千葉県","city":"千葉市中央区","townArea":"祐光"},{"postalCode":"5900435","prefectureKana":"ｵｵｻｶﾌ","cityKana":"ｾﾝﾅﾝｸﾞﾝｸﾏﾄﾘﾁｮｳ","townAreaKana":"ｵﾀﾞﾆﾐﾅﾐ","prefecture":"大阪府","city":"泉南郡熊取町","townArea":"小谷南"},{"postalCode":"3490128","prefectureKana":"ｻｲﾀﾏｹﾝ","cityKana":"ﾊｽﾀﾞｼ","townAreaKana":"ﾔﾏﾉｳﾁ","prefecture":"埼玉県","city":"蓮田市","townArea":"山ノ内"},{"postalCode":"3691212","prefectureKana":"ｻｲﾀﾏｹﾝ","cityKana":"ｵｵｻﾄｸﾞﾝﾖﾘｲﾏﾁ","townAreaKana":"ﾆｼﾌﾙｻﾄ","prefecture":"埼玉県","city":"大里郡寄居町","townArea":"西古里"},{"postalCode":"4300913","prefectureKana":"ｼｽﾞｵｶｹﾝ","cityKana":"ﾊﾏﾏﾂｼﾅｶｸ","townAreaKana":"ﾌﾅｺｼﾁｮｳ","prefecture":"静岡県","city":"浜松市中区","townArea":"船越町"},{"postalCode":"3210165","prefectureKana":"ﾄﾁｷﾞｹﾝ","cityKana":"ｳﾂﾉﾐﾔｼ","townAreaKana":"ﾐﾄﾞﾘ","prefecture":"栃木県","city":"宇都宮市","townArea":"緑"},{"postalCode":"9370064","prefectureKana":"ﾄﾔﾏｹﾝ","cityKana":"ｳｵﾂﾞｼ","townAreaKana":"ﾀｶﾊﾞﾀｹ","prefecture":"富山県","city":"魚津市","townArea":"高畠"},{"postalCode":"0191942","prefectureKana":"ｱｷﾀｹﾝ","cityKana":"ﾀﾞｲｾﾝｼ","townAreaKana":"ﾅﾝｶﾞｲｲﾜｸﾗ","prefecture":"秋田県","city":"大仙市","townArea":"南外岩倉"},{"postalCode":"8794332","prefectureKana":"ｵｵｲﾀｹﾝ","cityKana":"ｸｽｸﾞﾝｸｽﾏﾁ","townAreaKana":"ﾔﾏｳﾗ","prefecture":"大分県","city":"玖珠郡玖珠町","townArea":"山浦"},{"postalCode":"7295506","prefectureKana":"ﾋﾛｼﾏｹﾝ","cityKana":"ｼｮｳﾊﾞﾗｼ","townAreaKana":"ﾄｳｼﾞｮｳﾁｮｳｶﾀﾞﾆ","prefecture":"広島県","city":"庄原市","townArea":"東城町加谷"},{"postalCode":"6408244","prefectureKana":"ﾜｶﾔﾏｹﾝ","cityKana":"ﾜｶﾔﾏｼ","townAreaKana":"ｷｭｳｴﾓﾝﾁｮｳ","prefecture":"和歌山県","city":"和歌山市","townArea":"久右衛門丁"},{"postalCode":"4750844","prefectureKana":"ｱｲﾁｹﾝ","cityKana":"ﾊﾝﾀﾞｼ","townAreaKana":"ﾃﾗﾏﾁ","prefecture":"愛知県","city":"半田市","townArea":"寺町"},{"postalCode":"5970013","prefectureKana":"ｵｵｻｶﾌ","cityKana":"ｶｲﾂﾞｶｼ","townAreaKana":"ﾂﾀﾞｷﾀﾁｮｳ","prefecture":"大阪府","city":"貝塚市","townArea":"津田北町"},{"postalCode":"7813222","prefectureKana":"ｺｳﾁｹﾝ","cityKana":"ｺｳﾁｼ","townAreaKana":"ﾄｻﾔﾏﾋｶﾞｼｶﾜ","prefecture":"高知県","city":"高知市","townArea":"土佐山東川"},{"postalCode":"9592201","prefectureKana":"ﾆｲｶﾞﾀｹﾝ","cityKana":"ｱｶﾞﾉｼ","townAreaKana":"ﾊﾀﾔ","prefecture":"新潟県","city":"阿賀野市","townArea":"羽多屋"},{"postalCode":"5731164","prefectureKana":"ｵｵｻｶﾌ","cityKana":"ﾋﾗｶﾀｼ","townAreaKana":"ｽﾔﾏﾁｮｳ","prefecture":"大阪府","city":"枚方市","townArea":"須山町"},{"postalCode":"9160056","prefectureKana":"ﾌｸｲｹﾝ","cityKana":"ｻﾊﾞｴｼ","townAreaKana":"ｽﾐﾖｼﾁｮｳ","prefecture":"福井県","city":"鯖江市","townArea":"住吉町"},{"postalCode":"6392217","prefectureKana":"ﾅﾗｹﾝ","cityKana":"ｺﾞｾｼ","townAreaKana":"ｼﾝﾁﾏﾁ","prefecture":"奈良県","city":"御所市","townArea":"新地町"},{"postalCode":"0301502","prefectureKana":"ｱｵﾓﾘｹﾝ","cityKana":"ﾋｶﾞｼﾂｶﾞﾙｸﾞﾝｲﾏﾍﾞﾂﾏﾁ","townAreaKana":"ｲﾏﾍﾞﾂ","prefecture":"青森県","city":"東津軽郡今別町","townArea":"今別"},{"postalCode":"0930336","prefectureKana":"ﾎｯｶｲﾄﾞｳ","cityKana":"ｷﾀﾐｼ","townAreaKana":"ﾄｺﾛﾁｮｳﾉﾎﾞﾘ","prefecture":"北海道","city":"北見市","townArea":"常呂町登"},{"postalCode":"6693154","prefectureKana":"ﾋｮｳｺﾞｹﾝ","cityKana":"ﾀﾝﾊﾞｼ","townAreaKana":"ｻﾝﾅﾝﾁｮｳｶｼﾞ","prefecture":"兵庫県","city":"丹波市","townArea":"山南町梶"},{"postalCode":"9696186","prefectureKana":"ﾌｸｼﾏｹﾝ","cityKana":"ｱｲﾂﾞﾜｶﾏﾂｼ","townAreaKana":"ｷﾀｱｲﾂﾞﾏﾁﾌﾙﾀﾞﾃ","prefecture":"福島県","city":"会津若松市","townArea":"北会津町古館"},{"postalCode":"8830066","prefectureKana":"ﾐﾔｻﾞｷｹﾝ","cityKana":"ﾋｭｳｶﾞｼ","townAreaKana":"ｶﾒｻﾞｷ","prefecture":"宮崎県","city":"日向市","townArea":"亀崎"},{"postalCode":"0680052","prefectureKana":"ﾎｯｶｲﾄﾞｳ","cityKana":"ｲﾜﾐｻﾞﾜｼ","townAreaKana":"ﾓﾄﾏﾁ2ｼﾞｮｳﾆｼ","prefecture":"北海道","city":"岩見沢市","townArea":"元町二条西"},{"postalCode":"8490301","prefectureKana":"ｻｶﾞｹﾝ","cityKana":"ｵｷﾞｼ","townAreaKana":"ｳｼﾂﾞﾁｮｳｵﾄﾔﾅｷﾞ","prefecture":"佐賀県","city":"小城市","townArea":"牛津町乙柳"},{"postalCode":"1057039","prefectureKana":"ﾄｳｷｮｳﾄ","cityKana":"ﾐﾅﾄｸ","townAreaKana":"ﾋｶﾞｼｼﾝﾊﾞｼﾃﾞﾝﾂｳﾎﾝｼｬﾋﾞﾙ39ｶｲ","prefecture":"東京都","city":"港区","townArea":"東新橋電通本社ビル　３９階"},{"postalCode":"9300437","prefectureKana":"ﾄﾔﾏｹﾝ","cityKana":"ﾅｶﾆｲｶﾜｸﾞﾝｶﾐｲﾁﾏﾁ","townAreaKana":"ｲｵﾘ","prefecture":"富山県","city":"中新川郡上市町","townArea":"伊折"},{"postalCode":"5013217","prefectureKana":"ｷﾞﾌｹﾝ","cityKana":"ｾｷｼ","townAreaKana":"ｼﾓｳﾁ","prefecture":"岐阜県","city":"関市","townArea":"下有知"},{"postalCode":"5094411","prefectureKana":"ｷﾞﾌｹﾝ","cityKana":"ﾋﾀﾞｼ","townAreaKana":"ﾐﾔｶﾞﾜﾁｮｳﾉｸﾋﾞ","prefecture":"岐阜県","city":"飛騨市","townArea":"宮川町野首"},{"postalCode":"9591732","prefectureKana":"ﾆｲｶﾞﾀｹﾝ","cityKana":"ｺﾞｾﾝｼ","townAreaKana":"ﾅｶｼﾞﾏ","prefecture":"新潟県","city":"五泉市","townArea":"中島"},{"postalCode":"0130016","prefectureKana":"ｱｷﾀｹﾝ","cityKana":"ﾖｺﾃｼ","townAreaKana":"ﾈｷﾞｼﾁｮｳ","prefecture":"秋田県","city":"横手市","townArea":"根岸町"},{"postalCode":"8300044","prefectureKana":"ﾌｸｵｶｹﾝ","cityKana":"ｸﾙﾒｼ","townAreaKana":"ﾎﾝﾏﾁ","prefecture":"福岡県","city":"久留米市","townArea":"本町"},{"postalCode":"8110115","prefectureKana":"ﾌｸｵｶｹﾝ","cityKana":"ｶｽﾔｸﾞﾝｼﾝｸﾞｳﾏﾁ","townAreaKana":"ｼﾝｸﾞｳ","prefecture":"福岡県","city":"糟屋郡新宮町","townArea":"新宮"},{"postalCode":"4418103","prefectureKana":"ｱｲﾁｹﾝ","cityKana":"ﾄﾖﾊｼｼ","townAreaKana":"ﾔﾏﾀﾞ3ﾊﾞﾝﾁｮｳ","prefecture":"愛知県","city":"豊橋市","townArea":"山田三番町"},{"postalCode":"5990202","prefectureKana":"ｵｵｻｶﾌ","cityKana":"ﾊﾝﾅﾝｼ","townAreaKana":"ｼﾓｲﾃﾞ","prefecture":"大阪府","city":"阪南市","townArea":"下出"},{"postalCode":"7440273","prefectureKana":"ﾔﾏｸﾞﾁｹﾝ","cityKana":"ｸﾀﾞﾏﾂｼ","townAreaKana":"ｾﾄﾀｶﾊｼ","prefecture":"山口県","city":"下松市","townArea":"瀬戸高橋"},{"postalCode":"8593451","prefectureKana":"ﾅｶﾞｻｷｹﾝ","cityKana":"ｻｾﾎﾞｼ","townAreaKana":"ﾊﾘｵﾋｶﾞｼﾏﾁ","prefecture":"長崎県","city":"佐世保市","townArea":"針尾東町"},{"postalCode":"6590024","prefectureKana":"ﾋｮｳｺﾞｹﾝ","cityKana":"ｱｼﾔｼ","townAreaKana":"ﾅﾝｸﾞｳﾁｮｳ","prefecture":"兵庫県","city":"芦屋市","townArea":"南宮町"},{"postalCode":"6401474","prefectureKana":"ﾜｶﾔﾏｹﾝ","cityKana":"ｶｲｿｳｸﾞﾝｷﾐﾉﾁｮｳ","townAreaKana":"ｹﾊﾞﾗﾅｶ","prefecture":"和歌山県","city":"海草郡紀美野町","townArea":"毛原中"},{"postalCode":"6270215","prefectureKana":"ｷｮｳﾄﾌ","cityKana":"ｷｮｳﾀﾝｺﾞｼ","townAreaKana":"ﾀﾝｺﾞﾁｮｳｼﾞｮｳｶﾞﾝｼﾞ","prefecture":"京都府","city":"京丹後市","townArea":"丹後町成願寺"},{"postalCode":"7170426","prefectureKana":"ｵｶﾔﾏｹﾝ","cityKana":"ﾏﾆﾜｼ","townAreaKana":"ﾐｾｼﾁﾊﾞﾗ","prefecture":"岡山県","city":"真庭市","townArea":"三世七原"},{"postalCode":"8470317","prefectureKana":"ｻｶﾞｹﾝ","cityKana":"ｶﾗﾂｼ","townAreaKana":"ﾁﾝｾﾞｲﾏﾁｶｶﾗｼﾏ","prefecture":"佐賀県","city":"唐津市","townArea":"鎮西町加唐島"},{"postalCode":"6770017","prefectureKana":"ﾋｮｳｺﾞｹﾝ","cityKana":"ﾆｼﾜｷｼ","townAreaKana":"ｺｻｶﾁｮｳ","prefecture":"兵庫県","city":"西脇市","townArea":"小坂町"},{"postalCode":"9200203","prefectureKana":"ｲｼｶﾜｹﾝ","cityKana":"ｶﾅｻﾞﾜｼ","townAreaKana":"ｷｺﾞｼﾏﾁ","prefecture":"石川県","city":"金沢市","townArea":"木越町"},{"postalCode":"9634318","prefectureKana":"ﾌｸｼﾏｹﾝ","cityKana":"ﾀﾑﾗｼ","townAreaKana":"ﾌﾈﾋｷﾏﾁｺｳﾖｳﾀﾞｲ","prefecture":"福島県","city":"田村市","townArea":"船引町光陽台"},{"postalCode":"8911541","prefectureKana":"ｶｺﾞｼﾏｹﾝ","cityKana":"ｶｺﾞｼﾏｼ","townAreaKana":"ﾉｼﾞﾘﾁｮｳ","prefecture":"鹿児島県","city":"鹿児島市","townArea":"野尻町"},{"postalCode":"0993234","prefectureKana":"ﾎｯｶｲﾄﾞｳ","cityKana":"ｱﾊﾞｼﾘｸﾞﾝｵｵｿﾞﾗﾁｮｳ","townAreaKana":"ﾋｶﾞｼﾓｺﾄﾌｸﾄﾐ","prefecture":"北海道","city":"網走郡大空町","townArea":"東藻琴福富"},{"postalCode":"4840011","prefectureKana":"ｱｲﾁｹﾝ","cityKana":"ｲﾇﾔﾏｼ","townAreaKana":"ｷﾀﾀｶﾈ","prefecture":"愛知県","city":"犬山市","townArea":"北高根"},{"postalCode":"3114152","prefectureKana":"ｲﾊﾞﾗｷｹﾝ","cityKana":"ﾐﾄｼ","townAreaKana":"ｶﾜﾜﾀﾞ","prefecture":"茨城県","city":"水戸市","townArea":"河和田"},{"postalCode":"3291102","prefectureKana":"ﾄﾁｷﾞｹﾝ","cityKana":"ｳﾂﾉﾐﾔｼ","townAreaKana":"ｼﾗｻﾜﾁｮｳ","prefecture":"栃木県","city":"宇都宮市","townArea":"白沢町"},{"postalCode":"3650071","prefectureKana":"ｻｲﾀﾏｹﾝ","cityKana":"ｺｳﾉｽｼ","townAreaKana":"ﾃﾗﾔ","prefecture":"埼玉県","city":"鴻巣市","townArea":"寺谷"},{"postalCode":"3800837","prefectureKana":"ﾅｶﾞﾉｹﾝ","cityKana":"ﾅｶﾞﾉｼ","townAreaKana":"ﾐﾅﾐﾅｶﾞﾉ","prefecture":"長野県","city":"長野市","townArea":"南長野"},{"postalCode":"3480064","prefectureKana":"ｻｲﾀﾏｹﾝ","cityKana":"ﾊﾆｭｳｼ","townAreaKana":"ﾌｼﾞｲｶﾐｸﾞﾐ","prefecture":"埼玉県","city":"羽生市","townArea":"藤井上組"},{"postalCode":"7202124","prefectureKana":"ﾋﾛｼﾏｹﾝ","cityKana":"ﾌｸﾔﾏｼ","townAreaKana":"ｶﾝﾅﾍﾞﾁｮｳｶﾜﾐﾅﾐ","prefecture":"広島県","city":"福山市","townArea":"神辺町川南"},{"postalCode":"0294207","prefectureKana":"ｲﾜﾃｹﾝ","cityKana":"ｵｳｼｭｳｼ","townAreaKana":"ﾏｴｻﾜｺﾞｼﾞｭｳﾆﾝﾏﾁ","prefecture":"岩手県","city":"奥州市","townArea":"前沢五十人町"},{"postalCode":"0992371","prefectureKana":"ﾎｯｶｲﾄﾞｳ","cityKana":"ｱﾊﾞｼﾘｸﾞﾝｵｵｿﾞﾗﾁｮｳ","townAreaKana":"ﾒﾏﾝﾍﾞﾂﾁｭｳｵｳ","prefecture":"北海道","city":"網走郡大空町","townArea":"女満別中央"},{"postalCode":"0028025","prefectureKana":"ﾎｯｶｲﾄﾞｳ","cityKana":"ｻｯﾎﾟﾛｼｷﾀｸ","townAreaKana":"ｼﾉﾛ5ｼﾞｮｳ","prefecture":"北海道","city":"札幌市北区","townArea":"篠路五条"},{"postalCode":"9220337","prefectureKana":"ｲｼｶﾜｹﾝ","cityKana":"ｶｶﾞｼ","townAreaKana":"ｱｲｶﾜﾏﾁ","prefecture":"石川県","city":"加賀市","townArea":"合河町"},{"postalCode":"6148256","prefectureKana":"ｷｮｳﾄﾌ","cityKana":"ﾔﾜﾀｼ","townAreaKana":"ｲﾜﾀｲﾜﾉﾏｴ","prefecture":"京都府","city":"八幡市","townArea":"岩田岩ノ前"},{"postalCode":"6300252","prefectureKana":"ﾅﾗｹﾝ","cityKana":"ｲｺﾏｼ","townAreaKana":"ﾔﾏｻｷﾁｮｳ","prefecture":"奈良県","city":"生駒市","townArea":"山崎町"},{"postalCode":"5070055","prefectureKana":"ｷﾞﾌｹﾝ","cityKana":"ﾀｼﾞﾐｼ","townAreaKana":"ｷﾀﾏﾁ","prefecture":"岐阜県","city":"多治見市","townArea":"喜多町"},{"postalCode":"7712102","prefectureKana":"ﾄｸｼﾏｹﾝ","cityKana":"ﾐﾏｼ","townAreaKana":"ﾐﾏﾁｮｳｵｶﾉｳﾁ","prefecture":"徳島県","city":"美馬市","townArea":"美馬町岡ノ内"},{"postalCode":"0200855","prefectureKana":"ｲﾜﾃｹﾝ","cityKana":"ﾓﾘｵｶｼ","townAreaKana":"ｶﾐｶﾂﾞﾏ","prefecture":"岩手県","city":"盛岡市","townArea":"上鹿妻"},{"postalCode":"1056314","prefectureKana":"ﾄｳｷｮｳﾄ","cityKana":"ﾐﾅﾄｸ","townAreaKana":"ﾄﾗﾉﾓﾝﾄﾗﾉﾓﾝﾋﾙｽﾞﾓﾘﾀﾜｰ14ｶｲ","prefecture":"東京都","city":"港区","townArea":"虎ノ門虎ノ門ヒルズ森タワー　１４階"},{"postalCode":"9200818","prefectureKana":"ｲｼｶﾜｹﾝ","cityKana":"ｶﾅｻﾞﾜｼ","townAreaKana":"ｵｵﾋﾏﾁ","prefecture":"石川県","city":"金沢市","townArea":"大樋町"},{"postalCode":"7900945","prefectureKana":"ｴﾋﾒｹﾝ","cityKana":"ﾏﾂﾔﾏｼ","townAreaKana":"ﾌﾙｶﾜﾏﾁ","prefecture":"愛媛県","city":"松山市","townArea":"古川町"},{"postalCode":"7294304","prefectureKana":"ﾋﾛｼﾏｹﾝ","cityKana":"ﾐﾖｼｼ","townAreaKana":"ﾐﾗｻｶﾁｮｳﾐﾗｻｶ","prefecture":"広島県","city":"三次市","townArea":"三良坂町三良坂"},{"postalCode":"8500995","prefectureKana":"ﾅｶﾞｻｷｹﾝ","cityKana":"ﾅｶﾞｻｷｼ","townAreaKana":"ﾋﾗﾔﾏﾏﾁ","prefecture":"長崎県","city":"長崎市","townArea":"平山町"},{"postalCode":"5190222","prefectureKana":"ﾐｴｹﾝ","cityKana":"ｶﾒﾔﾏｼ","townAreaKana":"ﾌﾀｵﾁｮｳ","prefecture":"三重県","city":"亀山市","townArea":"両尾町"},{"postalCode":"9890911","prefectureKana":"ﾐﾔｷﾞｹﾝ","cityKana":"ｶｯﾀｸﾞﾝｻﾞｵｳﾏﾁ","townAreaKana":"ﾄｵｶﾞｯﾀｵﾝｾﾝｻｶｴﾁｮｳ","prefecture":"宮城県","city":"刈田郡蔵王町","townArea":"遠刈田温泉栄町"},{"postalCode":"9691155","prefectureKana":"ﾌｸｼﾏｹﾝ","cityKana":"ﾓﾄﾐﾔｼ","townAreaKana":"ﾓﾄﾐﾔﾌﾞﾀｲ","prefecture":"福島県","city":"本宮市","townArea":"本宮舞台"},{"postalCode":"9570073","prefectureKana":"ﾆｲｶﾞﾀｹﾝ","cityKana":"ｼﾊﾞﾀｼ","townAreaKana":"ﾐｺｼ","prefecture":"新潟県","city":"新発田市","townArea":"弓越"},{"postalCode":"8400826","prefectureKana":"ｻｶﾞｹﾝ","cityKana":"ｻｶﾞｼ","townAreaKana":"ｼﾗﾔﾏ","prefecture":"佐賀県","city":"佐賀市","townArea":"白山"},{"postalCode":"9636113","prefectureKana":"ﾌｸｼﾏｹﾝ","cityKana":"ﾋｶﾞｼｼﾗｶﾜｸﾞﾝﾀﾅｸﾞﾗﾏﾁ","townAreaKana":"ｲﾀﾊﾞｼ","prefecture":"福島県","city":"東白川郡棚倉町","townArea":"板橋"},{"postalCode":"9650876","prefectureKana":"ﾌｸｼﾏｹﾝ","cityKana":"ｱｲﾂﾞﾜｶﾏﾂｼ","townAreaKana":"ﾔﾏｶﾞﾏﾁ","prefecture":"福島県","city":"会津若松市","townArea":"山鹿町"},{"postalCode":"7960034","prefectureKana":"ｴﾋﾒｹﾝ","cityKana":"ﾔﾜﾀﾊﾏｼ","townAreaKana":"ﾊﾏﾀﾞﾏﾁ","prefecture":"愛媛県","city":"八幡浜市","townArea":"浜田町"},{"postalCode":"6401165","prefectureKana":"ﾜｶﾔﾏｹﾝ","cityKana":"ｶｲﾅﾝｼ","townAreaKana":"ﾋﾔﾐｽﾞ","prefecture":"和歌山県","city":"海南市","townArea":"ひや水"},{"postalCode":"6200984","prefectureKana":"ｷｮｳﾄﾌ","cityKana":"ﾌｸﾁﾔﾏｼ","townAreaKana":"ｲﾉﾉ","prefecture":"京都府","city":"福知山市","townArea":"猪野々"},{"postalCode":"9860775","prefectureKana":"ﾐﾔｷﾞｹﾝ","cityKana":"ﾓﾄﾖｼｸﾞﾝﾐﾅﾐｻﾝﾘｸﾁｮｳ","townAreaKana":"ｼﾂﾞｶﾞﾜﾏﾜﾘﾀﾃ","prefecture":"宮城県","city":"本吉郡南三陸町","townArea":"志津川廻館"},{"postalCode":"4550867","prefectureKana":"ｱｲﾁｹﾝ","cityKana":"ﾅｺﾞﾔｼﾐﾅﾄｸ","townAreaKana":"ﾅﾝﾖｳﾁｮｳﾌｸﾀﾞﾏｴｼﾝﾃﾞﾝ","prefecture":"愛知県","city":"名古屋市港区","townArea":"南陽町福田前新田"},{"postalCode":"9392444","prefectureKana":"ﾄﾔﾏｹﾝ","cityKana":"ﾄﾔﾏｼ","townAreaKana":"ﾔﾂｵﾏﾁｶﾐﾆﾝﾌﾞ","prefecture":"富山県","city":"富山市","townArea":"八尾町上仁歩"},{"postalCode":"8190381","prefectureKana":"ﾌｸｵｶｹﾝ","cityKana":"ﾌｸｵｶｼﾆｼｸ","townAreaKana":"ｲｽﾞﾐ","prefecture":"福岡県","city":"福岡市西区","townArea":"泉"},{"postalCode":"4928275","prefectureKana":"ｱｲﾁｹﾝ","cityKana":"ｲﾅｻﾞﾜｼ","townAreaKana":"ｱﾏｲｹｺﾞﾀﾝﾀﾞﾁｮｳ","prefecture":"愛知県","city":"稲沢市","townArea":"天池五反田町"},{"postalCode":"9620805","prefectureKana":"ﾌｸｼﾏｹﾝ","cityKana":"ｽｶｶﾞﾜｼ","townAreaKana":"ｸｽﾞﾚﾒﾝ","prefecture":"福島県","city":"須賀川市","townArea":"崩免"},{"postalCode":"9691654","prefectureKana":"ﾌｸｼﾏｹﾝ","cityKana":"ﾀﾞﾃｸﾞﾝｺｵﾘﾏﾁ","townAreaKana":"ﾋﾗｻﾜ","prefecture":"福島県","city":"伊達郡桑折町","townArea":"平沢"},{"postalCode":"5108033","prefectureKana":"ﾐｴｹﾝ","cityKana":"ﾖｯｶｲﾁｼ","townAreaKana":"ｼﾓｻｻﾞﾗｲﾁｮｳ","prefecture":"三重県","city":"四日市市","townArea":"下さざらい町"},{"postalCode":"6800015","prefectureKana":"ﾄｯﾄﾘｹﾝ","cityKana":"ﾄｯﾄﾘｼ","townAreaKana":"ｳｴﾏﾁ","prefecture":"鳥取県","city":"鳥取市","townArea":"上町"},{"postalCode":"2991115","prefectureKana":"ﾁﾊﾞｹﾝ","cityKana":"ｷﾐﾂｼ","townAreaKana":"ﾏﾉﾎﾞﾘ","prefecture":"千葉県","city":"君津市","townArea":"馬登"},{"postalCode":"0130379","prefectureKana":"ｱｷﾀｹﾝ","cityKana":"ﾖｺﾃｼ","townAreaKana":"ﾀｲﾕｳﾔｶﾞｼﾜｲｴﾏ","prefecture":"秋田県","city":"横手市","townArea":"大雄八柏家間"},{"postalCode":"9650855","prefectureKana":"ﾌｸｼﾏｹﾝ","cityKana":"ｱｲﾂﾞﾜｶﾏﾂｼ","townAreaKana":"ｽﾐﾖｼﾏﾁ","prefecture":"福島県","city":"会津若松市","townArea":"住吉町"},{"postalCode":"9440113","prefectureKana":"ﾆｲｶﾞﾀｹﾝ","cityKana":"ｼﾞｮｳｴﾂｼ","townAreaKana":"ｲﾀｸﾗｸﾍﾞｯｼｮ","prefecture":"新潟県","city":"上越市","townArea":"板倉区別所"},{"postalCode":"0410313","prefectureKana":"ﾎｯｶｲﾄﾞｳ","cityKana":"ﾊｺﾀﾞﾃｼ","townAreaKana":"ﾊﾗｷﾁｮｳ","prefecture":"北海道","city":"函館市","townArea":"原木町"},{"postalCode":"9051155","prefectureKana":"ｵｷﾅﾜｹﾝ","cityKana":"ﾅｺﾞｼ","townAreaKana":"ｶﾞﾌﾞｿｶ","prefecture":"沖縄県","city":"名護市","townArea":"我部祖河"},{"postalCode":"4460061","prefectureKana":"ｱｲﾁｹﾝ","cityKana":"ｱﾝｼﾞｮｳｼ","townAreaKana":"ｼﾝﾃﾞﾝﾁｮｳ","prefecture":"愛知県","city":"安城市","townArea":"新田町"},{"postalCode":"7942530","prefectureKana":"ｴﾋﾒｹﾝ","cityKana":"ｵﾁｸﾞﾝｶﾐｼﾞﾏﾁｮｳ","townAreaKana":"ﾕｹﾞﾄﾖｼﾏ","prefecture":"愛媛県","city":"越智郡上島町","townArea":"弓削豊島"},{"postalCode":"9996731","prefectureKana":"ﾔﾏｶﾞﾀｹﾝ","cityKana":"ｻｶﾀｼ","townAreaKana":"ﾀｻﾞﾜ","prefecture":"山形県","city":"酒田市","townArea":"田沢"},{"postalCode":"4100884","prefectureKana":"ｼｽﾞｵｶｹﾝ","cityKana":"ﾇﾏﾂﾞｼ","townAreaKana":"ﾎﾝﾁｮｳ","prefecture":"静岡県","city":"沼津市","townArea":"本町"},{"postalCode":"3113123","prefectureKana":"ｲﾊﾞﾗｷｹﾝ","cityKana":"ﾋｶﾞｼｲﾊﾞﾗｷｸﾞﾝｲﾊﾞﾗｷﾏﾁ","townAreaKana":"ﾜｶﾐﾔ","prefecture":"茨城県","city":"東茨城郡茨城町","townArea":"若宮"},{"postalCode":"0850846","prefectureKana":"ﾎｯｶｲﾄﾞｳ","cityKana":"ｸｼﾛｼ","townAreaKana":"ｲﾘﾌﾈ","prefecture":"北海道","city":"釧路市","townArea":"入舟"},{"postalCode":"4801103","prefectureKana":"ｱｲﾁｹﾝ","cityKana":"ﾅｶﾞｸﾃｼ","townAreaKana":"ﾔｻﾞｺﾄﾁｸﾋﾞ","prefecture":"愛知県","city":"長久手市","townArea":"岩作泥亀首"},{"postalCode":"9570087","prefectureKana":"ﾆｲｶﾞﾀｹﾝ","cityKana":"ｼﾊﾞﾀｼ","townAreaKana":"ｽﾅﾔﾏ","prefecture":"新潟県","city":"新発田市","townArea":"砂山"},{"postalCode":"2590114","prefectureKana":"ｶﾅｶﾞﾜｹﾝ","cityKana":"ﾅｶｸﾞﾝｵｵｲｿﾏﾁ","townAreaKana":"ｶﾞｯｷｮｳ","prefecture":"神奈川県","city":"中郡大磯町","townArea":"月京"},{"postalCode":"6800408","prefectureKana":"ﾄｯﾄﾘｹﾝ","cityKana":"ﾔｽﾞｸﾞﾝﾔｽﾞﾁｮｳ","townAreaKana":"ﾆｼﾀﾞﾆ","prefecture":"鳥取県","city":"八頭郡八頭町","townArea":"西谷"},{"postalCode":"3860506","prefectureKana":"ﾅｶﾞﾉｹﾝ","cityKana":"ｳｴﾀﾞｼ","townAreaKana":"ﾀｹｼｼﾓﾎﾝｲﾘ","prefecture":"長野県","city":"上田市","townArea":"武石下本入"},{"postalCode":"2770824","prefectureKana":"ﾁﾊﾞｹﾝ","cityKana":"ｶｼﾜｼ","townAreaKana":"ﾌｾｼﾝﾃﾞﾝ","prefecture":"千葉県","city":"柏市","townArea":"布施新田"},{"postalCode":"9840045","prefectureKana":"ﾐﾔｷﾞｹﾝ","cityKana":"ｾﾝﾀﾞｲｼﾜｶﾊﾞﾔｼｸ","townAreaKana":"ﾆｼｼﾝﾁｮｳ","prefecture":"宮城県","city":"仙台市若林区","townArea":"西新丁"},{"postalCode":"9430891","prefectureKana":"ﾆｲｶﾞﾀｹﾝ","cityKana":"ｼﾞｮｳｴﾂｼ","townAreaKana":"ｼｮｳﾜﾏﾁ","prefecture":"新潟県","city":"上越市","townArea":"昭和町"},{"postalCode":"4470859","prefectureKana":"ｱｲﾁｹﾝ","cityKana":"ﾍｷﾅﾝｼ","townAreaKana":"ﾅｶﾏﾂﾏﾁ","prefecture":"愛知県","city":"碧南市","townArea":"中松町"},{"postalCode":"8171712","prefectureKana":"ﾅｶﾞｻｷｹﾝ","cityKana":"ﾂｼﾏｼ","townAreaKana":"ｶﾐﾂｼﾏﾏﾁﾄｳｼﾞｭｳｼ","prefecture":"長崎県","city":"対馬市","townArea":"上対馬町唐舟志"},{"postalCode":"9398076","prefectureKana":"ﾄﾔﾏｹﾝ","cityKana":"ﾄﾔﾏｼ","townAreaKana":"ﾀﾛｳﾏﾙ","prefecture":"富山県","city":"富山市","townArea":"太郎丸"},{"postalCode":"0182619","prefectureKana":"ｱｷﾀｹﾝ","cityKana":"ﾔﾏﾓﾄｸﾞﾝﾊｯﾎﾟｳﾁｮｳ","townAreaKana":"ﾊﾁﾓﾘﾅｶﾞｻｶ","prefecture":"秋田県","city":"山本郡八峰町","townArea":"八森長坂"},{"postalCode":"4411336","prefectureKana":"ｱｲﾁｹﾝ","cityKana":"ｼﾝｼﾛｼ","townAreaKana":"ﾄﾐｵｶ","prefecture":"愛知県","city":"新城市","townArea":"富岡"},{"postalCode":"9218035","prefectureKana":"ｲｼｶﾜｹﾝ","cityKana":"ｶﾅｻﾞﾜｼ","townAreaKana":"ｲｽﾞﾐｶﾞｵｶ","prefecture":"石川県","city":"金沢市","townArea":"泉が丘"},{"postalCode":"8912103","prefectureKana":"ｶｺﾞｼﾏｹﾝ","cityKana":"ﾀﾙﾐｽﾞｼ","townAreaKana":"ｲﾁｷ","prefecture":"鹿児島県","city":"垂水市","townArea":"市木"},{"postalCode":"6168161","prefectureKana":"ｷｮｳﾄﾌ","cityKana":"ｷｮｳﾄｼｳｷｮｳｸ","townAreaKana":"ｳｽﾞﾏｻﾋｶﾞｼﾊﾁｵｶﾁｮｳ","prefecture":"京都府","city":"京都市右京区","townArea":"太秦東蜂岡町"},{"postalCode":"0680001","prefectureKana":"ﾎｯｶｲﾄﾞｳ","cityKana":"ｲﾜﾐｻﾞﾜｼ","townAreaKana":"1ｼﾞｮｳﾋｶﾞｼ","prefecture":"北海道","city":"岩見沢市","townArea":"一条東"},{"postalCode":"0030855","prefectureKana":"ﾎｯｶｲﾄﾞｳ","cityKana":"ｻｯﾎﾟﾛｼｼﾛｲｼｸ","townAreaKana":"ｶﾜｷﾀ5ｼﾞｮｳ","prefecture":"北海道","city":"札幌市白石区","townArea":"川北五条"},{"postalCode":"5097607","prefectureKana":"ｷﾞﾌｹﾝ","cityKana":"ｴﾅｼ","townAreaKana":"ﾔﾏｵｶﾁｮｳｼﾓﾄｳｹﾞ","prefecture":"岐阜県","city":"恵那市","townArea":"山岡町下手向"},{"postalCode":"7913511","prefectureKana":"ｴﾋﾒｹﾝ","cityKana":"ｷﾀｸﾞﾝｳﾁｺﾁｮｳ","townAreaKana":"ﾖｼﾉｶﾜ","prefecture":"愛媛県","city":"喜多郡内子町","townArea":"吉野川"},{"postalCode":"6430174","prefectureKana":"ﾜｶﾔﾏｹﾝ","cityKana":"ｱﾘﾀﾞｸﾞﾝｱﾘﾀﾞｶﾞﾜﾁｮｳ","townAreaKana":"ｲﾄﾉ","prefecture":"和歌山県","city":"有田郡有田川町","townArea":"糸野"},{"postalCode":"2830106","prefectureKana":"ﾁﾊﾞｹﾝ","cityKana":"ｻﾝﾌﾞｸﾞﾝｸｼﾞｭｳｸﾘﾏﾁ","townAreaKana":"ｼｭｸ","prefecture":"千葉県","city":"山武郡九十九里町","townArea":"宿"},{"postalCode":"9600454","prefectureKana":"ﾌｸｼﾏｹﾝ","cityKana":"ﾀﾞﾃｼ","townAreaKana":"ｼﾜﾀﾞﾏｴ","prefecture":"福島県","city":"伊達市","townArea":"志和田前"},{"postalCode":"8530205","prefectureKana":"ﾅｶﾞｻｷｹﾝ","cityKana":"ｺﾞﾄｳｼ","townAreaKana":"ﾄﾐｴﾏﾁｶﾘﾀﾃ","prefecture":"長崎県","city":"五島市","townArea":"富江町狩立"},{"postalCode":"8931202","prefectureKana":"ｶｺﾞｼﾏｹﾝ","cityKana":"ｷﾓﾂｷｸﾞﾝｷﾓﾂｷﾁｮｳ","townAreaKana":"ﾊﾐ","prefecture":"鹿児島県","city":"肝属郡肝付町","townArea":"波見"},{"postalCode":"8114203","prefectureKana":"ﾌｸｵｶｹﾝ","cityKana":"ｵﾝｶﾞｸﾞﾝｵｶｶﾞｷﾏﾁ","townAreaKana":"ｳﾂﾗ","prefecture":"福岡県","city":"遠賀郡岡垣町","townArea":"内浦"},{"postalCode":"0380102","prefectureKana":"ｱｵﾓﾘｹﾝ","cityKana":"ﾋﾗｶﾜｼ","townAreaKana":"ｲｶﾘｶﾞｾｷｺｶﾞｹﾆｼﾌﾄﾞｳﾉ","prefecture":"青森県","city":"平川市","townArea":"碇ケ関古懸西不動野"},{"postalCode":"1830044","prefectureKana":"ﾄｳｷｮｳﾄ","cityKana":"ﾌﾁｭｳｼ","townAreaKana":"ﾆｯｺｳﾁｮｳ","prefecture":"東京都","city":"府中市","townArea":"日鋼町"},{"postalCode":"0190513","prefectureKana":"ｱｷﾀｹﾝ","cityKana":"ﾖｺﾃｼ","townAreaKana":"ｼﾞｭｳﾓﾝｼﾞﾏﾁｳｴﾀﾞ","prefecture":"秋田県","city":"横手市","townArea":"十文字町植田"},{"postalCode":"7914324","prefectureKana":"ｴﾋﾒｹﾝ","cityKana":"ﾏﾂﾔﾏｼ","townAreaKana":"ﾂﾜｼﾞ","prefecture":"愛媛県","city":"松山市","townArea":"津和地"},{"postalCode":"0368311","prefectureKana":"ｱｵﾓﾘｹﾝ","cityKana":"ﾋﾛｻｷｼ","townAreaKana":"ｵｵｶﾜ","prefecture":"青森県","city":"弘前市","townArea":"大川"},{"postalCode":"0613109","prefectureKana":"ﾎｯｶｲﾄﾞｳ","cityKana":"ｲｼｶﾘｼ","townAreaKana":"ﾊﾏﾏｽｸｺﾞﾘｮｳﾁ","prefecture":"北海道","city":"石狩市","townArea":"浜益区御料地"},{"postalCode":"9390568","prefectureKana":"ﾄﾔﾏｹﾝ","cityKana":"ﾄﾔﾏｼ","townAreaKana":"ﾐｽﾞﾊｼﾋﾗﾂｶ","prefecture":"富山県","city":"富山市","townArea":"水橋平塚"},{"postalCode":"6640832","prefectureKana":"ﾋｮｳｺﾞｹﾝ","cityKana":"ｲﾀﾐｼ","townAreaKana":"ｼﾓｶﾞﾜﾗ","prefecture":"兵庫県","city":"伊丹市","townArea":"下河原"},{"postalCode":"0360221","prefectureKana":"ｱｵﾓﾘｹﾝ","cityKana":"ﾋﾗｶﾜｼ","townAreaKana":"ﾅｶｻﾄﾞﾏｴﾀﾞ","prefecture":"青森県","city":"平川市","townArea":"中佐渡前田"},{"postalCode":"6128087","prefectureKana":"ｷｮｳﾄﾌ","cityKana":"ｷｮｳﾄｼﾌｼﾐｸ","townAreaKana":"ｷｮｳﾏﾁﾀﾞｲｺｸﾁｮｳ","prefecture":"京都府","city":"京都市伏見区","townArea":"京町大黒町"},{"postalCode":"6410055","prefectureKana":"ﾜｶﾔﾏｹﾝ","cityKana":"ﾜｶﾔﾏｼ","townAreaKana":"ﾜｶｶﾞﾜﾁｮｳ","prefecture":"和歌山県","city":"和歌山市","townArea":"和歌川町"},{"postalCode":"5810077","prefectureKana":"ｵｵｻｶﾌ","cityKana":"ﾔｵｼ","townAreaKana":"ﾆｼｷｭｳﾎｳｼﾞ","prefecture":"大阪府","city":"八尾市","townArea":"西久宝寺"},{"postalCode":"0760054","prefectureKana":"ﾎｯｶｲﾄﾞｳ","cityKana":"ﾌﾗﾉｼ","townAreaKana":"ｶｽｶﾞﾁｮｳ","prefecture":"北海道","city":"富良野市","townArea":"春日町"},{"postalCode":"6800811","prefectureKana":"ﾄｯﾄﾘｹﾝ","cityKana":"ﾄｯﾄﾘｼ","townAreaKana":"ﾆｼﾎﾝｼﾞ","prefecture":"鳥取県","city":"鳥取市","townArea":"西品治"},{"postalCode":"9592125","prefectureKana":"ﾆｲｶﾞﾀｹﾝ","cityKana":"ｱｶﾞﾉｼ","townAreaKana":"ｷｮｳｶﾞｼﾏ","prefecture":"新潟県","city":"阿賀野市","townArea":"京ケ島"},{"postalCode":"6890115","prefectureKana":"ﾄｯﾄﾘｹﾝ","cityKana":"ﾄｯﾄﾘｼ","townAreaKana":"ﾌｸﾍﾞﾁｮｳﾔｴﾊﾞﾗ","prefecture":"鳥取県","city":"鳥取市","townArea":"福部町八重原"},{"postalCode":"6128428","prefectureKana":"ｷｮｳﾄﾌ","cityKana":"ｷｮｳﾄｼﾌｼﾐｸ","townAreaKana":"ﾀｹﾀﾞﾆｼｵｹﾉｲﾁｮｳ","prefecture":"京都府","city":"京都市伏見区","townArea":"竹田西桶ノ井町"},{"postalCode":"8500974","prefectureKana":"ﾅｶﾞｻｷｹﾝ","cityKana":"ﾅｶﾞｻｷｼ","townAreaKana":"ｷｮｳﾀﾛｳﾏﾁ","prefecture":"長崎県","city":"長崎市","townArea":"京太郎町"},{"postalCode":"0181514","prefectureKana":"ｱｷﾀｹﾝ","cityKana":"ﾐﾅﾐｱｷﾀｸﾞﾝｲｶﾜﾏﾁ","townAreaKana":"ｳｼﾞｷ","prefecture":"秋田県","city":"南秋田郡井川町","townArea":"宇治木"},{"postalCode":"4640019","prefectureKana":"ｱｲﾁｹﾝ","cityKana":"ﾅｺﾞﾔｼﾁｸｻｸ","townAreaKana":"ｱｹﾞﾊﾁｮｳ","prefecture":"愛知県","city":"名古屋市千種区","townArea":"揚羽町"},{"postalCode":"9010325","prefectureKana":"ｵｷﾅﾜｹﾝ","cityKana":"ｲﾄﾏﾝｼ","townAreaKana":"ｵｵｻﾞﾄ","prefecture":"沖縄県","city":"糸満市","townArea":"大里"},{"postalCode":"7010163","prefectureKana":"ｵｶﾔﾏｹﾝ","cityKana":"ｵｶﾔﾏｼｷﾀｸ","townAreaKana":"ﾅｶﾅﾂｶﾜ","prefecture":"岡山県","city":"岡山市北区","townArea":"中撫川"},{"postalCode":"4790854","prefectureKana":"ｱｲﾁｹﾝ","cityKana":"ﾄｺﾅﾒｼ","townAreaKana":"ｴﾉｷﾄﾞﾁｮｳ","prefecture":"愛知県","city":"常滑市","townArea":"榎戸町"},{"postalCode":"4540032","prefectureKana":"ｱｲﾁｹﾝ","cityKana":"ﾅｺﾞﾔｼﾅｶｶﾞﾜｸ","townAreaKana":"ｱﾗｴﾁｮｳ","prefecture":"愛知県","city":"名古屋市中川区","townArea":"荒江町"},{"postalCode":"0791281","prefectureKana":"ﾎｯｶｲﾄﾞｳ","cityKana":"ｱｶﾋﾞﾗｼ","townAreaKana":"ﾋﾗｷﾞｼｼﾝｺｳﾁｮｳ","prefecture":"北海道","city":"赤平市","townArea":"平岸新光町"},{"postalCode":"9430226","prefectureKana":"ﾆｲｶﾞﾀｹﾝ","cityKana":"ｼﾞｮｳｴﾂｼ","townAreaKana":"ｻﾝﾜｸﾋﾖﾘﾁｮｳ","prefecture":"新潟県","city":"上越市","townArea":"三和区日和町"},{"postalCode":"6730017","prefectureKana":"ﾋｮｳｺﾞｹﾝ","cityKana":"ｱｶｼｼ","townAreaKana":"ﾉﾉｳｴ","prefecture":"兵庫県","city":"明石市","townArea":"野々上"},{"postalCode":"5560003","prefectureKana":"ｵｵｻｶﾌ","cityKana":"ｵｵｻｶｼﾅﾆﾜｸ","townAreaKana":"ｴﾋﾞｽﾆｼ","prefecture":"大阪府","city":"大阪市浪速区","townArea":"恵美須西"},{"postalCode":"2240026","prefectureKana":"ｶﾅｶﾞﾜｹﾝ","cityKana":"ﾖｺﾊﾏｼﾂﾂﾞｷｸ","townAreaKana":"ﾐﾅﾐﾔﾏﾀﾁｮｳ","prefecture":"神奈川県","city":"横浜市都筑区","townArea":"南山田町"},{"postalCode":"9520824","prefectureKana":"ﾆｲｶﾞﾀｹﾝ","cityKana":"ｻﾄﾞｼ","townAreaKana":"ﾏﾙﾔﾏ","prefecture":"新潟県","city":"佐渡市","townArea":"丸山"},{"postalCode":"7596541","prefectureKana":"ﾔﾏｸﾞﾁｹﾝ","cityKana":"ｼﾓﾉｾｷｼ","townAreaKana":"ﾖｼﾓ","prefecture":"山口県","city":"下関市","townArea":"吉母"},{"postalCode":"6561606","prefectureKana":"ﾋｮｳｺﾞｹﾝ","cityKana":"ｱﾜｼﾞｼ","townAreaKana":"ﾑﾛﾂ","prefecture":"兵庫県","city":"淡路市","townArea":"室津"},{"postalCode":"3113416","prefectureKana":"ｲﾊﾞﾗｷｹﾝ","cityKana":"ｵﾐﾀﾏｼ","townAreaKana":"ﾖｻﾞﾜ","prefecture":"茨城県","city":"小美玉市","townArea":"与沢"},{"postalCode":"6260016","prefectureKana":"ｷｮｳﾄﾌ","cityKana":"ﾐﾔﾂﾞｼ","townAreaKana":"ｼﾝﾊﾏ","prefecture":"京都府","city":"宮津市","townArea":"新浜"},{"postalCode":"4420814","prefectureKana":"ｱｲﾁｹﾝ","cityKana":"ﾄﾖｶﾜｼ","townAreaKana":"ｲﾝﾉｺﾁｮｳ","prefecture":"愛知県","city":"豊川市","townArea":"院之子町"},{"postalCode":"6048326","prefectureKana":"ｷｮｳﾄﾌ","cityKana":"ｷｮｳﾄｼﾅｶｷﾞｮｳｸ","townAreaKana":"ｱﾈｵｵﾐﾔﾁｮｳﾋｶﾞｼｶﾞﾜ","prefecture":"京都府","city":"京都市中京区","townArea":"姉大宮町東側"},{"postalCode":"2991123","prefectureKana":"ﾁﾊﾞｹﾝ","cityKana":"ｷﾐﾂｼ","townAreaKana":"ｵｵﾔﾏﾉ","prefecture":"千葉県","city":"君津市","townArea":"大山野"},{"postalCode":"6392253","prefectureKana":"ﾅﾗｹﾝ","cityKana":"ｺﾞｾｼ","townAreaKana":"ﾌﾞﾝｾﾞ","prefecture":"奈良県","city":"御所市","townArea":"奉膳"},{"postalCode":"9940000","prefectureKana":"ﾔﾏｶﾞﾀｹﾝ","cityKana":"ﾃﾝﾄﾞｳｼ","townAreaKana":"","prefecture":"山形県","city":"天童市","townArea":""},{"postalCode":"4750832","prefectureKana":"ｱｲﾁｹﾝ","cityKana":"ﾊﾝﾀﾞｼ","townAreaKana":"ｶﾜｻｷﾁｮｳ","prefecture":"愛知県","city":"半田市","townArea":"川崎町"},{"postalCode":"0980501","prefectureKana":"ﾎｯｶｲﾄﾞｳ","cityKana":"ﾅﾖﾛｼ","townAreaKana":"ﾌｳﾚﾝﾁｮｳﾄﾖｻﾄ","prefecture":"北海道","city":"名寄市","townArea":"風連町豊里"},{"postalCode":"6370063","prefectureKana":"ﾅﾗｹﾝ","cityKana":"ｺﾞｼﾞｮｳｼ","townAreaKana":"ｵｵﾉﾁｮｳ","prefecture":"奈良県","city":"五條市","townArea":"大野町"},{"postalCode":"5680083","prefectureKana":"ｵｵｻｶﾌ","cityKana":"ｲﾊﾞﾗｷｼ","townAreaKana":"ｸﾙﾏﾂｸﾘ","prefecture":"大阪府","city":"茨木市","townArea":"車作"},{"postalCode":"5730166","prefectureKana":"ｵｵｻｶﾌ","cityKana":"ﾋﾗｶﾀｼ","townAreaKana":"ﾔﾏﾀﾞｲｹｷﾀﾏﾁ","prefecture":"大阪府","city":"枚方市","townArea":"山田池北町"},{"postalCode":"6751324","prefectureKana":"ﾋｮｳｺﾞｹﾝ","cityKana":"ｵﾉｼ","townAreaKana":"ｲｸｶﾞｵｶﾁｮｳ","prefecture":"兵庫県","city":"小野市","townArea":"育ケ丘町"},{"postalCode":"5760002","prefectureKana":"ｵｵｻｶﾌ","cityKana":"ｶﾀﾉｼ","townAreaKana":"ｷｻﾍﾞ","prefecture":"大阪府","city":"交野市","townArea":"私部"},{"postalCode":"5180406","prefectureKana":"ﾐｴｹﾝ","cityKana":"ﾅﾊﾞﾘｼ","townAreaKana":"ｽｽﾞﾗﾝﾀﾞｲﾆｼ1ﾊﾞﾝﾁｮｳ","prefecture":"三重県","city":"名張市","townArea":"すずらん台西１番町"},{"postalCode":"6640028","prefectureKana":"ﾋｮｳｺﾞｹﾝ","cityKana":"ｲﾀﾐｼ","townAreaKana":"ﾆｼﾉ","prefecture":"兵庫県","city":"伊丹市","townArea":"西野"},{"postalCode":"3901101","prefectureKana":"ﾅｶﾞﾉｹﾝ","cityKana":"ﾋｶﾞｼﾁｸﾏｸﾞﾝｱｻﾋﾑﾗ","townAreaKana":"ﾆｼｾﾊﾞ","prefecture":"長野県","city":"東筑摩郡朝日村","townArea":"西洗馬"},{"postalCode":"9260227","prefectureKana":"ｲｼｶﾜｹﾝ","cityKana":"ﾅﾅｵｼ","townAreaKana":"ﾉﾄｼﾞﾏｸｷﾏﾁ","prefecture":"石川県","city":"七尾市","townArea":"能登島久木町"},{"postalCode":"2920404","prefectureKana":"ﾁﾊﾞｹﾝ","cityKana":"ｷﾐﾂｼ","townAreaKana":"ｶｴﾌﾁ","prefecture":"千葉県","city":"君津市","townArea":"賀恵渕"},{"postalCode":"6038305","prefectureKana":"ｷｮｳﾄﾌ","cityKana":"ｷｮｳﾄｼｷﾀｸ","townAreaKana":"ﾑﾗｻｷﾉﾐﾅﾐﾊﾅﾉﾎﾞｳﾁｮｳ","prefecture":"京都府","city":"京都市北区","townArea":"紫野南花ノ坊町"},{"postalCode":"8592306","prefectureKana":"ﾅｶﾞｻｷｹﾝ","cityKana":"ﾐﾅﾐｼﾏﾊﾞﾗｼ","townAreaKana":"ｷﾀｱﾘﾏﾁｮｳｷ","prefecture":"長崎県","city":"南島原市","townArea":"北有馬町己"},{"postalCode":"3390026","prefectureKana":"ｻｲﾀﾏｹﾝ","cityKana":"ｻｲﾀﾏｼｲﾜﾂｷｸ","townAreaKana":"ｵｶﾞｻｷｼﾝﾃﾞﾝ","prefecture":"埼玉県","city":"さいたま市岩槻区","townArea":"尾ケ崎新田"},{"postalCode":"6700922","prefectureKana":"ﾋｮｳｺﾞｹﾝ","cityKana":"ﾋﾒｼﾞｼ","townAreaKana":"ﾆｶｲﾏﾁ","prefecture":"兵庫県","city":"姫路市","townArea":"二階町"},{"postalCode":"8660891","prefectureKana":"ｸﾏﾓﾄｹﾝ","cityKana":"ﾔﾂｼﾛｼ","townAreaKana":"ｺｶﾞﾊﾏﾏﾁ","prefecture":"熊本県","city":"八代市","townArea":"古閑浜町"},{"postalCode":"9250162","prefectureKana":"ｲｼｶﾜｹﾝ","cityKana":"ﾊｸｲｸﾞﾝｼｶﾏﾁ","townAreaKana":"ﾓﾓｳﾗ","prefecture":"石川県","city":"羽咋郡志賀町","townArea":"百浦"},{"postalCode":"6990203","prefectureKana":"ｼﾏﾈｹﾝ","cityKana":"ﾏﾂｴｼ","townAreaKana":"ﾀﾏﾕﾁｮｳﾌｼﾞﾅ","prefecture":"島根県","city":"松江市","townArea":"玉湯町布志名"},{"postalCode":"6930102","prefectureKana":"ｼﾏﾈｹﾝ","cityKana":"ｲｽﾞﾓｼ","townAreaKana":"ﾆｼﾀﾞﾆﾁｮｳ","prefecture":"島根県","city":"出雲市","townArea":"西谷町"},{"postalCode":"6158062","prefectureKana":"ｷｮｳﾄﾌ","cityKana":"ｷｮｳﾄｼﾆｼｷｮｳｸ","townAreaKana":"ｼﾓﾂﾊﾞﾔｼﾏｴﾌﾞｹﾁｮｳ","prefecture":"京都府","city":"京都市西京区","townArea":"下津林前泓町"},{"postalCode":"1630630","prefectureKana":"ﾄｳｷｮｳﾄ","cityKana":"ｼﾝｼﾞｭｸｸ","townAreaKana":"ﾆｼｼﾝｼﾞｭｸｼﾝｼﾞｭｸｾﾝﾀｰﾋﾞﾙ30ｶｲ","prefecture":"東京都","city":"新宿区","townArea":"西新宿新宿センタービル　３０階"},{"postalCode":"4840953","prefectureKana":"ｱｲﾁｹﾝ","cityKana":"ｲﾇﾔﾏｼ","townAreaKana":"ｼﾓﾌﾞﾀｲ","prefecture":"愛知県","city":"犬山市","townArea":"下舞台"},{"postalCode":"8540204","prefectureKana":"ﾅｶﾞｻｷｹﾝ","cityKana":"ｲｻﾊﾔｼ","townAreaKana":"ﾓﾘﾔﾏﾁｮｳﾀｼﾞﾘ","prefecture":"長崎県","city":"諫早市","townArea":"森山町田尻"},{"postalCode":"9192215","prefectureKana":"ﾌｸｲｹﾝ","cityKana":"ｵｵｲｸﾞﾝﾀｶﾊﾏﾁｮｳ","townAreaKana":"ﾐﾅﾐﾀﾞﾝﾁ","prefecture":"福井県","city":"大飯郡高浜町","townArea":"南団地"},{"postalCode":"5013882","prefectureKana":"ｷﾞﾌｹﾝ","cityKana":"ｾｷｼ","townAreaKana":"ﾆｼﾋﾖｼﾁｮｳ","prefecture":"岐阜県","city":"関市","townArea":"西日吉町"},{"postalCode":"5012515","prefectureKana":"ｷﾞﾌｹﾝ","cityKana":"ｷﾞﾌｼ","townAreaKana":"ﾐﾜﾐﾔﾆｼ","prefecture":"岐阜県","city":"岐阜市","townArea":"三輪宮西"},{"postalCode":"4240943","prefectureKana":"ｼｽﾞｵｶｹﾝ","cityKana":"ｼｽﾞｵｶｼｼﾐｽﾞｸ","townAreaKana":"ﾐﾅﾄﾁｮｳ","prefecture":"静岡県","city":"静岡市清水区","townArea":"港町"},{"postalCode":"5152302","prefectureKana":"ﾐｴｹﾝ","cityKana":"ﾏﾂｻｶｼ","townAreaKana":"ｳﾚｼﾉﾃﾝｹﾞｴｼﾞﾁｮｳ","prefecture":"三重県","city":"松阪市","townArea":"嬉野天花寺町"},{"postalCode":"9292231","prefectureKana":"ｲｼｶﾜｹﾝ","cityKana":"ﾅﾅｵｼ","townAreaKana":"ﾅｶｼﾞﾏﾏﾁｵｸﾖｼﾀ","prefecture":"石川県","city":"七尾市","townArea":"中島町奥吉田"},{"postalCode":"7530070","prefectureKana":"ﾔﾏｸﾞﾁｹﾝ","cityKana":"ﾔﾏｸﾞﾁｼ","townAreaKana":"ｼﾗｲｼ","prefecture":"山口県","city":"山口市","townArea":"白石"},{"postalCode":"5260821","prefectureKana":"ｼｶﾞｹﾝ","cityKana":"ﾅｶﾞﾊﾏｼ","townAreaKana":"ﾎﾝｼﾞｮｳﾁｮｳ","prefecture":"滋賀県","city":"長浜市","townArea":"本庄町"},{"postalCode":"7942112","prefectureKana":"ｴﾋﾒｹﾝ","cityKana":"ｲﾏﾊﾞﾘｼ","townAreaKana":"ﾖｼｳﾐﾁｮｳﾎﾝｼﾞｮｳ","prefecture":"愛媛県","city":"今治市","townArea":"吉海町本庄"},{"postalCode":"0360306","prefectureKana":"ｱｵﾓﾘｹﾝ","cityKana":"ｸﾛｲｼｼ","townAreaKana":"ｳﾁﾏﾁ","prefecture":"青森県","city":"黒石市","townArea":"内町"},{"postalCode":"2570011","prefectureKana":"ｶﾅｶﾞﾜｹﾝ","cityKana":"ﾊﾀﾞﾉｼ","townAreaKana":"ｵｼﾞﾘ","prefecture":"神奈川県","city":"秦野市","townArea":"尾尻"},{"postalCode":"7300037","prefectureKana":"ﾋﾛｼﾏｹﾝ","cityKana":"ﾋﾛｼﾏｼﾅｶｸ","townAreaKana":"ﾅｶﾏﾁ","prefecture":"広島県","city":"広島市中区","townArea":"中町"},{"postalCode":"5291412","prefectureKana":"ｼｶﾞｹﾝ","cityKana":"ﾋｶﾞｼｵｳﾐｼ","townAreaKana":"ｺﾞｶｼｮｳﾜﾀﾞﾁｮｳ","prefecture":"滋賀県","city":"東近江市","townArea":"五個荘和田町"},{"postalCode":"3010016","prefectureKana":"ｲﾊﾞﾗｷｹﾝ","cityKana":"ﾘｭｳｶﾞｻｷｼ","townAreaKana":"ﾅｶﾞｵｷｼﾝﾃﾞﾝﾏﾁ","prefecture":"茨城県","city":"龍ケ崎市","townArea":"長沖新田町"},{"postalCode":"2701171","prefectureKana":"ﾁﾊﾞｹﾝ","cityKana":"ｱﾋﾞｺｼ","townAreaKana":"ﾍﾞﾝﾃﾝｼﾀ","prefecture":"千葉県","city":"我孫子市","townArea":"弁天下"},{"postalCode":"1630521","prefectureKana":"ﾄｳｷｮｳﾄ","cityKana":"ｼﾝｼﾞｭｸｸ","townAreaKana":"ﾆｼｼﾝｼﾞｭｸｼﾝｼﾞｭｸﾉﾑﾗﾋﾞﾙ21ｶｲ","prefecture":"東京都","city":"新宿区","townArea":"西新宿新宿野村ビル　２１階"},{"postalCode":"0691134","prefectureKana":"ﾎｯｶｲﾄﾞｳ","cityKana":"ﾕｳﾊﾞﾘｸﾞﾝﾕﾆﾁｮｳ","townAreaKana":"ﾐｶﾜﾐﾄﾞﾘﾏﾁ","prefecture":"北海道","city":"夕張郡由仁町","townArea":"三川緑町"},{"postalCode":"4450883","prefectureKana":"ｱｲﾁｹﾝ","cityKana":"ﾆｼｵｼ","townAreaKana":"ｼﾓﾄﾞｳﾒｷﾁｮｳ","prefecture":"愛知県","city":"西尾市","townArea":"下道目記町"},{"postalCode":"9051305","prefectureKana":"ｵｷﾅﾜｹﾝ","cityKana":"ｸﾆｶﾞﾐｸﾞﾝｵｵｷﾞﾐｿﾝ","townAreaKana":"ｵｵｶﾞﾈｸ","prefecture":"沖縄県","city":"国頭郡大宜味村","townArea":"大兼久"},{"postalCode":"2870201","prefectureKana":"ﾁﾊﾞｹﾝ","cityKana":"ﾅﾘﾀｼ","townAreaKana":"ｼﾊﾞﾀ","prefecture":"千葉県","city":"成田市","townArea":"柴田"},{"postalCode":"0480101","prefectureKana":"ﾎｯｶｲﾄﾞｳ","cityKana":"ｽｯﾂｸﾞﾝｸﾛﾏﾂﾅｲﾁｮｳ","townAreaKana":"ｸﾛﾏﾂﾅｲ","prefecture":"北海道","city":"寿都郡黒松内町","townArea":"黒松内"},{"postalCode":"5080501","prefectureKana":"ｷﾞﾌｹﾝ","cityKana":"ﾅｶﾂｶﾞﾜｼ","townAreaKana":"ﾔﾏｸﾞﾁ","prefecture":"岐阜県","city":"中津川市","townArea":"山口"},{"postalCode":"4850083","prefectureKana":"ｱｲﾁｹﾝ","cityKana":"ｺﾏｷｼ","townAreaKana":"ﾑﾗﾅｶｼﾝﾏﾁ","prefecture":"愛知県","city":"小牧市","townArea":"村中新町"},{"postalCode":"8700036","prefectureKana":"ｵｵｲﾀｹﾝ","cityKana":"ｵｵｲﾀｼ","townAreaKana":"ｺﾄﾌﾞｷﾏﾁ","prefecture":"大分県","city":"大分市","townArea":"寿町"},{"postalCode":"9040111","prefectureKana":"ｵｷﾅﾜｹﾝ","cityKana":"ﾅｶｶﾞﾐｸﾞﾝﾁｬﾀﾝﾁｮｳ","townAreaKana":"ｽﾅﾍﾞ","prefecture":"沖縄県","city":"中頭郡北谷町","townArea":"砂辺"},{"postalCode":"5020072","prefectureKana":"ｷﾞﾌｹﾝ","cityKana":"ｷﾞﾌｼ","townAreaKana":"ﾅｶﾞﾗﾌｸｲｽﾞﾐ","prefecture":"岐阜県","city":"岐阜市","townArea":"長良福泉"},{"postalCode":"4371512","prefectureKana":"ｼｽﾞｵｶｹﾝ","cityKana":"ｷｸｶﾞﾜｼ","townAreaKana":"ｻﾙﾜﾀﾘ","prefecture":"静岡県","city":"菊川市","townArea":"猿渡"},{"postalCode":"4890966","prefectureKana":"ｱｲﾁｹﾝ","cityKana":"ｾﾄｼ","townAreaKana":"ｶｹｼﾀﾁｮｳ","prefecture":"愛知県","city":"瀬戸市","townArea":"掛下町"},{"postalCode":"4440903","prefectureKana":"ｱｲﾁｹﾝ","cityKana":"ｵｶｻﾞｷｼ","townAreaKana":"ﾋｶﾞｼｵｵﾄﾞﾓﾁｮｳ","prefecture":"愛知県","city":"岡崎市","townArea":"東大友町"},{"postalCode":"6068422","prefectureKana":"ｷｮｳﾄﾌ","cityKana":"ｷｮｳﾄｼｻｷｮｳｸ","townAreaKana":"ｼｼｶﾞﾀﾆｺﾞｼｮﾉﾀﾞﾝﾁｮｳ","prefecture":"京都府","city":"京都市左京区","townArea":"鹿ケ谷御所ノ段町"},{"postalCode":"9980878","prefectureKana":"ﾔﾏｶﾞﾀｹﾝ","cityKana":"ｻｶﾀｼ","townAreaKana":"ｺｱﾗ","prefecture":"山形県","city":"酒田市","townArea":"こあら"},{"postalCode":"7793127","prefectureKana":"ﾄｸｼﾏｹﾝ","cityKana":"ﾄｸｼﾏｼ","townAreaKana":"ｺｸﾌﾁｮｳﾆｼﾔﾉ","prefecture":"徳島県","city":"徳島市","townArea":"国府町西矢野"},{"postalCode":"6980014","prefectureKana":"ｼﾏﾈｹﾝ","cityKana":"ﾏｽﾀﾞｼ","townAreaKana":"ｲﾜｸﾗﾁｮｳ","prefecture":"島根県","city":"益田市","townArea":"岩倉町"},{"postalCode":"3460106","prefectureKana":"ｻｲﾀﾏｹﾝ","cityKana":"ｸｷｼ","townAreaKana":"ｼｮｳﾌﾞﾁｮｳｼｮｳﾌﾞ","prefecture":"埼玉県","city":"久喜市","townArea":"菖蒲町菖蒲"},{"postalCode":"8190377","prefectureKana":"ﾌｸｵｶｹﾝ","cityKana":"ﾌｸｵｶｼﾆｼｸ","townAreaKana":"ﾐｮｳﾊﾞﾙｷﾀ","prefecture":"福岡県","city":"福岡市西区","townArea":"女原北"},{"postalCode":"6670323","prefectureKana":"ﾋｮｳｺﾞｹﾝ","cityKana":"ﾔﾌﾞｼ","townAreaKana":"ｵｵﾔﾁｮｳﾜｶｽ","prefecture":"兵庫県","city":"養父市","townArea":"大屋町若杉"},{"postalCode":"7000000","prefectureKana":"ｵｶﾔﾏｹﾝ","cityKana":"ｵｶﾔﾏｼﾐﾅﾐｸ","townAreaKana":"","prefecture":"岡山県","city":"岡山市南区","townArea":""},{"postalCode":"3240002","prefectureKana":"ﾄﾁｷﾞｹﾝ","cityKana":"ｵｵﾀﾜﾗｼ","townAreaKana":"ﾊﾝﾀﾞ","prefecture":"栃木県","city":"大田原市","townArea":"羽田"},{"postalCode":"4506230","prefectureKana":"ｱｲﾁｹﾝ","cityKana":"ﾅｺﾞﾔｼﾅｶﾑﾗｸ","townAreaKana":"ﾒｲｴｷﾐｯﾄﾞﾗﾝﾄﾞｽｸｴｱｺｳｿｳﾄｳ30ｶｲ","prefecture":"愛知県","city":"名古屋市中村区","townArea":"名駅ミッドランドスクエア高層棟　３０階"},{"postalCode":"6900812","prefectureKana":"ｼﾏﾈｹﾝ","cityKana":"ﾏﾂｴｼ","townAreaKana":"ｶﾜﾊﾗﾁｮｳ","prefecture":"島根県","city":"松江市","townArea":"川原町"},{"postalCode":"4411103","prefectureKana":"ｱｲﾁｹﾝ","cityKana":"ﾄﾖﾊｼｼ","townAreaKana":"ｲｼﾏｷﾊｷﾞﾋﾗﾁｮｳ","prefecture":"愛知県","city":"豊橋市","townArea":"石巻萩平町"},{"postalCode":"4520012","prefectureKana":"ｱｲﾁｹﾝ","cityKana":"ｷﾖｽｼ","townAreaKana":"ﾆｼﾋﾞﾜｼﾞﾏﾁｮｳｷﾀﾔﾏﾄ","prefecture":"愛知県","city":"清須市","townArea":"西枇杷島町北大和"},{"postalCode":"6008411","prefectureKana":"ｷｮｳﾄﾌ","cityKana":"ｷｮｳﾄｼｼﾓｷﾞｮｳｸ","townAreaKana":"ｽｲｷﾞﾝﾔﾁｮｳ","prefecture":"京都府","city":"京都市下京区","townArea":"水銀屋町"},{"postalCode":"1630724","prefectureKana":"ﾄｳｷｮｳﾄ","cityKana":"ｼﾝｼﾞｭｸｸ","townAreaKana":"ﾆｼｼﾝｼﾞｭｸｵﾀﾞｷｭｳﾀﾞｲｲﾁｾｲﾒｲﾋﾞﾙ24ｶｲ","prefecture":"東京都","city":"新宿区","townArea":"西新宿小田急第一生命ビル　２４階"},{"postalCode":"9400236","prefectureKana":"ﾆｲｶﾞﾀｹﾝ","cityKana":"ﾅｶﾞｵｶｼ","townAreaKana":"ﾄﾁｵｵｵﾉﾏﾁ","prefecture":"新潟県","city":"長岡市","townArea":"栃尾大野町"},{"postalCode":"4370045","prefectureKana":"ｼｽﾞｵｶｹﾝ","cityKana":"ﾌｸﾛｲｼ","townAreaKana":"ﾋｺｼﾞﾏ","prefecture":"静岡県","city":"袋井市","townArea":"彦島"},{"postalCode":"2960024","prefectureKana":"ﾁﾊﾞｹﾝ","cityKana":"ｶﾓｶﾞﾜｼ","townAreaKana":"ｲｹﾀﾞ","prefecture":"千葉県","city":"鴨川市","townArea":"池田"},{"postalCode":"5100242","prefectureKana":"ﾐｴｹﾝ","cityKana":"ｽｽﾞｶｼ","townAreaKana":"ｼﾛｺﾎﾝﾏﾁ","prefecture":"三重県","city":"鈴鹿市","townArea":"白子本町"},{"postalCode":"6660241","prefectureKana":"ﾋｮｳｺﾞｹﾝ","cityKana":"ｶﾜﾍﾞｸﾞﾝｲﾅｶﾞﾜﾁｮｳ","townAreaKana":"ｳﾁﾊﾞﾊﾞ","prefecture":"兵庫県","city":"川辺郡猪名川町","townArea":"内馬場"},{"postalCode":"6028364","prefectureKana":"ｷｮｳﾄﾌ","cityKana":"ｷｮｳﾄｼｶﾐｷﾞｮｳｸ","townAreaKana":"ﾂｷﾇｹﾁｮｳｼﾓﾀﾞﾁｳﾘﾄﾞｵﾘｵﾝﾏｴﾆｼｲﾙ","prefecture":"京都府","city":"京都市上京区","townArea":"突抜町下立売通御前西入"},{"postalCode":"4660843","prefectureKana":"ｱｲﾁｹﾝ","cityKana":"ﾅｺﾞﾔｼｼｮｳﾜｸ","townAreaKana":"ｷｸｿﾞﾉﾁｮｳ","prefecture":"愛知県","city":"名古屋市昭和区","townArea":"菊園町"},{"postalCode":"6620841","prefectureKana":"ﾋｮｳｺﾞｹﾝ","cityKana":"ﾆｼﾉﾐﾔｼ","townAreaKana":"ﾘｮｳﾄﾞﾁｮｳ","prefecture":"兵庫県","city":"西宮市","townArea":"両度町"},{"postalCode":"2850928","prefectureKana":"ﾁﾊﾞｹﾝ","cityKana":"ｲﾝﾊﾞｸﾞﾝｼｽｲﾏﾁ","townAreaKana":"ﾌｼﾞｷﾉ","prefecture":"千葉県","city":"印旛郡酒々井町","townArea":"ふじき野"},{"postalCode":"4411347","prefectureKana":"ｱｲﾁｹﾝ","cityKana":"ｼﾝｼﾛｼ","townAreaKana":"ｶﾜﾀﾞ","prefecture":"愛知県","city":"新城市","townArea":"川田"},{"postalCode":"0360537","prefectureKana":"ｱｵﾓﾘｹﾝ","cityKana":"ｸﾛｲｼｼ","townAreaKana":"ｱｶｻｶ","prefecture":"青森県","city":"黒石市","townArea":"赤坂"},{"postalCode":"4680077","prefectureKana":"ｱｲﾁｹﾝ","cityKana":"ﾅｺﾞﾔｼﾃﾝﾊﾟｸｸ","townAreaKana":"ﾔｺﾞﾄﾔﾏ","prefecture":"愛知県","city":"名古屋市天白区","townArea":"八事山"},{"postalCode":"6010541","prefectureKana":"ｷｮｳﾄﾌ","cityKana":"ｷｮｳﾄｼｳｷｮｳｸ","townAreaKana":"ｹｲﾎｸｱｶｲｼﾁｮｳ","prefecture":"京都府","city":"京都市右京区","townArea":"京北赤石町"},{"postalCode":"9608026","prefectureKana":"ﾌｸｼﾏｹﾝ","cityKana":"ﾌｸｼﾏｼ","townAreaKana":"ｶﾘﾉ","prefecture":"福島県","city":"福島市","townArea":"狩野"},{"postalCode":"9570066","prefectureKana":"ﾆｲｶﾞﾀｹﾝ","cityKana":"ｼﾊﾞﾀｼ","townAreaKana":"ﾌﾅｲﾘ","prefecture":"新潟県","city":"新発田市","townArea":"舟入"},{"postalCode":"5270073","prefectureKana":"ｼｶﾞｹﾝ","cityKana":"ﾋｶﾞｼｵｳﾐｼ","townAreaKana":"ﾍﾋﾞﾐｿﾞﾁｮｳ","prefecture":"滋賀県","city":"東近江市","townArea":"蛇溝町"},{"postalCode":"4280018","prefectureKana":"ｼｽﾞｵｶｹﾝ","cityKana":"ｼﾏﾀﾞｼ","townAreaKana":"ｶﾅﾔﾈｷﾞｼﾁｮｳ","prefecture":"静岡県","city":"島田市","townArea":"金谷根岸町"},{"postalCode":"4050073","prefectureKana":"ﾔﾏﾅｼｹﾝ","cityKana":"ﾌｴﾌｷｼ","townAreaKana":"ｲﾁﾉﾐﾔﾁｮｳｽｴｷ","prefecture":"山梨県","city":"笛吹市","townArea":"一宮町末木"},{"postalCode":"9997743","prefectureKana":"ﾔﾏｶﾞﾀｹﾝ","cityKana":"ﾋｶﾞｼﾀｶﾞﾜｸﾞﾝｼｮｳﾅｲﾏﾁ","townAreaKana":"ｱﾗﾀﾒ","prefecture":"山形県","city":"東田川郡庄内町","townArea":"新田目"},{"postalCode":"5181303","prefectureKana":"ﾐｴｹﾝ","cityKana":"ｲｶﾞｼ","townAreaKana":"ｶﾐﾄﾓﾀﾞ","prefecture":"三重県","city":"伊賀市","townArea":"上友田"},{"postalCode":"3500452","prefectureKana":"ｻｲﾀﾏｹﾝ","cityKana":"ｲﾙﾏｸﾞﾝﾓﾛﾔﾏﾏﾁ","townAreaKana":"ｵｵﾔｷﾞ","prefecture":"埼玉県","city":"入間郡毛呂山町","townArea":"大谷木"},{"postalCode":"7011605","prefectureKana":"ｵｶﾔﾏｹﾝ","cityKana":"ｵｶﾔﾏｼｷﾀｸ","townAreaKana":"ｶﾜﾊﾗ","prefecture":"岡山県","city":"岡山市北区","townArea":"河原"},{"postalCode":"7080317","prefectureKana":"ｵｶﾔﾏｹﾝ","cityKana":"ﾄﾏﾀｸﾞﾝｶｶﾞﾐﾉﾁｮｳ","townAreaKana":"ﾄﾞｲ","prefecture":"岡山県","city":"苫田郡鏡野町","townArea":"土居"},{"postalCode":"0182407","prefectureKana":"ｱｷﾀｹﾝ","cityKana":"ﾔﾏﾓﾄｸﾞﾝﾐﾀﾈﾁｮｳ","townAreaKana":"ﾊﾏﾀﾞ","prefecture":"秋田県","city":"山本郡三種町","townArea":"浜田"},{"postalCode":"7510857","prefectureKana":"ﾔﾏｸﾞﾁｹﾝ","cityKana":"ｼﾓﾉｾｷｼ","townAreaKana":"ﾋｴﾀﾞｷﾀﾏﾁ","prefecture":"山口県","city":"下関市","townArea":"稗田北町"},{"postalCode":"0360378","prefectureKana":"ｱｵﾓﾘｹﾝ","cityKana":"ｸﾛｲｼｼ","townAreaKana":"ﾊﾏﾏﾁ","prefecture":"青森県","city":"黒石市","townArea":"浜町"},{"postalCode":"8592204","prefectureKana":"ﾅｶﾞｻｷｹﾝ","cityKana":"ﾐﾅﾐｼﾏﾊﾞﾗｼ","townAreaKana":"ｱﾘｴﾁｮｳｶﾏｶﾞ","prefecture":"長崎県","city":"南島原市","townArea":"有家町蒲河"},{"postalCode":"4440407","prefectureKana":"ｱｲﾁｹﾝ","cityKana":"ﾆｼｵｼ","townAreaKana":"ｲｯｼｷﾁｮｳﾏｴﾉ","prefecture":"愛知県","city":"西尾市","townArea":"一色町前野"},{"postalCode":"0592565","prefectureKana":"ﾎｯｶｲﾄﾞｳ","cityKana":"ﾋﾀﾞｶｸﾞﾝｼﾝﾋﾀﾞｶﾁｮｳ","townAreaKana":"ｼｽﾞﾅｲﾊﾙﾀﾁ","prefecture":"北海道","city":"日高郡新ひだか町","townArea":"静内春立"},{"postalCode":"9102213","prefectureKana":"ﾌｸｲｹﾝ","cityKana":"ﾌｸｲｼ","townAreaKana":"ｵｵｸﾎﾞﾁｮｳ","prefecture":"福井県","city":"福井市","townArea":"大久保町"},{"postalCode":"9518123","prefectureKana":"ﾆｲｶﾞﾀｹﾝ","cityKana":"ﾆｲｶﾞﾀｼﾁｭｳｵｳｸ","townAreaKana":"ｼﾓｱｻﾋﾏﾁ","prefecture":"新潟県","city":"新潟市中央区","townArea":"下旭町"},{"postalCode":"9220002","prefectureKana":"ｲｼｶﾜｹﾝ","cityKana":"ｶｶﾞｼ","townAreaKana":"ﾀﾞｲｼｮｳｼﾞｼﾓﾌｸﾀﾞﾏﾁ","prefecture":"石川県","city":"加賀市","townArea":"大聖寺下福田町"},{"postalCode":"7294223","prefectureKana":"ﾋﾛｼﾏｹﾝ","cityKana":"ﾐﾖｼｼ","townAreaKana":"ｷｻﾁｮｳｳﾂﾞｲ","prefecture":"広島県","city":"三次市","townArea":"吉舎町雲通"},{"postalCode":"8940023","prefectureKana":"ｶｺﾞｼﾏｹﾝ","cityKana":"ｱﾏﾐｼ","townAreaKana":"ﾅｾﾞﾅｶﾞﾀﾁｮｳ","prefecture":"鹿児島県","city":"奄美市","townArea":"名瀬永田町"},{"postalCode":"5010105","prefectureKana":"ｷﾞﾌｹﾝ","cityKana":"ｷﾞﾌｼ","townAreaKana":"ｺﾞｳﾄﾞ","prefecture":"岐阜県","city":"岐阜市","townArea":"河渡"},{"postalCode":"5280014","prefectureKana":"ｼｶﾞｹﾝ","cityKana":"ｺｳｶｼ","townAreaKana":"ﾐﾅｸﾁﾁｮｳﾛｸｼﾝ","prefecture":"滋賀県","city":"甲賀市","townArea":"水口町鹿深"},{"postalCode":"9170237","prefectureKana":"ﾌｸｲｹﾝ","cityKana":"ｵﾊﾞﾏｼ","townAreaKana":"ﾓﾝｾﾞﾝ","prefecture":"福井県","city":"小浜市","townArea":"門前"},{"postalCode":"7390005","prefectureKana":"ﾋﾛｼﾏｹﾝ","cityKana":"ﾋｶﾞｼﾋﾛｼﾏｼ","townAreaKana":"ｻｲｼﾞｮｳｵｵﾂﾎﾞﾁｮｳ","prefecture":"広島県","city":"東広島市","townArea":"西条大坪町"},{"postalCode":"1020084","prefectureKana":"ﾄｳｷｮｳﾄ","cityKana":"ﾁﾖﾀﾞｸ","townAreaKana":"ﾆﾊﾞﾝﾁｮｳ","prefecture":"東京都","city":"千代田区","townArea":"二番町"},{"postalCode":"3294413","prefectureKana":"ﾄﾁｷﾞｹﾝ","cityKana":"ﾄﾁｷﾞｼ","townAreaKana":"ｵｵﾋﾗﾏﾁｶﾐﾀｶｼﾏ","prefecture":"栃木県","city":"栃木市","townArea":"大平町上高島"},{"postalCode":"6750147","prefectureKana":"ﾋｮｳｺﾞｹﾝ","cityKana":"ｶｺｸﾞﾝﾊﾘﾏﾁｮｳ","townAreaKana":"ﾐﾅﾐｵｵﾅｶ","prefecture":"兵庫県","city":"加古郡播磨町","townArea":"南大中"},{"postalCode":"0070005","prefectureKana":"ﾎｯｶｲﾄﾞｳ","cityKana":"ｻｯﾎﾟﾛｼﾋｶﾞｼｸ","townAreaKana":"ﾅｶﾇﾏ5ｼﾞｮｳ","prefecture":"北海道","city":"札幌市東区","townArea":"中沼五条"},{"postalCode":"7830063","prefectureKana":"ｺｳﾁｹﾝ","cityKana":"ﾅﾝｺｸｼ","townAreaKana":"ｳｴﾀ","prefecture":"高知県","city":"南国市","townArea":"植田"},{"postalCode":"9940066","prefectureKana":"ﾔﾏｶﾞﾀｹﾝ","cityKana":"ﾃﾝﾄﾞｳｼ","townAreaKana":"ﾅｶﾞｵｶ","prefecture":"山形県","city":"天童市","townArea":"長岡"},{"postalCode":"9170088","prefectureKana":"ﾌｸｲｹﾝ","cityKana":"ｵﾊﾞﾏｼ","townAreaKana":"ｵﾊﾞﾏﾀｶﾞ","prefecture":"福井県","city":"小浜市","townArea":"小浜多賀"},{"postalCode":"3710125","prefectureKana":"ｸﾞﾝﾏｹﾝ","cityKana":"ﾏｴﾊﾞｼｼ","townAreaKana":"ﾐﾈﾏﾁ","prefecture":"群馬県","city":"前橋市","townArea":"嶺町"},{"postalCode":"7440001","prefectureKana":"ﾔﾏｸﾞﾁｹﾝ","cityKana":"ｸﾀﾞﾏﾂｼ","townAreaKana":"ｶｻﾄﾞｼﾏｺﾌﾞｶｳﾗ","prefecture":"山口県","city":"下松市","townArea":"笠戸島小深浦"},{"postalCode":"2700225","prefectureKana":"ﾁﾊﾞｹﾝ","cityKana":"ﾉﾀﾞｼ","townAreaKana":"ﾋﾗｲ","prefecture":"千葉県","city":"野田市","townArea":"平井"},{"postalCode":"7094614","prefectureKana":"ｵｶﾔﾏｹﾝ","cityKana":"ﾂﾔﾏｼ","townAreaKana":"ｸﾒｶﾜﾐﾅﾐ","prefecture":"岡山県","city":"津山市","townArea":"久米川南"},{"postalCode":"6891106","prefectureKana":"ﾄｯﾄﾘｹﾝ","cityKana":"ﾄｯﾄﾘｼ","townAreaKana":"ﾅｶｵｵﾛ","prefecture":"鳥取県","city":"鳥取市","townArea":"中大路"},{"postalCode":"0720853","prefectureKana":"ﾎｯｶｲﾄﾞｳ","cityKana":"ﾋﾞﾊﾞｲｼ","townAreaKana":"ｶﾞﾛﾁｮｳ3ｼﾞｮｳ","prefecture":"北海道","city":"美唄市","townArea":"我路町三条"},{"postalCode":"1056311","prefectureKana":"ﾄｳｷｮｳﾄ","cityKana":"ﾐﾅﾄｸ","townAreaKana":"ﾄﾗﾉﾓﾝﾄﾗﾉﾓﾝﾋﾙｽﾞﾓﾘﾀﾜｰ11ｶｲ","prefecture":"東京都","city":"港区","townArea":"虎ノ門虎ノ門ヒルズ森タワー　１１階"},{"postalCode":"9693501","prefectureKana":"ﾌｸｼﾏｹﾝ","cityKana":"ｷﾀｶﾀｼ","townAreaKana":"ｼｵｶﾜﾏﾁﾐﾖｼ","prefecture":"福島県","city":"喜多方市","townArea":"塩川町三吉"},{"postalCode":"7660016","prefectureKana":"ｶｶﾞﾜｹﾝ","cityKana":"ﾅｶﾀﾄﾞｸﾞﾝﾏﾝﾉｳﾁｮｳ","townAreaKana":"ｽﾐｼｮﾋｶﾞｼ","prefecture":"香川県","city":"仲多度郡まんのう町","townArea":"炭所東"},{"postalCode":"0288404","prefectureKana":"ｲﾜﾃｹﾝ","cityKana":"ｼﾓﾍｲｸﾞﾝﾀﾉﾊﾀﾑﾗ","townAreaKana":"ﾏﾂﾏｴｻﾜ","prefecture":"岩手県","city":"下閉伊郡田野畑村","townArea":"松前沢"},{"postalCode":"0410844","prefectureKana":"ﾎｯｶｲﾄﾞｳ","cityKana":"ﾊｺﾀﾞﾃｼ","townAreaKana":"ｶﾜﾊﾗﾁｮｳ","prefecture":"北海道","city":"函館市","townArea":"川原町"},{"postalCode":"6490300","prefectureKana":"ﾜｶﾔﾏｹﾝ","cityKana":"ｱﾘﾀﾞｼ","townAreaKana":"","prefecture":"和歌山県","city":"有田市","townArea":""},{"postalCode":"7094321","prefectureKana":"ｵｶﾔﾏｹﾝ","cityKana":"ｶﾂﾀｸﾞﾝｼｮｳｵｳﾁｮｳ","townAreaKana":"ﾀｲﾍｲﾀﾞｲ","prefecture":"岡山県","city":"勝田郡勝央町","townArea":"太平台"},{"postalCode":"3212414","prefectureKana":"ﾄﾁｷﾞｹﾝ","cityKana":"ﾆｯｺｳｼ","townAreaKana":"ﾄﾖﾀﾞ","prefecture":"栃木県","city":"日光市","townArea":"豊田"},{"postalCode":"0720056","prefectureKana":"ﾎｯｶｲﾄﾞｳ","cityKana":"ﾋﾞﾊﾞｲｼ","townAreaKana":"ﾆｼﾋﾞﾊﾞｲﾁｮｳﾔﾏｶﾞﾀ","prefecture":"北海道","city":"美唄市","townArea":"西美唄町山形"},{"postalCode":"7000815","prefectureKana":"ｵｶﾔﾏｹﾝ","cityKana":"ｵｶﾔﾏｼｷﾀｸ","townAreaKana":"ﾉﾀﾞﾔﾁｮｳ","prefecture":"岡山県","city":"岡山市北区","townArea":"野田屋町"},{"postalCode":"4411381","prefectureKana":"ｱｲﾁｹﾝ","cityKana":"ｼﾝｼﾛｼ","townAreaKana":"ｼﾀｶﾞﾜ","prefecture":"愛知県","city":"新城市","townArea":"下川"},{"postalCode":"7390412","prefectureKana":"ﾋﾛｼﾏｹﾝ","cityKana":"ﾊﾂｶｲﾁｼ","townAreaKana":"ﾐﾔｼﾞﾏｸﾞﾁﾆｼ","prefecture":"広島県","city":"廿日市市","townArea":"宮島口西"},{"postalCode":"9440086","prefectureKana":"ﾆｲｶﾞﾀｹﾝ","cityKana":"ﾐｮｳｺｳｼ","townAreaKana":"ｻｶｲｼﾝﾃﾞﾝ","prefecture":"新潟県","city":"妙高市","townArea":"坂井新田"},{"postalCode":"4840043","prefectureKana":"ｱｲﾁｹﾝ","cityKana":"ｲﾇﾔﾏｼ","townAreaKana":"ｶﾐﾉﾀ","prefecture":"愛知県","city":"犬山市","townArea":"上ノ田"},{"postalCode":"4890972","prefectureKana":"ｱｲﾁｹﾝ","cityKana":"ｾﾄｼ","townAreaKana":"ﾆｼﾊﾗﾁｮｳ","prefecture":"愛知県","city":"瀬戸市","townArea":"西原町"},{"postalCode":"6750133","prefectureKana":"ﾋｮｳｺﾞｹﾝ","cityKana":"ｶｺｶﾞﾜｼ","townAreaKana":"ﾍﾞﾌﾁｮｳﾆｼﾏﾁ","prefecture":"兵庫県","city":"加古川市","townArea":"別府町西町"},{"postalCode":"6600856","prefectureKana":"ﾋｮｳｺﾞｹﾝ","cityKana":"ｱﾏｶﾞｻｷｼ","townAreaKana":"ﾋｶﾞｼﾑｺｳｼﾞﾏﾆｼﾉﾁｮｳ","prefecture":"兵庫県","city":"尼崎市","townArea":"東向島西之町"},{"postalCode":"6148006","prefectureKana":"ｷｮｳﾄﾌ","cityKana":"ﾔﾜﾀｼ","townAreaKana":"ﾔﾜﾀｵｵﾀﾆ","prefecture":"京都府","city":"八幡市","townArea":"八幡大谷"},{"postalCode":"7560801","prefectureKana":"ﾔﾏｸﾞﾁｹﾝ","cityKana":"ｻﾝﾖｳｵﾉﾀﾞｼ","townAreaKana":"ｷﾀｻｶｴﾏﾁ","prefecture":"山口県","city":"山陽小野田市","townArea":"北栄町"},{"postalCode":"6048051","prefectureKana":"ｷｮｳﾄﾌ","cityKana":"ｷｮｳﾄｼﾅｶｷﾞｮｳｸ","townAreaKana":"ﾌﾅﾔﾁｮｳ","prefecture":"京都府","city":"京都市中京区","townArea":"船屋町"},{"postalCode":"8180111","prefectureKana":"ﾌｸｵｶｹﾝ","cityKana":"ﾀﾞｻﾞｲﾌｼ","townAreaKana":"ｻﾝｼﾞｮｳ","prefecture":"福岡県","city":"太宰府市","townArea":"三条"},{"postalCode":"9860776","prefectureKana":"ﾐﾔｷﾞｹﾝ","cityKana":"ﾓﾄﾖｼｸﾞﾝﾐﾅﾐｻﾝﾘｸﾁｮｳ","townAreaKana":"ｼﾂﾞｶﾞﾜﾀｹｶﾞﾜﾗ","prefecture":"宮城県","city":"本吉郡南三陸町","townArea":"志津川竹川原"},{"postalCode":"9391515","prefectureKana":"ﾄﾔﾏｹﾝ","cityKana":"ﾅﾝﾄｼ","townAreaKana":"ﾌｸﾉｼﾞｸﾔ","prefecture":"富山県","city":"南砺市","townArea":"福野軸屋"},{"postalCode":"8480043","prefectureKana":"ｻｶﾞｹﾝ","cityKana":"ｲﾏﾘｼ","townAreaKana":"ｾﾄﾁｮｳ","prefecture":"佐賀県","city":"伊万里市","townArea":"瀬戸町"},{"postalCode":"7180005","prefectureKana":"ｵｶﾔﾏｹﾝ","cityKana":"ﾆｲﾐｼ","townAreaKana":"ｶﾐｲﾁ","prefecture":"岡山県","city":"新見市","townArea":"上市"},{"postalCode":"8528112","prefectureKana":"ﾅｶﾞｻｷｹﾝ","cityKana":"ﾅｶﾞｻｷｼ","townAreaKana":"ﾓﾄｵﾏﾁ","prefecture":"長崎県","city":"長崎市","townArea":"本尾町"},{"postalCode":"8680084","prefectureKana":"ｸﾏﾓﾄｹﾝ","cityKana":"ﾋﾄﾖｼｼ","townAreaKana":"ｵﾝｾﾝﾏﾁ","prefecture":"熊本県","city":"人吉市","townArea":"温泉町"},{"postalCode":"4790815","prefectureKana":"ｱｲﾁｹﾝ","cityKana":"ﾄｺﾅﾒｼ","townAreaKana":"ｶﾗｻｷﾁｮｳ","prefecture":"愛知県","city":"常滑市","townArea":"唐崎町"},{"postalCode":"2310861","prefectureKana":"ｶﾅｶﾞﾜｹﾝ","cityKana":"ﾖｺﾊﾏｼﾅｶｸ","townAreaKana":"ﾓﾄﾏﾁ","prefecture":"神奈川県","city":"横浜市中区","townArea":"元町"}]